{"type": "FeatureCollection", "features": [{"type": "Feature", "geometry": {"type": "Point", "coordinates": [-85.9070249, 30.2321109]}, "properties": {"tourism": "camp_site", "osm_id": 95855262}}, {"type": "Feature", "geometry": {"type": "Point", "coordinates": [-87.6241906, 30.6257995]}, "properties": {"name": "Hilltop RV Park", "tourism": "caravan_site", "wheelchair": "yes", "osm_id": 891268475}}, {"type": "Feature", "geometry": {"type": "Point", "coordinates": [-87.6102066, 30.617386]}, "properties": {"name": "Wilderness RV Park", "tourism": "caravan_site", "osm_id": 891268476}}, {"type": "Feature", "geometry": {"type": "Point", "coordinates": [-87.6055847, 30.6250391]}, "properties": {"name": "Azalea Acres RV Park", "tourism": "caravan_site", "osm_id": 891268477}}, {"type": "Feature", "geometry": {"type": "Point", "coordinates": [-87.5930476, 30.6234616]}, "properties": {"addr:city": "Robertsdale", "addr:housenumber": "25625", "addr:postcode": "36567", "addr:state": "AL", "addr:street": "Water Rapids Road", "internet_access": "wlan", "name": "Riverside RV Resort", "opening_hours": "Mo-Sa 9:00 - 15:00", "operator": "April Givens", "phone": "+1-251-945-1110", "start_date": "2016", "tourism": "caravan_site", "website": "https://www.riverside-rvresort.com/", "osm_id": 891268478}}, {"type": "Feature", "geometry": {"type": "Point", "coordinates": [-85.5118632, 32.5530584]}, "properties": {"addr:city": "Auburn", "addr:housenumber": "2670", "addr:postcode": "36830", "addr:state": "AL", "addr:street": "South College Street", "fee": "yes", "internet_access": "wlan", "name": "Leisure Time Campground", "phone": "+1-334-821-2267", "power_supply": "yes", "tourism": "caravan_site", "website": "https://www.rvauburn.com/", "osm_id": 894539519}}, {"type": "Feature", "geometry": {"type": "Point", "coordinates": [-85.880838, 30.4298666]}, "properties": {"landuse": "recreation_ground", "name": "Sand Pond Recreation Area", "tourism": "camp_site", "osm_id": 938494626}}, {"type": "Feature", "geometry": {"type": "Point", "coordinates": [-86.5593656, 30.6875195]}, "properties": {"backcountry": "yes", "capacity:tents": "6", "name": "Pearl Creek", "tourism": "camp_site", "osm_id": 1074243092}}, {"type": "Feature", "geometry": {"type": "Point", "coordinates": [-86.4709963, 30.6945083]}, "properties": {"backcountry": "yes", "capacity:tents": "5", "fee": "yes", "name": "Jr. Walton Pond", "tourism": "camp_site", "osm_id": 1074280364}}, {"type": "Feature", "geometry": {"type": "Point", "coordinates": [-86.3882931, 30.6975999]}, "properties": {"name": "Speck Pond", "tourism": "camp_site", "osm_id": 1099957949}}, {"type": "Feature", "geometry": {"type": "Point", "coordinates": [-86.3476308, 30.7259363]}, "properties": {"backcountry": "yes", "capacity:tents": "6", "name": "Red Deer", "picnic_table": "yes", "tourism": "camp_site", "osm_id": 1099973602}}, {"type": "Feature", "geometry": {"type": "Point", "coordinates": [-84.9502266, 30.5691526]}, "properties": {"tourism": "caravan_site", "osm_id": 1223801712}}, {"type": "Feature", "geometry": {"type": "Point", "coordinates": [-86.8344237, 30.8619225]}, "properties": {"fee": "yes", "name": "Bear Lake Campground", "reservation": "yes", "tourism": "camp_site", "website": "https://www.fdacs.gov/Forest-Wildfire/Our-Forests/State-Forests/Blackwater-River-State-Forest/Recreation-Areas-at-Blackwater-River-State-Forest", "osm_id": 1277531689}}, {"type": "Feature", "geometry": {"type": "Point", "coordinates": [-86.8341622, 30.8619386]}, "properties": {"tourism": "caravan_site", "osm_id": 1277531691}}, {"type": "Feature", "geometry": {"type": "Point", "coordinates": [-86.8518843, 30.8615214]}, "properties": {"tourism": "camp_site", "osm_id": 1277538207}}, {"type": "Feature", "geometry": {"type": "Point", "coordinates": [-86.8517449, 30.8617609]}, "properties": {"tourism": "caravan_site", "osm_id": 1277538208}}, {"type": "Feature", "geometry": {"type": "Point", "coordinates": [-86.0400508, 33.8156574]}, "properties": {"name": "Lakeshore Marina Campground", "tourism": "caravan_site", "osm_id": 1279012818}}, {"type": "Feature", "geometry": {"type": "Point", "coordinates": [-85.8802373, 30.4298482]}, "properties": {"name": "Pine Log State Forest", "tourism": "caravan_site", "osm_id": 1280898102}}, {"type": "Feature", "geometry": {"type": "Point", "coordinates": [-84.9104053, 30.5667827]}, "properties": {"name": "Torreya Challenge Primitive Camp", "tourism": "camp_site", "osm_id": 1295596635}}, {"type": "Feature", "geometry": {"type": "Point", "coordinates": [-84.9394912, 30.5809526]}, "properties": {"name": "Rock Creek Primitive Camp", "tourism": "camp_site", "osm_id": 1295597960}}, {"type": "Feature", "geometry": {"type": "Point", "coordinates": [-84.959911, 30.5638499]}, "properties": {"name": "Rock Bluff Primitive Camp", "tourism": "camp_site", "osm_id": 1295608837}}, {"type": "Feature", "geometry": {"type": "Point", "coordinates": [-84.9865361, 30.2756475]}, "properties": {"name": "Camel Lake Recreation Area Apalachicola National Forest", "tourism": "caravan_site", "osm_id": 1300357195}}, {"type": "Feature", "geometry": {"type": "Point", "coordinates": [-84.986064, 30.2759255]}, "properties": {"name": "Camel Lake Recreation Area Apalachicola National Forest", "tourism": "camp_site", "osm_id": 1300357201}}, {"type": "Feature", "geometry": {"type": "Point", "coordinates": [-87.623788, 34.8104266]}, "properties": {"capacity": "22", "tourism": "caravan_site", "osm_id": 1340644231}}, {"type": "Feature", "geometry": {"type": "Point", "coordinates": [-86.2695966, 34.9006672]}, "properties": {"name": "Sleeper Bus", "tourism": "camp_site", "osm_id": 1354253643}}, {"type": "Feature", "geometry": {"type": "Point", "coordinates": [-87.6481759, 30.2602429]}, "properties": {"name": "Gulf State Park", "tourism": "caravan_site", "osm_id": 2074061367}}, {"type": "Feature", "geometry": {"type": "Point", "coordinates": [-88.0396267, 31.5598064]}, "properties": {"name": "Saint Stephens Park Primitive Campground", "tourism": "camp_site", "osm_id": 2443519530}}, {"type": "Feature", "geometry": {"type": "Point", "coordinates": [-88.0308318, 31.5583597]}, "properties": {"name": "Saint Stephens Park Campsite 2", "tourism": "camp_site", "osm_id": 2443519547}}, {"type": "Feature", "geometry": {"type": "Point", "coordinates": [-88.0398628, 31.5575369]}, "properties": {"name": "Saint Stephens Park Campground", "tourism": "camp_site", "osm_id": 2443523833}}, {"type": "Feature", "geometry": {"type": "Point", "coordinates": [-85.4758343, 34.823243]}, "properties": {"caravans": "no", "drinking_water": "no", "name": "Backcountry 1", "power_supply": "no", "shower": "no", "tents": "yes", "toilets": "yes", "tourism": "camp_site", "osm_id": 2462384222}}, {"type": "Feature", "geometry": {"type": "Point", "coordinates": [-85.4760898, 34.8234153]}, "properties": {"name": "Backcountry 2", "tourism": "camp_site", "osm_id": 2462384236}}, {"type": "Feature", "geometry": {"type": "Point", "coordinates": [-85.4717452, 34.8251531]}, "properties": {"name": "Backcountry 3", "tourism": "camp_site", "osm_id": 2462384974}}, {"type": "Feature", "geometry": {"type": "Point", "coordinates": [-85.4713751, 34.8238276]}, "properties": {"name": "Backcountry 4", "tourism": "camp_site", "osm_id": 2462384976}}, {"type": "Feature", "geometry": {"type": "Point", "coordinates": [-85.4709403, 34.8246288]}, "properties": {"name": "Backcountry 5", "tourism": "camp_site", "osm_id": 2462384980}}, {"type": "Feature", "geometry": {"type": "Point", "coordinates": [-85.4790863, 34.8220021]}, "properties": {"name": "Backcountry 11", "tourism": "camp_site", "osm_id": 2462387570}}, {"type": "Feature", "geometry": {"type": "Point", "coordinates": [-85.4762299, 34.8214187]}, "properties": {"name": "Backcountry 9", "tourism": "camp_site", "osm_id": 2462387592}}, {"type": "Feature", "geometry": {"type": "Point", "coordinates": [-85.4760958, 34.8208638]}, "properties": {"name": "Backcountry 8", "tourism": "camp_site", "osm_id": 2462387594}}, {"type": "Feature", "geometry": {"type": "Point", "coordinates": [-85.4710315, 34.8219866]}, "properties": {"backcountry": "yes", "drinking_water": "no", "fee": "yes", "internet_access": "no", "name": "Backcountry 6", "openfire": "yes", "picnic_table": "yes", "sanitary_dump_station": "yes", "static_caravans": "no", "tents": "yes", "tourism": "camp_site", "wheelchair": "no", "osm_id": 2462387598}}, {"type": "Feature", "geometry": {"type": "Point", "coordinates": [-85.4728074, 34.8184681]}, "properties": {"name": "Backcountry 7", "tourism": "camp_site", "osm_id": 2462387601}}, {"type": "Feature", "geometry": {"type": "Point", "coordinates": [-85.4785151, 34.8223193]}, "properties": {"name": "Backcountry 10", "tourism": "camp_site", "osm_id": 2462387602}}, {"type": "Feature", "geometry": {"type": "Point", "coordinates": [-85.4715843, 34.8436727]}, "properties": {"name": "Primitive Campsite 2", "tourism": "camp_site", "osm_id": 2462415333}}, {"type": "Feature", "geometry": {"type": "Point", "coordinates": [-85.4654847, 34.8336032]}, "properties": {"name": "Primitive Campsite 1", "tourism": "camp_site", "osm_id": 2462415336}}, {"type": "Feature", "geometry": {"type": "Point", "coordinates": [-87.1875697, 32.8193544]}, "properties": {"name": "Hunters Camp", "tourism": "camp_site", "osm_id": 2536755298}}, {"type": "Feature", "geometry": {"type": "Point", "coordinates": [-87.9158381, 34.420659]}, "properties": {"capacity": "46", "caravans": "yes", "name": "Williams Hollow Campground", "tents": "yes", "tourism": "camp_site", "website": "http://www.bearcreeklakes.com/williams-hollow.html", "osm_id": 2641388398}}, {"type": "Feature", "geometry": {"type": "Point", "coordinates": [-87.4952672, 32.9856972]}, "properties": {"name": "Primitive campground", "tourism": "camp_site", "osm_id": 2665333907}}, {"type": "Feature", "geometry": {"type": "Point", "coordinates": [-87.4448903, 32.8856485]}, "properties": {"capacity": "18", "caravans": "yes", "charge": "10 USD", "drinking_water": "yes", "fee": "yes", "name": "Lake Payne Westside Campground", "phone": "+1 205-926-9765", "reservation": "no", "tents": "yes", "tourism": "camp_site", "website": "https://www.fs.usda.gov/recarea/alabama/recreation/camping-cabins/recarea/?recid=30147&actid=29", "osm_id": 2710914451}}, {"type": "Feature", "geometry": {"type": "Point", "coordinates": [-87.3782403, 33.0231715]}, "properties": {"name": "primitive campground", "tourism": "camp_site", "osm_id": 2742367720}}, {"type": "Feature", "geometry": {"type": "Point", "coordinates": [-85.0287652, 30.2409843]}, "properties": {"name": "Big Gully Landing", "tourism": "camp_site", "osm_id": 2901837511}}, {"type": "Feature", "geometry": {"type": "Point", "coordinates": [-87.4166795, 33.2697248]}, "properties": {"tourism": "camp_site", "osm_id": 3048394289}}, {"type": "Feature", "geometry": {"type": "Point", "coordinates": [-88.1495459, 31.755621]}, "properties": {"tourism": "camp_site", "osm_id": 3264344560}}, {"type": "Feature", "geometry": {"type": "Point", "coordinates": [-87.0686336, 33.2507806]}, "properties": {"name": "Campground #1", "tourism": "camp_site", "osm_id": 3387884027}}, {"type": "Feature", "geometry": {"type": "Point", "coordinates": [-87.2633765, 30.319993]}, "properties": {"tourism": "caravan_site", "osm_id": 3416144342}}, {"type": "Feature", "geometry": {"type": "Point", "coordinates": [-87.2633497, 30.3201484]}, "properties": {"tourism": "caravan_site", "osm_id": 3416144348}}, {"type": "Feature", "geometry": {"type": "Point", "coordinates": [-87.2633229, 30.3202575]}, "properties": {"tourism": "caravan_site", "osm_id": 3416144352}}, {"type": "Feature", "geometry": {"type": "Point", "coordinates": [-87.948415, 34.1222614]}, "properties": {"tourism": "camp_site", "osm_id": 3432440775}}, {"type": "Feature", "geometry": {"type": "Point", "coordinates": [-85.4892092, 34.8369935]}, "properties": {"name": "Walk-in 11", "tourism": "camp_site", "osm_id": 3638038269}}, {"type": "Feature", "geometry": {"type": "Point", "coordinates": [-85.4892313, 34.8374214]}, "properties": {"name": "Walk-in 3", "tourism": "camp_site", "osm_id": 3638038274}}, {"type": "Feature", "geometry": {"type": "Point", "coordinates": [-85.4895361, 34.8377115]}, "properties": {"name": "Walk-in 4", "tourism": "camp_site", "osm_id": 3638038277}}, {"type": "Feature", "geometry": {"type": "Point", "coordinates": [-85.4884448, 34.838502]}, "properties": {"name": "Walk-in 13", "tourism": "camp_site", "osm_id": 3638038280}}, {"type": "Feature", "geometry": {"type": "Point", "coordinates": [-85.4880428, 34.8384694]}, "properties": {"name": "Walk-in 12", "tourism": "camp_site", "osm_id": 3638038282}}, {"type": "Feature", "geometry": {"type": "Point", "coordinates": [-85.4879147, 34.8389336]}, "properties": {"name": "Walk-in 14", "tourism": "camp_site", "osm_id": 3638038283}}, {"type": "Feature", "geometry": {"type": "Point", "coordinates": [-85.4884404, 34.839405]}, "properties": {"name": "Walk-in 16", "tourism": "camp_site", "osm_id": 3638038286}}, {"type": "Feature", "geometry": {"type": "Point", "coordinates": [-85.4879677, 34.8392128]}, "properties": {"name": "Walk-in 15", "tourism": "camp_site", "osm_id": 3638038290}}, {"type": "Feature", "geometry": {"type": "Point", "coordinates": [-85.4881356, 34.8399561]}, "properties": {"name": "Walk-in 18", "tourism": "camp_site", "osm_id": 3638038293}}, {"type": "Feature", "geometry": {"type": "Point", "coordinates": [-85.4880428, 34.8405073]}, "properties": {"name": "Walk-in 19", "tourism": "camp_site", "osm_id": 3638038295}}, {"type": "Feature", "geometry": {"type": "Point", "coordinates": [-85.4890192, 34.8417909]}, "properties": {"name": "Walk-in 20", "tourism": "camp_site", "osm_id": 3638038301}}, {"type": "Feature", "geometry": {"type": "Point", "coordinates": [-85.4895709, 34.8398819]}, "properties": {"name": "Walk-in 25", "tourism": "camp_site", "osm_id": 3638038304}}, {"type": "Feature", "geometry": {"type": "Point", "coordinates": [-85.4898995, 34.8363749]}, "properties": {"name": "Walk-in 10", "tourism": "camp_site", "osm_id": 3638088889}}, {"type": "Feature", "geometry": {"type": "Point", "coordinates": [-85.4898404, 34.8367684]}, "properties": {"name": "Walk-in 9", "tourism": "camp_site", "osm_id": 3638088891}}, {"type": "Feature", "geometry": {"type": "Point", "coordinates": [-85.4897314, 34.8372505]}, "properties": {"name": "Walk-in 7", "tourism": "camp_site", "osm_id": 3638089558}}, {"type": "Feature", "geometry": {"type": "Point", "coordinates": [-85.4899143, 34.8375097]}, "properties": {"name": "Walk-in 6", "tourism": "camp_site", "osm_id": 3638089560}}, {"type": "Feature", "geometry": {"type": "Point", "coordinates": [-85.4890407, 34.8379144]}, "properties": {"name": "Walk-in 2", "tourism": "camp_site", "osm_id": 3638089561}}, {"type": "Feature", "geometry": {"type": "Point", "coordinates": [-85.4899859, 34.8370034]}, "properties": {"name": "Walk-in 8", "tourism": "camp_site", "osm_id": 3638089593}}, {"type": "Feature", "geometry": {"type": "Point", "coordinates": [-85.4891332, 34.8385421]}, "properties": {"name": "Walk-in 1", "tourism": "camp_site", "osm_id": 3638089957}}, {"type": "Feature", "geometry": {"type": "Point", "coordinates": [-85.4866357, 34.83349]}, "properties": {"name": "Yurt 6", "tourism": "camp_site", "osm_id": 3638090281}}, {"type": "Feature", "geometry": {"type": "Point", "coordinates": [-85.4870466, 34.8334121]}, "properties": {"name": "Yurt 7", "tourism": "camp_site", "osm_id": 3638090282}}, {"type": "Feature", "geometry": {"type": "Point", "coordinates": [-85.489665, 34.8390858]}, "properties": {"name": "Walk-in 30", "tourism": "camp_site", "osm_id": 3638110432}}, {"type": "Feature", "geometry": {"type": "Point", "coordinates": [-85.4890325, 34.8391334]}, "properties": {"name": "Walk-in 29", "tourism": "camp_site", "osm_id": 3638110435}}, {"type": "Feature", "geometry": {"type": "Point", "coordinates": [-85.4892571, 34.8394959]}, "properties": {"name": "Walk-in 28", "tourism": "camp_site", "osm_id": 3638110437}}, {"type": "Feature", "geometry": {"type": "Point", "coordinates": [-85.4895621, 34.8396126]}, "properties": {"name": "Walk-in 26", "tourism": "camp_site", "osm_id": 3638110438}}, {"type": "Feature", "geometry": {"type": "Point", "coordinates": [-85.4892758, 34.8397616]}, "properties": {"name": "Walk-in 27", "tourism": "camp_site", "osm_id": 3638110439}}, {"type": "Feature", "geometry": {"type": "Point", "coordinates": [-85.4898661, 34.8402926]}, "properties": {"name": "Walk-in 24", "tourism": "camp_site", "osm_id": 3638110441}}, {"type": "Feature", "geometry": {"type": "Point", "coordinates": [-85.4898922, 34.8404122]}, "properties": {"name": "Walk-in 23", "tourism": "camp_site", "osm_id": 3638110443}}, {"type": "Feature", "geometry": {"type": "Point", "coordinates": [-85.4896848, 34.8405331]}, "properties": {"name": "Walk-in 22", "tourism": "camp_site", "osm_id": 3638110445}}, {"type": "Feature", "geometry": {"type": "Point", "coordinates": [-85.4898559, 34.8411453]}, "properties": {"name": "Walk-in 21", "tourism": "camp_site", "osm_id": 3638110447}}, {"type": "Feature", "geometry": {"type": "Point", "coordinates": [-85.4882989, 34.8397289]}, "properties": {"name": "Walk-in 17", "tourism": "camp_site", "osm_id": 3638110449}}, {"type": "Feature", "geometry": {"type": "Point", "coordinates": [-85.4894727, 34.8374407]}, "properties": {"name": "Walk-in 5", "tourism": "camp_site", "osm_id": 3638110451}}, {"type": "Feature", "geometry": {"type": "Point", "coordinates": [-85.4870311, 34.8328028]}, "properties": {"name": "Yurt 2", "tourism": "camp_site", "osm_id": 3638114870}}, {"type": "Feature", "geometry": {"type": "Point", "coordinates": [-85.4866556, 34.8327575]}, "properties": {"name": "Yurt 3", "tourism": "camp_site", "osm_id": 3638114871}}, {"type": "Feature", "geometry": {"type": "Point", "coordinates": [-85.4864855, 34.8328409]}, "properties": {"name": "Yurt 4", "tourism": "camp_site", "osm_id": 3638114872}}, {"type": "Feature", "geometry": {"type": "Point", "coordinates": [-85.4863132, 34.8330821]}, "properties": {"name": "Yurt 5", "tourism": "camp_site", "osm_id": 3638114873}}, {"type": "Feature", "geometry": {"type": "Point", "coordinates": [-85.4884784, 34.8335911]}, "properties": {"name": "Yurt 1", "tourism": "camp_site", "osm_id": 3638118494}}, {"type": "Feature", "geometry": {"type": "Point", "coordinates": [-85.4877688, 34.8337255]}, "properties": {"name": "Yurt 8", "tourism": "camp_site", "osm_id": 3638118495}}, {"type": "Feature", "geometry": {"type": "Point", "coordinates": [-85.4878998, 34.8339375]}, "properties": {"name": "Yurt 9", "tourism": "camp_site", "osm_id": 3638118496}}, {"type": "Feature", "geometry": {"type": "Point", "coordinates": [-85.4881946, 34.8341944]}, "properties": {"name": "Yurt 10", "tourism": "camp_site", "osm_id": 3638118497}}, {"type": "Feature", "geometry": {"type": "Point", "coordinates": [-85.2243304, 30.8056004]}, "properties": {"internet_access": "no", "power_supply": "yes", "sanitary_dump_station": "yes", "tourism": "caravan_site", "osm_id": 4066803624}}, {"type": "Feature", "geometry": {"type": "Point", "coordinates": [-85.2223135, 30.8131015]}, "properties": {"name": "Youth Camp", "tourism": "camp_site", "osm_id": 4067138386}}, {"type": "Feature", "geometry": {"type": "Point", "coordinates": [-85.2246897, 30.8060265]}, "properties": {"internet_access": "no", "power_supply": "yes", "sanitary_dump_station": "yes", "tourism": "caravan_site", "osm_id": 4068280840}}, {"type": "Feature", "geometry": {"type": "Point", "coordinates": [-85.2240615, 30.8057562]}, "properties": {"internet_access": "no", "power_supply": "yes", "sanitary_dump_station": "yes", "tourism": "caravan_site", "osm_id": 4068280844}}, {"type": "Feature", "geometry": {"type": "Point", "coordinates": [-85.224679, 30.8057613]}, "properties": {"internet_access": "no", "power_supply": "yes", "sanitary_dump_station": "yes", "tourism": "caravan_site", "osm_id": 4068280850}}, {"type": "Feature", "geometry": {"type": "Point", "coordinates": [-85.8393964, 33.4435372]}, "properties": {"access": "customers", "camping:tents": "yes", "charge": "5 USD", "drinking_water": "no", "fee": "yes", "name": "Turnipseed Campground", "permanent_camping": "no", "tourism": "camp_site", "website": "https://www.fs.usda.gov/recarea/alabama/recreation/recarea/?recid=30139", "osm_id": 4220162504}}, {"type": "Feature", "geometry": {"type": "Point", "coordinates": [-87.0653177, 33.2525641]}, "properties": {"caravans": "yes", "name": "Campground #3", "tents": "yes", "tourism": "camp_site", "osm_id": 4431628900}}, {"type": "Feature", "geometry": {"type": "Point", "coordinates": [-87.0679784, 33.2510478]}, "properties": {"name": "Campground #2", "tourism": "camp_site", "osm_id": 4431628901}}, {"type": "Feature", "geometry": {"type": "Point", "coordinates": [-85.01757, 33.9701041]}, "properties": {"addr:city": "Rockmart", "addr:housenumber": "130", "addr:postcode": "30153", "addr:state": "GA", "addr:street": "Forsyth Lake Road", "capacity": "100", "caravans": "yes", "fee": "yes", "name": "Beautiful Rock Campground", "operator": "Jon Hitchcock", "shower": "yes", "tents": "yes", "toilets": "yes", "tourism": "camp_site", "website": "https://therockrvpark.com/", "osm_id": 4431893960}}, {"type": "Feature", "geometry": {"type": "Point", "coordinates": [-85.5041881, 33.9164256]}, "properties": {"addr:city": "Borden Springs", "addr:housenumber": "3108", "addr:postcode": "36272", "addr:state": "AL", "addr:street": "County Road 94", "caravans": "yes", "email": "charliefagan@bellsouth.net", "fee": "yes", "name": "Chief Ladiga Trail Campground", "phone": "+1-256-282-2370", "tents": "yes", "tourism": "camp_site", "website": "https://www.chiefladigatrailcampground.com/", "osm_id": 4431893961}}, {"type": "Feature", "geometry": {"type": "Point", "coordinates": [-85.0568273, 31.7517351]}, "properties": {"name": "Bluff Creek Campground", "tourism": "camp_site", "osm_id": 4460890151}}, {"type": "Feature", "geometry": {"type": "Point", "coordinates": [-85.7379481, 34.4579663]}, "properties": {"addr:city": "Fort Payne", "addr:housenumber": "1310", "addr:state": "AL", "addr:street": "Airport Road West", "capacity": "43", "drinking_water": "yes", "email": "info@willscreekrvpark.com", "fee": "yes", "internet_access": "wlan", "name": "Wills Creek RV Park", "phone": "+1-256-845-6703", "power_supply": "yes", "tourism": "caravan_site", "website": "http://willscreekrvpark.com/", "osm_id": 4681117775}}, {"type": "Feature", "geometry": {"type": "Point", "coordinates": [-85.1321366, 30.6166778]}, "properties": {"addr:postcode": "32448", "addr:street": "Alliance Road", "name": "Alliance Hill RV Resort", "tourism": "camp_site", "osm_id": 4697791889}}, {"type": "Feature", "geometry": {"type": "Point", "coordinates": [-86.9907035, 32.6028852]}, "properties": {"tourism": "camp_site", "osm_id": 4702874245}}, {"type": "Feature", "geometry": {"type": "Point", "coordinates": [-86.9887732, 32.5977273]}, "properties": {"tourism": "camp_site", "osm_id": 4702874248}}, {"type": "Feature", "geometry": {"type": "Point", "coordinates": [-86.9899319, 32.5993051]}, "properties": {"tourism": "camp_site", "osm_id": 4702881123}}, {"type": "Feature", "geometry": {"type": "Point", "coordinates": [-86.1872234, 34.4148921]}, "properties": {"dog": "leashed", "name": "Town Creek Campground", "tourism": "camp_site", "osm_id": 4804231264}}, {"type": "Feature", "geometry": {"type": "Point", "coordinates": [-88.4366919, 30.6347566]}, "properties": {"name": "Camp ground", "name:en": "Camp ground", "tourism": "camp_site", "osm_id": 4880354423}}, {"type": "Feature", "geometry": {"type": "Point", "coordinates": [-86.672988, 31.8963202]}, "properties": {"addr:city": "Greenville", "addr:housenumber": "4397", "addr:postcode": "36037", "addr:state": "AL", "addr:street": "Braggs Road", "caravans": "yes", "email": "sherlinglake@cityofgville.com", "fee": "yes", "name": "Sherling Lake Campground and Park", "phone": "+1-334-382-3638", "tents": "yes", "tourism": "camp_site", "website": "http://www.greenville-alabama.com/Default.asp?ID=231", "osm_id": 5020904656}}, {"type": "Feature", "geometry": {"type": "Point", "coordinates": [-86.3882612, 34.3593552]}, "properties": {"addr:city": "Guntersville", "addr:housenumber": "6065", "addr:postcode": "35976", "addr:street": "AL 69", "name": "Georgia Mountain RV Resort", "phone": "+1 256 505 3010", "tourism": "camp_site", "website": "https://www.georgiamountainrvresort.com/", "osm_id": 5033037141}}, {"type": "Feature", "geometry": {"type": "Point", "coordinates": [-87.9679494, 34.3848916]}, "properties": {"capacity": "32", "caravans": "yes", "name": "Horseshoe Bend Campground", "tents": "yes", "tourism": "camp_site", "website": "http://www.bearcreeklakes.com/horseshoe-bend.html", "osm_id": 5179239318}}, {"type": "Feature", "geometry": {"type": "Point", "coordinates": [-86.1557915, 30.3297519]}, "properties": {"name": "Greyton state beach", "name:en": "Greyton state beach", "tourism": "camp_site", "osm_id": 5293464526}}, {"type": "Feature", "geometry": {"type": "Point", "coordinates": [-86.772827, 33.3908787]}, "properties": {"tourism": "camp_site", "osm_id": 5927250185}}, {"type": "Feature", "geometry": {"type": "Point", "coordinates": [-87.6003524, 33.2227681]}, "properties": {"capacity": "10", "name": "Van De Graaff Campground", "tourism": "caravan_site", "osm_id": 6245558175}}, {"type": "Feature", "geometry": {"type": "Point", "coordinates": [-87.5975419, 33.2237566]}, "properties": {"access": "permit", "capacity": "8", "fee": "yes", "internet_access": "no", "tourism": "camp_site", "osm_id": 6245558176}}, {"type": "Feature", "geometry": {"type": "Point", "coordinates": [-87.9505166, 34.8334505]}, "properties": {"bbq": "yes", "caravans": "no", "motor_vehicle": "no", "name": "Colbert Ferry Bicycle-only Campground milepost 327", "operator": "National Park Service", "tents": "yes", "tourism": "camp_site", "website": "https://www.nps.gov/natr/colbert-ferry-bicycle-only-campground.htm", "osm_id": 6264725605}}, {"type": "Feature", "geometry": {"type": "Point", "coordinates": [-87.2702421, 34.2970889]}, "properties": {"capacity": "13", "caravans": "yes", "drinking_water": "yes", "fee": "yes", "name": "Brushy Lake Recreational Area Campground", "operator": "Forest Service", "tents": "yes", "tourism": "camp_site", "website": "https://www.fs.usda.gov/recarea/alabama/recreation/camping-cabins/recarea/?recid=30083&actid=29", "osm_id": 6281675808}}, {"type": "Feature", "geometry": {"type": "Point", "coordinates": [-87.4349499, 34.2822415]}, "properties": {"FIXME": "location is a guess, need verification", "drinking_water": "yes", "name": "Wolf Pen Hunters Camp", "operator": "National Forest Service", "tourism": "camp_site", "website": "https://www.fs.usda.gov/recarea/alabama/recreation/camping-cabins/recarea/?recid=30101&actid=29", "osm_id": 6282176769}}, {"type": "Feature", "geometry": {"type": "Point", "coordinates": [-87.35, 34.34]}, "properties": {"drinking_water": "yes", "name": "McDougle Camp", "operator": "National Forest Service", "tourism": "camp_site", "website": "https://www.fs.usda.gov/recarea/alabama/recarea/?recid=30099", "osm_id": 6282190586}}, {"type": "Feature", "geometry": {"type": "Point", "coordinates": [-87.8934633, 31.1679876]}, "properties": {"backcountry": "yes", "canoe": "yes", "fee": "yes", "name": "Spoonbill Sandbar Campsite", "operator": "State Lands Division of the Alabama Department of Conservation and Natural Resources", "tourism": "camp_site", "website": "https://www.alabamacanoetrails.com/bartram", "osm_id": 6320078921}}, {"type": "Feature", "geometry": {"type": "Point", "coordinates": [-87.8912301, 31.0898318]}, "properties": {"backcountry": "yes", "canoe": "yes", "fee": "yes", "name": "Canal Island Platform", "operator": "State Lands Division of the Alabama Department of Conservation and Natural Resources", "tourism": "camp_site", "website": "https://www.alabamacanoetrails.com/bartram", "osm_id": 6320078922}}, {"type": "Feature", "geometry": {"type": "Point", "coordinates": [-87.9154948, 31.0439071]}, "properties": {"backcountry": "yes", "canoe": "yes", "fee": "yes", "name": "Dead Lake Platform", "operator": "State Lands Division of the Alabama Department of Conservation and Natural Resources", "tourism": "camp_site", "website": "https://www.alabamacanoetrails.com/bartram", "osm_id": 6320078923}}, {"type": "Feature", "geometry": {"type": "Point", "coordinates": [-87.9459508, 31.0196661]}, "properties": {"backcountry": "yes", "canoe": "yes", "fee": "yes", "name": "Two Rivers Point Campsite", "operator": "State Lands Division of the Alabama Department of Conservation and Natural Resources", "tourism": "camp_site", "website": "https://www.alabamacanoetrails.com/bartram", "osm_id": 6320078924}}, {"type": "Feature", "geometry": {"type": "Point", "coordinates": [-87.9081381, 31.0119071]}, "properties": {"backcountry": "yes", "canoe": "yes", "fee": "yes", "name": "Jug Lake Platform", "operator": "State Lands Division of the Alabama Department of Conservation and Natural Resources", "tourism": "camp_site", "website": "https://www.alabamacanoetrails.com/bartram", "osm_id": 6320078925}}, {"type": "Feature", "geometry": {"type": "Point", "coordinates": [-88.3278563, 34.5680375]}, "properties": {"capacity": "141", "caravans": "yes", "drinking_water": "yes", "fee": "yes", "name": "Piney Grove Campground", "opening_hours": "Mar 01-Nov 14 unknown; Nov 15-Feb 29 closed", "operator": "U.S. Army Corps of Engineers", "phone": "+1-662-728-1134", "power_supply": "yes", "shower": "yes", "tourism": "camp_site", "website": "https://www.recreation.gov/camping/campgrounds/232673", "osm_id": 6405590678}}, {"type": "Feature", "geometry": {"type": "Point", "coordinates": [-86.4922785, 30.4095943]}, "properties": {"tourism": "caravan_site", "osm_id": 6742176727}}, {"type": "Feature", "geometry": {"type": "Point", "coordinates": [-87.3963634, 34.2954766]}, "properties": {"name": "Claymore Camp #1", "tourism": "camp_site", "osm_id": 6899222587}}, {"type": "Feature", "geometry": {"type": "Point", "coordinates": [-85.1579704, 33.9966108]}, "properties": {"access": "yes", "backcountry": "yes", "caravans": "no", "drinking_water": "no", "fee": "no", "internet_access": "no", "name": "Silver Comet Trail Campground / Camp Comet", "opening_hours": "24/7", "power_supply": "no", "reservation": "no", "shower": "no", "static_caravans": "no", "tents": "yes", "toilets": "no", "tourism": "camp_site", "wheelchair": "no", "osm_id": 6952998385}}, {"type": "Feature", "geometry": {"type": "Point", "coordinates": [-85.3438201, 34.433939]}, "properties": {"name": "James H. Floyd State Park Campground", "tourism": "camp_site", "osm_id": 6953000491}}, {"type": "Feature", "geometry": {"type": "Point", "coordinates": [-85.9521662, 30.7721717]}, "properties": {"tourism": "camp_site", "osm_id": 7146612403}}, {"type": "Feature", "geometry": {"type": "Point", "coordinates": [-86.5287554, 30.4603413]}, "properties": {"tourism": "caravan_site", "osm_id": 7738422522}}, {"type": "Feature", "geometry": {"type": "Point", "coordinates": [-87.6033217, 30.2739017]}, "properties": {"name": "Outpost Campsites", "tourism": "camp_site", "osm_id": 7769258939}}, {"type": "Feature", "geometry": {"type": "Point", "coordinates": [-85.6870222, 31.4881409]}, "properties": {"access": "customers", "addr:city": "Ozark", "addr:housenumber": "2414", "addr:postcode": "36360", "addr:state": "AL", "addr:street": "N US Hwy 231", "fee": "yes", "name": "Ozark / Fort Rucker KOA Journey", "tourism": "camp_site", "osm_id": 7880944820}}, {"type": "Feature", "geometry": {"type": "Point", "coordinates": [-85.006726, 30.9721935]}, "properties": {"tourism": "camp_site", "osm_id": 7993214692}}, {"type": "Feature", "geometry": {"type": "Point", "coordinates": [-86.2284977, 34.2746132]}, "properties": {"tourism": "caravan_site", "osm_id": 8001908461}}, {"type": "Feature", "geometry": {"type": "Point", "coordinates": [-85.5718161, 34.5700216]}, "properties": {"name": "Camp Skyline Ranch", "tourism": "camp_site", "osm_id": 8413400145}}, {"type": "Feature", "geometry": {"type": "Point", "coordinates": [-86.0988979, 30.3173609]}, "properties": {"backcountry": "yes", "name": "Campground 1", "tourism": "camp_site", "osm_id": 8441792993}}, {"type": "Feature", "geometry": {"type": "Point", "coordinates": [-86.0929778, 30.3154182]}, "properties": {"backcountry": "yes", "name": "Campground 2", "tourism": "camp_site", "osm_id": 8441839146}}, {"type": "Feature", "geometry": {"type": "Point", "coordinates": [-88.3015801, 33.235567]}, "properties": {"addr:city": "Pickensville", "addr:housenumber": "61", "addr:postcode": "35447", "addr:state": "AL", "addr:street": "Camping Road", "capacity": "176", "charge": "24 USD", "fee": "yes", "laundry_service": "coin", "name": "Pickensville Corp of Engineers", "operator": "Corp of Engineers", "phone": "+1-205-373-6328", "power_supply": "yes", "reservation": "yes", "sanitary_dump_station": "yes", "shower": "yes", "toilets": "no", "tourism": "camp_site", "osm_id": 8611118516}}, {"type": "Feature", "geometry": {"type": "Point", "coordinates": [-88.2655752, 33.0832708]}, "properties": {"addr:city": "Aliceville", "addr:postcode": "35442", "addr:state": "AL", "capacity": "60", "charge": "18 USD", "fee": "yes", "name": "Cochrane Corp of Engineers", "operator": "Corp of Engineers", "phone": "+1-205-373-8806", "reservation": "no", "toilets": "flush", "tourism": "camp_site", "osm_id": 8611188617}}, {"type": "Feature", "geometry": {"type": "Point", "coordinates": [-86.9230386, 33.6374324]}, "properties": {"addr:city": "Brookside", "addr:state": "AL", "capacity": "46", "charge": "20 USD", "fee": "yes", "name": "Brookside Greenway", "phone": "+1 205 674 5550", "power_supply": "yes", "reservation": "yes", "shower": "yes", "tourism": "camp_site", "osm_id": 8611557018}}, {"type": "Feature", "geometry": {"type": "Point", "coordinates": [-87.4401529, 32.8843063]}, "properties": {"addr:city": "Duncanville", "addr:state": "AL", "capacity": "30", "fee": "yes", "name": "Payne Lake Eastside", "operator": "USFS", "phone": "+1 205-926-9765", "toilets": "vault", "tourism": "camp_site", "water": "water_well", "osm_id": 8611557019}}, {"type": "Feature", "geometry": {"type": "Point", "coordinates": [-87.8984566, 34.7728555]}, "properties": {"addr:housenumber": "2903", "addr:street": "Mulberry Lane", "name": "Mulberry Creek Camp", "tourism": "camp_site", "osm_id": 8645601617}}, {"type": "Feature", "geometry": {"type": "Point", "coordinates": [-85.9320774, 34.6497581]}, "properties": {"access": "private", "addr:city": "Scottsboro", "addr:housenumber": "2867", "addr:postcode": "35769", "addr:state": "AL", "addr:street": "County Road 24", "name": "Camp Jackson Scout Reservation", "operator": "BSA", "tourism": "camp_site", "osm_id": 8814979475}}, {"type": "Feature", "geometry": {"type": "Point", "coordinates": [-85.669925, 33.523715]}, "properties": {"access": "private", "addr:city": "Delta", "addr:housenumber": "4907", "addr:postcode": "36258", "addr:state": "AL", "addr:street": "County Road 11", "name": "Camp Sequoyah Scout Reservation", "operator": "BSA", "tourism": "camp_site", "osm_id": 8814983077}}, {"type": "Feature", "geometry": {"type": "Point", "coordinates": [-86.5542814, 34.5749851]}, "properties": {"tourism": "caravan_site", "osm_id": 8857112414}}, {"type": "Feature", "geometry": {"type": "Point", "coordinates": [-86.7387131, 33.335354]}, "properties": {"access": "permit", "backcountry": "yes", "fee": "yes", "name": "Backcountry Campsite #4", "openfire": "no", "operator": "Oak Mountain State Park", "payment:cash": "yes", "tourism": "camp_site", "osm_id": 8870783770}}, {"type": "Feature", "geometry": {"type": "Point", "coordinates": [-86.7191941, 33.3440381]}, "properties": {"access": "permit", "backcountry": "yes", "fee": "yes", "name": "Backcountry Campsite #2", "openfire": "no", "operator": "Oak Mountain State Park", "payment:cash": "yes", "tourism": "camp_site", "osm_id": 8870783771}}, {"type": "Feature", "geometry": {"type": "Point", "coordinates": [-86.7236654, 33.3317682]}, "properties": {"access": "permit", "backcountry": "yes", "fee": "yes", "name": "Backcountry Campsite #3", "openfire": "no", "operator": "Oak Mountain State Park", "payment:cash": "yes", "tourism": "camp_site", "osm_id": 8870783772}}, {"type": "Feature", "geometry": {"type": "Point", "coordinates": [-85.9261663, 34.6479169]}, "properties": {"tourism": "camp_site", "osm_id": 8871395051}}, {"type": "Feature", "geometry": {"type": "Point", "coordinates": [-87.4068182, 34.2972881]}, "properties": {"access": "permissive", "backcountry": "yes", "fee": "no", "openfire": "yes", "operator": "United States Forest Service", "shower": "no", "toilets": "no", "tourism": "camp_site", "website": "https://www.fs.usda.gov/detail/alabama/about-forest/districts/?cid=fsbdev3_002553", "osm_id": 8878652427}}, {"type": "Feature", "geometry": {"type": "Point", "coordinates": [-87.4138161, 34.298748]}, "properties": {"access": "permissive", "backcountry": "yes", "fee": "no", "openfire": "yes", "operator": "United States Forest Service", "shower": "no", "toilets": "no", "tourism": "camp_site", "website": "https://www.fs.usda.gov/detail/alabama/about-forest/districts/?cid=fsbdev3_002553", "osm_id": 8878652428}}, {"type": "Feature", "geometry": {"type": "Point", "coordinates": [-87.4198119, 34.3002631]}, "properties": {"access": "permissive", "backcountry": "yes", "fee": "no", "openfire": "yes", "operator": "United States Forest Service", "shower": "no", "toilets": "no", "tourism": "camp_site", "website": "https://www.fs.usda.gov/detail/alabama/about-forest/districts/?cid=fsbdev3_002553", "osm_id": 8878652429}}, {"type": "Feature", "geometry": {"type": "Point", "coordinates": [-87.4271002, 34.3003305]}, "properties": {"access": "permissive", "backcountry": "yes", "fee": "no", "openfire": "yes", "operator": "United States Forest Service", "shower": "no", "toilets": "no", "tourism": "camp_site", "website": "https://www.fs.usda.gov/detail/alabama/about-forest/districts/?cid=fsbdev3_002553", "osm_id": 8878652430}}, {"type": "Feature", "geometry": {"type": "Point", "coordinates": [-87.4275116, 34.2986424]}, "properties": {"access": "permissive", "backcountry": "yes", "fee": "no", "openfire": "yes", "operator": "United States Forest Service", "shower": "no", "toilets": "no", "tourism": "camp_site", "website": "https://www.fs.usda.gov/detail/alabama/about-forest/districts/?cid=fsbdev3_002553", "osm_id": 8878652431}}, {"type": "Feature", "geometry": {"type": "Point", "coordinates": [-87.4372916, 34.3072277]}, "properties": {"access": "permissive", "backcountry": "yes", "fee": "no", "openfire": "yes", "operator": "United States Forest Service", "shower": "no", "toilets": "no", "tourism": "camp_site", "website": "https://www.fs.usda.gov/detail/alabama/about-forest/districts/?cid=fsbdev3_002553", "osm_id": 8878652432}}, {"type": "Feature", "geometry": {"type": "Point", "coordinates": [-87.435798, 34.3136204]}, "properties": {"access": "permissive", "backcountry": "yes", "fee": "no", "openfire": "yes", "operator": "United States Forest Service", "shower": "no", "toilets": "no", "tourism": "camp_site", "website": "https://www.fs.usda.gov/detail/alabama/about-forest/districts/?cid=fsbdev3_002553", "osm_id": 8878652433}}, {"type": "Feature", "geometry": {"type": "Point", "coordinates": [-87.4455143, 34.3142961]}, "properties": {"access": "permissive", "backcountry": "yes", "fee": "no", "openfire": "yes", "operator": "United States Forest Service", "shower": "no", "toilets": "no", "tourism": "camp_site", "website": "https://www.fs.usda.gov/detail/alabama/about-forest/districts/?cid=fsbdev3_002553", "osm_id": 8878652434}}, {"type": "Feature", "geometry": {"type": "Point", "coordinates": [-87.4505242, 34.3183041]}, "properties": {"access": "permissive", "backcountry": "yes", "fee": "no", "openfire": "yes", "operator": "United States Forest Service", "shower": "no", "toilets": "no", "tourism": "camp_site", "website": "https://www.fs.usda.gov/detail/alabama/about-forest/districts/?cid=fsbdev3_002553", "osm_id": 8878652435}}, {"type": "Feature", "geometry": {"type": "Point", "coordinates": [-87.4522548, 34.3157396]}, "properties": {"access": "permissive", "backcountry": "yes", "fee": "no", "openfire": "yes", "operator": "United States Forest Service", "shower": "no", "toilets": "no", "tourism": "camp_site", "website": "https://www.fs.usda.gov/detail/alabama/about-forest/districts/?cid=fsbdev3_002553", "osm_id": 8878652436}}, {"type": "Feature", "geometry": {"type": "Point", "coordinates": [-87.4519139, 34.3143282]}, "properties": {"access": "permissive", "backcountry": "yes", "fee": "no", "openfire": "yes", "operator": "United States Forest Service", "shower": "no", "toilets": "no", "tourism": "camp_site", "website": "https://www.fs.usda.gov/detail/alabama/about-forest/districts/?cid=fsbdev3_002553", "osm_id": 8878652437}}, {"type": "Feature", "geometry": {"type": "Point", "coordinates": [-87.4569617, 34.3159864]}, "properties": {"access": "permissive", "backcountry": "yes", "fee": "no", "openfire": "yes", "operator": "United States Forest Service", "shower": "no", "toilets": "no", "tourism": "camp_site", "website": "https://www.fs.usda.gov/detail/alabama/about-forest/districts/?cid=fsbdev3_002553", "osm_id": 8878652438}}, {"type": "Feature", "geometry": {"type": "Point", "coordinates": [-87.4630121, 34.3137338]}, "properties": {"access": "permissive", "backcountry": "yes", "fee": "no", "openfire": "yes", "operator": "United States Forest Service", "shower": "no", "toilets": "no", "tourism": "camp_site", "website": "https://www.fs.usda.gov/detail/alabama/about-forest/districts/?cid=fsbdev3_002553", "osm_id": 8878652439}}, {"type": "Feature", "geometry": {"type": "Point", "coordinates": [-87.465388, 34.3149258]}, "properties": {"access": "permissive", "backcountry": "yes", "fee": "no", "openfire": "yes", "operator": "United States Forest Service", "shower": "no", "toilets": "no", "tourism": "camp_site", "website": "https://www.fs.usda.gov/detail/alabama/about-forest/districts/?cid=fsbdev3_002553", "osm_id": 8878652440}}, {"type": "Feature", "geometry": {"type": "Point", "coordinates": [-87.4654297, 34.3160644]}, "properties": {"access": "permissive", "backcountry": "yes", "fee": "no", "openfire": "yes", "operator": "United States Forest Service", "shower": "no", "toilets": "no", "tourism": "camp_site", "website": "https://www.fs.usda.gov/detail/alabama/about-forest/districts/?cid=fsbdev3_002553", "osm_id": 8878652441}}, {"type": "Feature", "geometry": {"type": "Point", "coordinates": [-87.465586, 34.319417]}, "properties": {"access": "permissive", "backcountry": "yes", "fee": "no", "openfire": "yes", "operator": "United States Forest Service", "shower": "no", "toilets": "no", "tourism": "camp_site", "website": "https://www.fs.usda.gov/detail/alabama/about-forest/districts/?cid=fsbdev3_002553", "osm_id": 8878652442}}, {"type": "Feature", "geometry": {"type": "Point", "coordinates": [-87.4669558, 34.3210734]}, "properties": {"access": "permissive", "backcountry": "yes", "fee": "no", "openfire": "yes", "operator": "United States Forest Service", "shower": "no", "toilets": "no", "tourism": "camp_site", "website": "https://www.fs.usda.gov/detail/alabama/about-forest/districts/?cid=fsbdev3_002553", "osm_id": 8878652443}}, {"type": "Feature", "geometry": {"type": "Point", "coordinates": [-87.4686531, 34.32156]}, "properties": {"access": "permissive", "backcountry": "yes", "fee": "no", "openfire": "yes", "operator": "United States Forest Service", "shower": "no", "toilets": "no", "tourism": "camp_site", "website": "https://www.fs.usda.gov/detail/alabama/about-forest/districts/?cid=fsbdev3_002553", "osm_id": 8878652444}}, {"type": "Feature", "geometry": {"type": "Point", "coordinates": [-87.4692363, 34.3230987]}, "properties": {"access": "permissive", "backcountry": "yes", "fee": "no", "openfire": "yes", "operator": "United States Forest Service", "shower": "no", "toilets": "no", "tourism": "camp_site", "website": "https://www.fs.usda.gov/detail/alabama/about-forest/districts/?cid=fsbdev3_002553", "osm_id": 8878652445}}, {"type": "Feature", "geometry": {"type": "Point", "coordinates": [-87.4618733, 34.3252678]}, "properties": {"access": "permissive", "backcountry": "yes", "fee": "no", "openfire": "yes", "operator": "United States Forest Service", "shower": "no", "toilets": "no", "tourism": "camp_site", "website": "https://www.fs.usda.gov/detail/alabama/about-forest/districts/?cid=fsbdev3_002553", "osm_id": 8878652446}}, {"type": "Feature", "geometry": {"type": "Point", "coordinates": [-87.4661381, 34.3366405]}, "properties": {"access": "permissive", "backcountry": "yes", "fee": "no", "openfire": "yes", "operator": "United States Forest Service", "shower": "no", "toilets": "no", "tourism": "camp_site", "website": "https://www.fs.usda.gov/detail/alabama/about-forest/districts/?cid=fsbdev3_002553", "osm_id": 8878652447}}, {"type": "Feature", "geometry": {"type": "Point", "coordinates": [-87.4657702, 34.3376922]}, "properties": {"access": "permissive", "backcountry": "yes", "fee": "no", "openfire": "yes", "operator": "United States Forest Service", "shower": "no", "toilets": "no", "tourism": "camp_site", "website": "https://www.fs.usda.gov/detail/alabama/about-forest/districts/?cid=fsbdev3_002553", "osm_id": 8878652448}}, {"type": "Feature", "geometry": {"type": "Point", "coordinates": [-87.4192719, 34.3637034]}, "properties": {"access": "permissive", "backcountry": "yes", "fee": "no", "openfire": "yes", "operator": "United States Forest Service", "shower": "no", "toilets": "no", "tourism": "camp_site", "website": "https://www.fs.usda.gov/detail/alabama/about-forest/districts/?cid=fsbdev3_002553", "osm_id": 8878652449}}, {"type": "Feature", "geometry": {"type": "Point", "coordinates": [-87.4033359, 34.32404]}, "properties": {"access": "permissive", "backcountry": "yes", "fee": "no", "openfire": "yes", "operator": "United States Forest Service", "shower": "no", "toilets": "no", "tourism": "camp_site", "website": "https://www.fs.usda.gov/detail/alabama/about-forest/districts/?cid=fsbdev3_002553", "osm_id": 8878652450}}, {"type": "Feature", "geometry": {"type": "Point", "coordinates": [-87.3978892, 34.3181143]}, "properties": {"access": "permissive", "backcountry": "yes", "fee": "no", "openfire": "yes", "operator": "United States Forest Service", "shower": "no", "toilets": "no", "tourism": "camp_site", "website": "https://www.fs.usda.gov/detail/alabama/about-forest/districts/?cid=fsbdev3_002553", "osm_id": 8878652451}}, {"type": "Feature", "geometry": {"type": "Point", "coordinates": [-87.3938032, 34.3120386]}, "properties": {"access": "permissive", "backcountry": "yes", "fee": "no", "openfire": "yes", "operator": "United States Forest Service", "shower": "no", "toilets": "no", "tourism": "camp_site", "website": "https://www.fs.usda.gov/detail/alabama/about-forest/districts/?cid=fsbdev3_002553", "osm_id": 8878652452}}, {"type": "Feature", "geometry": {"type": "Point", "coordinates": [-87.3940192, 34.3115504]}, "properties": {"access": "permissive", "backcountry": "yes", "fee": "no", "openfire": "yes", "operator": "United States Forest Service", "shower": "no", "toilets": "no", "tourism": "camp_site", "website": "https://www.fs.usda.gov/detail/alabama/about-forest/districts/?cid=fsbdev3_002553", "osm_id": 8878652453}}, {"type": "Feature", "geometry": {"type": "Point", "coordinates": [-87.3942991, 34.3102768]}, "properties": {"access": "permissive", "backcountry": "yes", "fee": "no", "openfire": "yes", "operator": "United States Forest Service", "shower": "no", "toilets": "no", "tourism": "camp_site", "website": "https://www.fs.usda.gov/detail/alabama/about-forest/districts/?cid=fsbdev3_002553", "osm_id": 8878652454}}, {"type": "Feature", "geometry": {"type": "Point", "coordinates": [-87.3969285, 34.3079625]}, "properties": {"access": "permissive", "backcountry": "yes", "fee": "no", "openfire": "yes", "operator": "United States Forest Service", "shower": "no", "toilets": "no", "tourism": "camp_site", "website": "https://www.fs.usda.gov/detail/alabama/about-forest/districts/?cid=fsbdev3_002553", "osm_id": 8878652455}}, {"type": "Feature", "geometry": {"type": "Point", "coordinates": [-87.4009851, 34.3002945]}, "properties": {"access": "permissive", "backcountry": "yes", "fee": "no", "openfire": "yes", "operator": "United States Forest Service", "shower": "no", "toilets": "no", "tourism": "camp_site", "website": "https://www.fs.usda.gov/detail/alabama/about-forest/districts/?cid=fsbdev3_002553", "osm_id": 8878652456}}, {"type": "Feature", "geometry": {"type": "Point", "coordinates": [-87.3953346, 34.2982772]}, "properties": {"access": "permissive", "backcountry": "yes", "fee": "no", "openfire": "yes", "operator": "United States Forest Service", "shower": "no", "toilets": "no", "tourism": "camp_site", "website": "https://www.fs.usda.gov/detail/alabama/about-forest/districts/?cid=fsbdev3_002553", "osm_id": 8878652457}}, {"type": "Feature", "geometry": {"type": "Point", "coordinates": [-87.3943663, 34.2973903]}, "properties": {"access": "permissive", "backcountry": "yes", "fee": "no", "openfire": "yes", "operator": "United States Forest Service", "shower": "no", "toilets": "no", "tourism": "camp_site", "website": "https://www.fs.usda.gov/detail/alabama/about-forest/districts/?cid=fsbdev3_002553", "osm_id": 8878652458}}, {"type": "Feature", "geometry": {"type": "Point", "coordinates": [-87.3936715, 34.2958881]}, "properties": {"access": "permissive", "backcountry": "yes", "fee": "no", "openfire": "yes", "operator": "United States Forest Service", "shower": "no", "toilets": "no", "tourism": "camp_site", "website": "https://www.fs.usda.gov/detail/alabama/about-forest/districts/?cid=fsbdev3_002553", "osm_id": 8878652459}}, {"type": "Feature", "geometry": {"type": "Point", "coordinates": [-87.393693, 34.2958062]}, "properties": {"access": "permissive", "backcountry": "yes", "fee": "no", "openfire": "yes", "operator": "United States Forest Service", "shower": "no", "toilets": "no", "tourism": "camp_site", "website": "https://www.fs.usda.gov/detail/alabama/about-forest/districts/?cid=fsbdev3_002553", "osm_id": 8878652460}}, {"type": "Feature", "geometry": {"type": "Point", "coordinates": [-87.3994341, 34.2878586]}, "properties": {"access": "permissive", "backcountry": "yes", "fee": "no", "openfire": "yes", "operator": "United States Forest Service", "shower": "no", "toilets": "no", "tourism": "camp_site", "website": "https://www.fs.usda.gov/detail/alabama/about-forest/districts/?cid=fsbdev3_002553", "osm_id": 8878652461}}, {"type": "Feature", "geometry": {"type": "Point", "coordinates": [-87.399124, 34.2866804]}, "properties": {"access": "permissive", "backcountry": "yes", "fee": "no", "openfire": "yes", "operator": "United States Forest Service", "shower": "no", "toilets": "no", "tourism": "camp_site", "website": "https://www.fs.usda.gov/detail/alabama/about-forest/districts/?cid=fsbdev3_002553", "osm_id": 8878652462}}, {"type": "Feature", "geometry": {"type": "Point", "coordinates": [-87.1355465, 30.3349313]}, "properties": {"addr:city": "Pensacola Beach", "addr:housenumber": "17", "addr:postcode": "32561", "addr:state": "FL", "addr:street": "Via de Luna Drive", "image": "https://i0.wp.com/pensacolarvresorts.com/wp-content/uploads/2020/08/Beach-Header.jpg?w=1400&ssl=1", "internet_access": "wlan", "internet_access:fee": "customers", "name": "Pensacola Beach RV Resort", "phone": "+1 850-932-4670", "power_supply": "yes", "sanitary_dump_station": "yes", "tourism": "caravan_site", "website": "https://pensacolarvresorts.com/home/pensacola-beach-rv-resort/", "osm_id": 9310921903}}, {"type": "Feature", "geometry": {"type": "Point", "coordinates": [-87.3081391, 30.5107821]}, "properties": {"addr:city": "Pensacola", "addr:housenumber": "7800", "addr:postcode": "32526", "addr:state": "FL", "addr:street": "Pine Forest Road", "email": "info@pensacolanorthrvresort.com", "image": "https://i1.wp.com/pensacolarvresorts.com/wp-content/uploads/2020/08/North-Header.jpg?w=1400&ssl=1", "internet_access": "wlan", "internet_access:fee": "customers", "name": "Pensacola North RV Resort", "phone": "+1-850-285-0574", "power_supply": "yes", "sanitary_dump_station": "yes", "tourism": "caravan_site", "website": "https://pensacolarvresorts.com/home/pensacola-north-rv-resort-home/", "osm_id": 9310986138}}, {"type": "Feature", "geometry": {"type": "Point", "coordinates": [-85.2776023, 33.0891065]}, "properties": {"addr:city": "Five Points", "addr:housenumber": "5281", "addr:postcode": "36855", "addr:state": "AL", "addr:street": "Chambers County 278", "capacity:caravans": "10", "description": "10 - 50 amp full hookup sites.  Daily, Weekly, Monthly, Yearly rates available.  Managed by Robertson RV (next door).", "name": "Southern Living Campground", "power_supply": "yes", "sanitary_dump_station": "yes", "tourism": "caravan_site", "osm_id": 9560769701}}, {"type": "Feature", "geometry": {"type": "Point", "coordinates": [-87.3327232, 33.1408185]}, "properties": {"addr:city": "Cottondale", "addr:postcode": "35453", "addr:state": "AL", "addr:street": "11742 Hagler Coaling Rd", "country": "USA", "name": "Candy Mountain RV Park", "phone": "+1 205-553-5428", "tourism": "caravan_site", "website:menu": "https://CandyMountainRVParkAL.com", "osm_id": 9717934096}}, {"type": "Feature", "geometry": {"type": "Point", "coordinates": [-85.0543058, 31.7495212]}, "properties": {"caravans": "yes", "name": "Pataula RV Park", "tourism": "camp_site", "osm_id": 9937830542}}, {"type": "Feature", "geometry": {"type": "Point", "coordinates": [-85.5646368, 30.4547184]}, "properties": {"backcountry": "yes", "capacity:tents": "13", "name": "Rattlesnake Lake", "picnic_table": "yes", "tourism": "camp_site", "osm_id": 9984370345}}, {"type": "Feature", "geometry": {"type": "Point", "coordinates": [-85.4831968, 30.5307026]}, "properties": {"backcountry": "yes", "capacity:tents": "5", "name": "Trap Pond Camp", "tourism": "camp_site", "osm_id": 9984370412}}, {"type": "Feature", "geometry": {"type": "Point", "coordinates": [-85.5706366, 30.4560322]}, "properties": {"backcountry": "yes", "capacity:tents": "12", "name": "Rattlesnake North Camp", "picnic_table": "yes", "reservation": "yes", "tourism": "camp_site", "osm_id": 9984370418}}, {"type": "Feature", "geometry": {"type": "Point", "coordinates": [-86.156974, 33.1546188]}, "properties": {"backcountry": "yes", "caravans": "no", "internet_access": "no", "tents": "yes", "tourism": "camp_site", "osm_id": 10124062452}}, {"type": "Feature", "geometry": {"type": "Point", "coordinates": [-86.070657, 33.1873096]}, "properties": {"backcountry": "yes", "caravans": "no", "internet_access": "no", "tents": "yes", "tourism": "camp_site", "osm_id": 10124073913}}, {"type": "Feature", "geometry": {"type": "Point", "coordinates": [-85.0872545, 32.7748752]}, "properties": {"access": "permit", "backcountry": "yes", "tourism": "camp_site", "osm_id": 10270261853}}, {"type": "Feature", "geometry": {"type": "Point", "coordinates": [-85.08851, 32.7715367]}, "properties": {"access": "permit", "backcountry": "yes", "tourism": "camp_site", "osm_id": 10270261854}}, {"type": "Feature", "geometry": {"type": "Point", "coordinates": [-86.0907083, 34.985657]}, "properties": {"backcountry": "yes", "tourism": "camp_site", "osm_id": 10280891704}}, {"type": "Feature", "geometry": {"type": "Point", "coordinates": [-85.0498888, 34.7042998]}, "properties": {"access": "yes", "backcountry": "yes", "caravans": "no", "fee": "no", "static_caravans": "no", "tents": "yes", "tourism": "camp_site", "osm_id": 10751329953}}, {"type": "Feature", "geometry": {"type": "Point", "coordinates": [-85.5231299, 30.481873]}, "properties": {"capacity:tents": "1", "name": "Walsingham Park", "operator": "Econfina WMD (NFWMD)", "tents": "yes", "tourism": "camp_site", "osm_id": 10793096075}}, {"type": "Feature", "geometry": {"type": "Point", "coordinates": [-85.5222239, 30.4876066]}, "properties": {"name": "Longleaf", "operator": "NFWMD", "tourism": "camp_site", "osm_id": 10793117063}}, {"type": "Feature", "geometry": {"type": "Point", "coordinates": [-85.5217676, 30.4898181]}, "properties": {"name": "Seashell", "operator": "NFWMD", "tourism": "camp_site", "osm_id": 10793117064}}, {"type": "Feature", "geometry": {"type": "Point", "coordinates": [-85.5193147, 30.4932868]}, "properties": {"name": "Devil's Hole", "operator": "NFWMD", "tourism": "camp_site", "osm_id": 10793117074}}, {"type": "Feature", "geometry": {"type": "Point", "coordinates": [-85.830209, 33.4248887]}, "properties": {"tourism": "camp_site", "osm_id": 11017983206}}, {"type": "Feature", "geometry": {"type": "Point", "coordinates": [-85.8300465, 33.4248936]}, "properties": {"tourism": "camp_site", "osm_id": 11017983207}}, {"type": "Feature", "geometry": {"type": "Point", "coordinates": [-85.8304661, 33.4237702]}, "properties": {"tourism": "camp_site", "osm_id": 11017983208}}, {"type": "Feature", "geometry": {"type": "Point", "coordinates": [-85.8301857, 33.4236577]}, "properties": {"tourism": "camp_site", "osm_id": 11017983209}}, {"type": "Feature", "geometry": {"type": "Point", "coordinates": [-86.7569197, 30.4131753]}, "properties": {"capacity:caravans": "9", "check_date": "2023-07-20", "name": "Grater RV Hideaway Cove", "tourism": "caravan_site", "website": "https://www.graterrvhideawaycove.com/", "osm_id": 11057943692}}, {"type": "Feature", "geometry": {"type": "Point", "coordinates": [-87.9160657, 31.5163244]}, "properties": {"tourism": "caravan_site", "osm_id": 11107557886}}, {"type": "Feature", "geometry": {"type": "Point", "coordinates": [-85.5595137, 33.7220768]}, "properties": {"access": "yes", "backcountry": "yes", "name": "Big Oak Camp", "tourism": "camp_site", "osm_id": 11405425468}}, {"type": "Feature", "geometry": {"type": "Point", "coordinates": [-85.8910854, 30.5412108]}, "properties": {"name": "Dead River Landing Campground", "tourism": "camp_site", "osm_id": 11430310012}}, {"type": "Feature", "geometry": {"type": "Point", "coordinates": [-85.8904951, 30.4897989]}, "properties": {"backcountry": "yes", "name": "Leaning Pine Campsite", "tourism": "camp_site", "osm_id": 11430310059}}, {"type": "Feature", "geometry": {"type": "Point", "coordinates": [-85.8985591, 30.5645936]}, "properties": {"tourism": "camp_site", "osm_id": 11430344076}}, {"type": "Feature", "geometry": {"type": "Point", "coordinates": [-85.6157242, 34.5281131]}, "properties": {"name": "Fox", "tourism": "camp_site", "osm_id": 11754692756}}, {"type": "Feature", "geometry": {"type": "Point", "coordinates": [-85.6180517, 34.5278271]}, "properties": {"tourism": "camp_site", "osm_id": 11761209796}}, {"type": "Feature", "geometry": {"type": "Point", "coordinates": [-85.617393, 34.5254721]}, "properties": {"tourism": "camp_site", "osm_id": 11761209797}}, {"type": "Feature", "geometry": {"type": "Point", "coordinates": [-85.6162333, 34.5287326]}, "properties": {"tourism": "camp_site", "osm_id": 11761209798}}, {"type": "Feature", "geometry": {"type": "Point", "coordinates": [-85.6169787, 34.528875]}, "properties": {"tourism": "camp_site", "osm_id": 11761209799}}, {"type": "Feature", "geometry": {"type": "Point", "coordinates": [-85.6171776, 34.5267682]}, "properties": {"tourism": "camp_site", "osm_id": 11761209800}}, {"type": "Feature", "geometry": {"type": "Point", "coordinates": [-85.6163287, 34.5276146]}, "properties": {"tourism": "camp_site", "osm_id": 11761209801}}, {"type": "Feature", "geometry": {"type": "Point", "coordinates": [-85.6191858, 34.5288575]}, "properties": {"tourism": "camp_site", "osm_id": 11761209802}}, {"type": "Feature", "geometry": {"type": "Point", "coordinates": [-85.6149546, 34.5267761]}, "properties": {"tourism": "camp_site", "osm_id": 11761209803}}, {"type": "Feature", "geometry": {"type": "Point", "coordinates": [-85.6182474, 34.5258794]}, "properties": {"tourism": "camp_site", "osm_id": 11761209804}}, {"type": "Feature", "geometry": {"type": "Point", "coordinates": [-85.6164645, 34.5252254]}, "properties": {"tourism": "camp_site", "osm_id": 11761209805}}, {"type": "Feature", "geometry": {"type": "Point", "coordinates": [-85.616422, 34.5245417]}, "properties": {"tourism": "camp_site", "osm_id": 11761209806}}, {"type": "Feature", "geometry": {"type": "Point", "coordinates": [-87.8914239, 30.8618708]}, "properties": {"tourism": "caravan_site", "osm_id": 11972160021}}, {"type": "Feature", "geometry": {"type": "Point", "coordinates": [-87.8938016, 30.8635922]}, "properties": {"name": "Riverview RV Park", "tourism": "caravan_site", "osm_id": 11972164766}}, {"type": "Feature", "geometry": {"type": "Point", "coordinates": [-85.1948339, 32.9977349]}, "properties": {"tourism": "camp_site", "osm_id": 11992716022}}, {"type": "Feature", "geometry": {"type": "Point", "coordinates": [-85.1972278, 33.0031867]}, "properties": {"tourism": "camp_site", "osm_id": 11992716042}}, {"type": "Feature", "geometry": {"type": "Point", "coordinates": [-85.0886808, 33.2073529]}, "properties": {"tourism": "camp_site", "osm_id": 12125725329}}, {"type": "Feature", "geometry": {"type": "Point", "coordinates": [-85.0877366, 33.2098125]}, "properties": {"tourism": "camp_site", "osm_id": 12125725330}}, {"type": "Feature", "geometry": {"type": "Point", "coordinates": [-86.4123432, 32.9186791]}, "properties": {"backcountry": "yes", "name": "Horse Stomp Campground", "tents": "yes", "tourism": "camp_site", "osm_id": 12143429068}}, {"type": "Feature", "geometry": {"type": "Point", "coordinates": [-86.4092372, 32.2059564]}, "properties": {"tourism": "caravan_site", "osm_id": 12156777315}}, {"type": "Feature", "geometry": {"type": "Point", "coordinates": [-86.2070994, 32.4508474]}, "properties": {"tourism": "caravan_site", "osm_id": 12327001029}}, {"type": "Feature", "geometry": {"type": "Point", "coordinates": [-88.2060739, 34.4931211]}, "properties": {"addr:city": "Belmont", "addr:housenumber": "10", "addr:postcode": "38827", "addr:state": "MS", "addr:street": "Airpark Rd", "name": "Belmont RV park", "tourism": "caravan_site", "osm_id": 12420621520}}, {"type": "Feature", "geometry": {"type": "Point", "coordinates": [-88.3301354, 34.8227092]}, "properties": {"addr:city": "Burnsville", "addr:housenumber": "507", "addr:postcode": "38833", "addr:state": "MS", "addr:street": "Highway 365", "name": "The Hydeaway", "tourism": "camp_site", "osm_id": 12600983332}}, {"type": "Feature", "geometry": {"type": "Point", "coordinates": [-88.2974166, 34.9047143]}, "properties": {"addr:city": "Iuka", "addr:housenumber": "1170", "addr:postcode": "38852", "addr:state": "MS", "addr:street": "Highway 365", "name": "CASTON", "tourism": "camp_site", "osm_id": 12604311280}}, {"type": "Feature", "geometry": {"type": "Point", "coordinates": [-86.5887733, 30.9337772]}, "properties": {"access": "permissive", "addr:city": "Baker", "addr:housenumber": "7704", "addr:postcode": "32531", "addr:state": "FL", "addr:street": "Creston Barrow Road", "operator": "Camp Okaloosa", "tourism": "camp_site", "osm_id": 12842572906}}, {"type": "Feature", "geometry": {"type": "Point", "coordinates": [-86.1726144, 33.6943722]}, "properties": {"tourism": "camp_site", "osm_id": 12856142173}}, {"type": "Feature", "geometry": {"type": "Point", "coordinates": [-86.18014, 33.6018279]}, "properties": {"tourism": "camp_site", "osm_id": 12856162280}}, {"type": "Feature", "geometry": {"type": "Point", "coordinates": [-86.1641217, 33.6016091]}, "properties": {"tourism": "camp_site", "osm_id": 12856167987}}, {"type": "Feature", "geometry": {"type": "Point", "coordinates": [-85.9030958, 33.6618539]}, "properties": {"tourism": "caravan_site", "osm_id": 12856274301}}, {"type": "Feature", "geometry": {"type": "Point", "coordinates": [-86.9153137, 31.5274092]}, "properties": {"tourism": "caravan_site", "osm_id": 12915435700}}, {"type": "Feature", "geometry": {"type": "Point", "coordinates": [-88.0470952, 30.8216764]}, "properties": {"caravans": "no", "name": "Brickport Campsite", "operator": "Alabama Department of Conservation and Natural Resources", "static_caravans": "no", "tents": "yes", "tourism": "camp_site", "osm_id": 12986456789}}, {"type": "Feature", "geometry": {"type": "Point", "coordinates": [-86.5176527, 34.7465788]}, "properties": {"camp_site": "basic", "caravans": "no", "fee": "yes", "name": "Monte Sano State Park Campground (Primitive)", "operator": "Monte Sano State Park", "payment:cash": "yes", "payment:credit_cards": "yes", "payment:debit_cards": "yes", "static_caravans": "no", "tents": "yes", "tourism": "camp_site", "osm_id": 13056873568}}, {"type": "Feature", "geometry": {"type": "Point", "coordinates": [-86.5140532, 34.7473049]}, "properties": {"camp_site": "serviced", "caravans": "yes", "fee": "yes", "name": "Monte Sano State Park Campground (Improved)", "operator": "Monte Sano State Park", "static_caravans": "no", "tents": "yes", "tourism": "camp_site", "osm_id": 13056873569}}, {"type": "Feature", "geometry": {"type": "Point", "coordinates": [-87.5171748, 33.1439368]}, "properties": {"name": "Legions Pass", "tourism": "caravan_site", "osm_id": 13063930026}}, {"type": "Feature", "geometry": {"type": "Point", "coordinates": [-85.2967484, 34.7278694]}, "properties": {"access": "private", "addr:city": "LaFayette", "addr:housenumber": "2035", "addr:postcode": "30728", "addr:state": "GA", "addr:street": "Old Mineral Springs Road", "camp_site": "deluxe", "capacity:caravans": "32", "capacity:tents": "30", "caravans": "yes", "dog": "leashed", "email": "info@bmcampground.com", "fee": "yes", "name": "Blue Moon Campground", "openfire": "yes", "picnic_table": "yes", "reservation": "required", "static_caravans": "no", "tents": "yes", "toilets": "yes", "tourism": "camp_site", "website": "https://bmcampground.com/", "osm_id": 13116826771}}, {"type": "Feature", "geometry": {"type": "Point", "coordinates": [-87.1423946, 30.3690673]}, "properties": {"name": "Naval Live Oaks Youth Group Camping", "operator": "National Park Service", "tourism": "camp_site", "website": "https://www.nps.gov/guis/planyourvisit/nlo-group.htm", "osm_id": 13121509561}}, {"type": "Feature", "geometry": {"type": "Point", "coordinates": [-85.9159894, 30.5355654]}, "properties": {"backcountry": "yes", "name": "Seven Runs Camp", "note": "to verify", "tourism": "camp_site", "osm_id": 13317770818}}, {"type": "Feature", "geometry": {"type": "Point", "coordinates": [-86.0781062, 30.5430849]}, "properties": {"backcountry": "yes", "name": "Steephead Camp", "tourism": "camp_site", "osm_id": 13317770823}}, {"type": "Feature", "geometry": {"type": "Point", "coordinates": [-86.148144, 30.6303699]}, "properties": {"backcountry": "yes", "capacity:tents": "4", "name": "Eglin Portal Campsite", "tourism": "camp_site", "osm_id": 13317770824}}, {"type": "Feature", "geometry": {"type": "Point", "coordinates": [-86.2450817, 30.7389771]}, "properties": {"backcountry": "yes", "capacity:tents": "5", "name": "Bull Campsite", "picnic_table": "yes", "tourism": "camp_site", "osm_id": 13317770825}}, {"type": "Feature", "geometry": {"type": "Point", "coordinates": [-86.7644459, 30.6582138]}, "properties": {"backcountry": "yes", "name": "Guest Lake", "picnic_table": "yes", "tourism": "camp_site", "osm_id": 13317770826}}, {"type": "Feature", "geometry": {"type": "Point", "coordinates": [-86.741851, 30.8757359]}, "properties": {"backcountry": "yes", "capacity:tents": "12", "name": "Blackwater Shelter", "picnic_table": "yes", "tourism": "camp_site", "water": "no", "osm_id": 13317770827}}, {"type": "Feature", "geometry": {"type": "Point", "coordinates": [-86.8109956, 30.8423129]}, "properties": {"backcountry": "yes", "capacity:tents": "20", "name": "Blackwater Shelter 2", "picnic_table": "yes", "tourism": "camp_site", "water": "no", "osm_id": 13317770828}}, {"type": "Feature", "geometry": {"type": "Point", "coordinates": [-86.8949018, 30.7733896]}, "properties": {"backcountry": "yes", "capacity:tents": "10", "name": "Juniper Creek Shelter", "tourism": "camp_site", "osm_id": 13317770829}}, {"type": "Feature", "geometry": {"type": "Point", "coordinates": [-86.878366, 30.7119048]}, "properties": {"capacity:tents": "26", "fee": "yes", "name": "Blackwater River State Park Campground", "tourism": "camp_site", "website": "https://www.floridastateparks.org/stay-night", "osm_id": 13317770830}}, {"type": "Feature", "geometry": {"type": "Point", "coordinates": [-86.8638968, 30.6494849]}, "properties": {"backcountry": "yes", "capacity:tents": "5", "fee": "yes", "name": "Burnt Grocery Campsite", "picnic_table": "yes", "tourism": "camp_site", "osm_id": 13317770831}}, {"type": "Feature", "geometry": {"type": "Point", "coordinates": [-86.8826877, 30.6144846]}, "properties": {"backcountry": "yes", "name": "Wild Azalea Campsite", "tourism": "camp_site", "osm_id": 13317770832}}, {"type": "Feature", "geometry": {"type": "Point", "coordinates": [-86.9076303, 30.5533455]}, "properties": {"backcountry": "yes", "fee": "yes", "name": "Buck Pond Rec Area", "tourism": "camp_site", "osm_id": 13317770833}}, {"type": "Feature", "geometry": {"type": "Point", "coordinates": [-86.8843259, 30.4610564]}, "properties": {"backcountry": "yes", "capacity:tents": "6", "name": "Dean Campsite", "tourism": "camp_site", "osm_id": 13317770834}}, {"type": "Feature", "geometry": {"type": "Point", "coordinates": [-88.4355329, 33.5039807]}, "properties": {"tourism": "caravan_site", "osm_id": 13446850409}}, {"type": "Feature", "geometry": {"type": "Point", "coordinates": [-88.1574389, 30.4277923]}, "properties": {"tourism": "caravan_site", "osm_id": 13462594293}}, {"type": "Feature", "geometry": {"type": "Point", "coordinates": [-88.1252895, 30.4710742]}, "properties": {"tourism": "caravan_site", "osm_id": 13462621441}}, {"type": "Feature", "geometry": {"type": "Point", "coordinates": [-86.5154048, 34.7471739]}, "properties": {"cabins": "yes", "caravans": "yes", "dog": "leashed", "fee": "yes", "name": "Monte Sano State Park Campground", "phone": "+1-256-534-6589", "sanitary_dump_station": "yes", "tents": "yes", "tourism": "camp_site", "website": "https://www.alapark.com/parks/monte-sano-state-park/camping", "osm_id": 77769810}}, {"type": "Feature", "geometry": {"type": "Point", "coordinates": [-86.4359838, 30.3854761]}, "properties": {"capacity": "50", "fee": "yes", "tourism": "caravan_site", "osm_id": 90187263}}, {"type": "Feature", "geometry": {"type": "Point", "coordinates": [-86.0655541, 33.571229]}, "properties": {"tourism": "caravan_site", "osm_id": 116792863}}, {"type": "Feature", "geometry": {"type": "Point", "coordinates": [-86.0627802, 33.5628917]}, "properties": {"tourism": "caravan_site", "osm_id": 116792872}}, {"type": "Feature", "geometry": {"type": "Point", "coordinates": [-86.0630638, 33.5613456]}, "properties": {"tourism": "caravan_site", "osm_id": 116792878}}, {"type": "Feature", "geometry": {"type": "Point", "coordinates": [-86.0655589, 33.5611774]}, "properties": {"tourism": "caravan_site", "osm_id": 116792879}}, {"type": "Feature", "geometry": {"type": "Point", "coordinates": [-86.0673849, 33.5717609]}, "properties": {"tourism": "caravan_site", "osm_id": 116792880}}, {"type": "Feature", "geometry": {"type": "Point", "coordinates": [-86.0663663, 33.5732404]}, "properties": {"tourism": "caravan_site", "osm_id": 116793156}}, {"type": "Feature", "geometry": {"type": "Point", "coordinates": [-87.4148414, 30.3138783]}, "properties": {"capacity:tents": "75", "openfire": "yes", "operator": "Florida State Parks", "tents": "yes", "tourism": "camp_site", "website": "https://www.floridastateparks.org/biglagoon/", "osm_id": 117315599}}, {"type": "Feature", "geometry": {"type": "Point", "coordinates": [-86.8061587, 33.2859482]}, "properties": {"name": "South Birmingham RV Park", "tourism": "caravan_site", "osm_id": 185871183}}, {"type": "Feature", "geometry": {"type": "Point", "coordinates": [-85.1664542, 34.9581658]}, "properties": {"addr:city": "Ringgold", "addr:housenumber": "188", "addr:postcode": "30736", "addr:street": "Trailer Lane", "description": "Its a 60 Campground that accepts everything from manufactured homes to travel trailers. Free cable and WiFi laundry room, 30 & 50 amp full hook ups.", "name": "Indian Springs Campgrounds", "phone": "+1-423-920-0121", "tourism": "camp_site", "website": "www.indianspringscampgrounds.com", "osm_id": 270260922}}, {"type": "Feature", "geometry": {"type": "Point", "coordinates": [-86.0245044, 34.0415218]}, "properties": {"caravans": "yes", "drinking_water": "yes", "fee": "yes", "name": "Noccalula Falls Campground", "phone": "+1-256-543-7412", "power_supply": "yes", "tents": "yes", "tourism": "camp_site", "website": "https://www.noccalulafallspark.com/campground", "osm_id": 281569997}}, {"type": "Feature", "geometry": {"type": "Point", "coordinates": [-87.26746, 30.3206405]}, "properties": {"internet_access:fee": "no", "name": "Group Camp", "tourism": "camp_site", "osm_id": 334541299}}, {"type": "Feature", "geometry": {"type": "Point", "coordinates": [-87.2633454, 30.3200826]}, "properties": {"name": "Volunteer Camping Area", "tourism": "camp_site", "osm_id": 334541305}}, {"type": "Feature", "geometry": {"type": "Point", "coordinates": [-87.2709971, 30.3202881]}, "properties": {"name": "Campground Loop A", "tourism": "caravan_site", "osm_id": 335229904}}, {"type": "Feature", "geometry": {"type": "Point", "coordinates": [-87.2749779, 30.3233797]}, "properties": {"name": "Campground Loops B, C, D, E", "tourism": "caravan_site", "osm_id": 335229905}}, {"type": "Feature", "geometry": {"type": "Point", "coordinates": [-84.9171779, 31.4662729]}, "properties": {"fee": "yes", "group_only": "yes", "name": "Camp Hicita Group Camp", "operator": "Georgia State Parks & Historic Sites", "operator:wikidata": "Q72926688", "tourism": "camp_site", "osm_id": 336472903}}, {"type": "Feature", "geometry": {"type": "Point", "coordinates": [-84.9316293, 31.469079]}, "properties": {"capacity": "24", "fee": "yes", "internet_access": "no", "name": "Kolomoki Campground", "power_supply": "yes", "tents": "yes", "tourism": "camp_site", "wheelchair": "yes", "osm_id": 336472908}}, {"type": "Feature", "geometry": {"type": "Point", "coordinates": [-85.4820289, 34.8330061]}, "properties": {"name": "East Rim Campground", "tourism": "camp_site", "osm_id": 358984902}}, {"type": "Feature", "geometry": {"type": "Point", "coordinates": [-85.4870508, 34.8362669]}, "properties": {"name": "West Rim Campground", "tourism": "camp_site", "osm_id": 358989602}}, {"type": "Feature", "geometry": {"type": "Point", "coordinates": [-86.234265, 34.6137441]}, "properties": {"name": "Parnell Creek RV Park", "power_supply": "yes", "tourism": "caravan_site", "osm_id": 387565320}}, {"type": "Feature", "geometry": {"type": "Point", "coordinates": [-85.2469155, 30.820449]}, "properties": {"name": "Walk In Tent Camp", "tourism": "camp_site", "osm_id": 404317365}}, {"type": "Feature", "geometry": {"type": "Point", "coordinates": [-85.246589, 30.8198466]}, "properties": {"landuse": "residential", "name": "Equestrian Camp", "tourism": "caravan_site", "osm_id": 404317367}}, {"type": "Feature", "geometry": {"type": "Point", "coordinates": [-85.2425468, 30.8197173]}, "properties": {"laundry": "yes", "tourism": "caravan_site", "osm_id": 404317368}}, {"type": "Feature", "geometry": {"type": "Point", "coordinates": [-86.6043535, 34.6924595]}, "properties": {"landuse": "residential", "name": "A Shady Grove RV & Mobile Home", "residential": "mobile", "tourism": "caravan_site", "osm_id": 404947117}}, {"type": "Feature", "geometry": {"type": "Point", "coordinates": [-85.0446391, 32.0951065]}, "properties": {"access": "customers", "fee": "yes", "internet_access": "no", "tourism": "camp_site", "osm_id": 420015785}}, {"type": "Feature", "geometry": {"type": "Point", "coordinates": [-86.8472881, 33.3357021]}, "properties": {"addr:city": "Hoover", "addr:housenumber": "100", "addr:postcode": "35244", "addr:state": "AL", "addr:street": "Ben Chapman Drive", "name": "Hoover RV Park", "operator": "City of Hoover", "tourism": "caravan_site", "website": "http://www.hooveral.org/index.aspx?NID=455", "osm_id": 424584694}}, {"type": "Feature", "geometry": {"type": "Point", "coordinates": [-87.0703082, 34.687171]}, "properties": {"addr:city": "Athens", "addr:housenumber": "8700", "addr:postcode": "35611", "addr:state": "AL", "addr:street": "Cowford Road", "capacity": "52", "dog": "leashed;clean", "drinking_water": "yes", "facebook": "https://www.facebook.com/Cowford-Campground-168768816476128/", "fee": "yes", "name": "Cowford Campground", "operator": "Limestone County Parks and Recreation Department", "power_supply": "yes", "tents": "no", "tourism": "caravan_site", "website": "https://limestonecounty-al.gov/departments/parks-and-recreation/cowford-campground/", "osm_id": 441629215}}, {"type": "Feature", "geometry": {"type": "Point", "coordinates": [-87.115873, 34.8474204]}, "properties": {"addr:city": "Athens", "addr:housenumber": "11155", "addr:state": "AL", "addr:street": "Elk River Mills Road", "capacity": "23", "name": "Sportsman's Park", "tourism": "caravan_site", "osm_id": 441641077}}, {"type": "Feature", "geometry": {"type": "Point", "coordinates": [-87.32159, 34.8028409]}, "properties": {"addr:city": "Rogersville", "addr:housenumber": "3171", "addr:postcode": "35652", "addr:state": "AL", "addr:street": "McLean Drive", "capacity": "116", "caravans": "yes", "dog": "leashed", "email": "joewheeler.campground@dcnr.alabama.gov", "fee": "yes", "internet_access": "wlan", "name": "Joe Wheeler State Park Campground", "note": "As of April 22, 2020, closed until further notice due to tornado damage on December 19, 2019, for updates see https://www.alapark.com/parks/joe-wheeler-state-park", "opening_hours": "closed", "phone": "+1-256-247-1184", "power_supply": "yes", "sanitary_dump_station": "yes", "tents": "yes", "tourism": "camp_site", "website": "https://www.alapark.com/parks/joe-wheeler-state-park/campground", "osm_id": 441659734}}, {"type": "Feature", "geometry": {"type": "Point", "coordinates": [-86.9344694, 34.5763951]}, "properties": {"capacity": "233", "fee": "yes", "internet_access": "wlan", "name": "Point Mallard Camp Ground", "power_supply": "yes", "sanitary_dump_station": "yes", "tourism": "caravan_site", "website": "https://www.pointmallardpark.com/camp-ground/", "osm_id": 441684146}}, {"type": "Feature", "geometry": {"type": "Point", "coordinates": [-86.9958996, 34.9717523]}, "properties": {"addr:city": "Elkmont", "addr:housenumber": "28861", "addr:postcode": "35620", "addr:state": "AL", "addr:street": "Veto Road", "capacity": "20", "fee": "yes", "internet_access": "wlan", "name": "Mill Creek RV Park", "phone": "+1-256-732-3686", "power_supply": "yes", "sanitary_dump_station": "no", "tourism": "caravan_site", "website": "https://www.millcreekrv.com/", "osm_id": 441728669}}, {"type": "Feature", "geometry": {"type": "Point", "coordinates": [-84.9949338, 33.8947458]}, "properties": {"addr:city": "Yorkville", "addr:postcode": "30153", "addr:state": "GA", "addr:street": "Williams Court", "description": "adult playground for partying, noise, girls, and consumption", "name": "Williams Court Campgrounds", "tourism": "camp_site", "osm_id": 442495340}}, {"type": "Feature", "geometry": {"type": "Point", "coordinates": [-86.9435754, 34.8238784]}, "properties": {"addr:city": "Athens", "addr:housenumber": "1757", "addr:postcode": "35611", "addr:state": "AL", "addr:street": "US Highway 31 North", "capacity": "23", "dog": "leashed", "fee": "yes", "internet_access": "wlan", "name": "Northgate RV Travel Park", "payment:cash": "yes", "payment:cheque": "yes", "payment:credit_cards": "no", "payment:debit_cards": "no", "phone": "+1-256-232-8800", "power_supply": "yes", "tourism": "caravan_site", "website": "http://www.alabamarvtravel.com/", "osm_id": 442636370}}, {"type": "Feature", "geometry": {"type": "Point", "coordinates": [-85.8240498, 33.4725301]}, "properties": {"access": "customers", "capacity": "32", "dog": "leashed", "drinking_water": "yes", "fee": "yes", "internet_access": "no", "name": "Cheaha State Park (Lower) Campground #2", "opening_hours": "Apr-Nov unknown; Dec-Mar closed", "power_supply": "yes", "sanitary_dump_station": "yes", "tourism": "camp_site", "website": "https://www.alapark.com/parks/cheaha-state-park/campgrounds", "osm_id": 444433255}}, {"type": "Feature", "geometry": {"type": "Point", "coordinates": [-85.8125974, 33.4872768]}, "properties": {"capacity": "43", "dog": "leashed", "fee": "yes", "name": "Cheaha State Park (Upper) Campground #1", "power_supply": "yes", "tourism": "caravan_site", "website": "https://www.alapark.com/parks/cheaha-state-park/campgrounds", "osm_id": 444433265}}, {"type": "Feature", "geometry": {"type": "Point", "coordinates": [-87.6899861, 34.7808979]}, "properties": {"capacity": "60", "fee": "yes", "name": "McFarland Park Campground", "operator": "City of Florence Parks and Recreation Department", "power_supply": "yes", "tents": "yes", "tourism": "caravan_site", "website": "https://florenceal.org/departments/parks_&_recreation/mcfarland_park.php", "osm_id": 444469512}}, {"type": "Feature", "geometry": {"type": "Point", "coordinates": [-85.5084162, 31.6580005]}, "properties": {"tourism": "camp_site", "osm_id": 452554382}}, {"type": "Feature", "geometry": {"type": "Point", "coordinates": [-87.7839551, 32.9911403]}, "properties": {"addr:city": "Knoxville", "addr:street": "Old Patton Road", "capacity": "28", "fee": "yes", "internet_access": "no", "name": "Knox Hill RV Resort", "phone": "+1 205-372-3911", "power_supply": "yes", "tourism": "caravan_site", "osm_id": 461647328}}, {"type": "Feature", "geometry": {"type": "Point", "coordinates": [-86.6465787, 34.7101297]}, "properties": {"capacity": "27", "fee": "yes", "fixme": "Removed?", "name": "Space Camp RV Park", "phone": "+1-256-830-4987", "power_supply": "yes", "tourism": "caravan_site", "website": "https://www.spacecamp.com/travel/rvpark", "osm_id": 472677024}}, {"type": "Feature", "geometry": {"type": "Point", "coordinates": [-86.556993, 34.5750731]}, "properties": {"caravans": "yes", "fee": "yes", "name": "Ditto Landing", "tourism": "camp_site", "osm_id": 478716867}}, {"type": "Feature", "geometry": {"type": "Point", "coordinates": [-85.8236445, 33.4700383]}, "properties": {"dog": "leashed", "drinking_water": "yes", "internet_access": "no", "name": "Cheaha State Park Primitive CCC Campground", "tents": "yes", "tourism": "camp_site", "website": "https://www.alapark.com/parks/cheaha-state-park/campgrounds", "osm_id": 488484630}}, {"type": "Feature", "geometry": {"type": "Point", "coordinates": [-85.8108651, 33.4872156]}, "properties": {"caravans": "no", "group_only": "yes", "name": "Cheaha State Park Group Primitive Camping Area", "power_supply": "no", "tents": "yes", "tourism": "camp_site", "website": "https://www.alapark.com/cheaha-state-park-group-primitive-campground", "osm_id": 488487284}}, {"type": "Feature", "geometry": {"type": "Point", "coordinates": [-85.6236907, 34.5011365]}, "properties": {"area": "yes", "capacity": "94", "caravans": "yes", "dog": "leashed", "drinking_water": "yes", "fee": "yes", "name": "Desoto State Park Improved Campground", "tents": "yes", "tourism": "camp_site", "website": "https://www.alapark.com/improved-campsites", "osm_id": 488869535}}, {"type": "Feature", "geometry": {"type": "Point", "coordinates": [-87.6892112, 30.3065531]}, "properties": {"name": "RV Storage", "tourism": "caravan_site", "osm_id": 494905112}}, {"type": "Feature", "geometry": {"type": "Point", "coordinates": [-87.6872321, 30.3099821]}, "properties": {"tourism": "caravan_site", "osm_id": 494914968}}, {"type": "Feature", "geometry": {"type": "Point", "coordinates": [-86.550315, 31.0890233]}, "properties": {"capacity": "73", "caravans": "yes", "fee": "yes", "maxstay:conditional": "14 days @ (Mar - Sep)", "name": "Open Pond Campground", "quiet_time": "22:00-06:00", "sanitary_dump_station": "yes", "tents": "yes", "tourism": "camp_site", "osm_id": 495978553}}, {"type": "Feature", "geometry": {"type": "Point", "coordinates": [-86.8792096, 30.7092076]}, "properties": {"addr:city": "Holt", "addr:country": "US", "addr:housenumber": "7720", "addr:postcode": "32564", "addr:state": "FL", "addr:street": "Deaton Bridge Road", "capacity": "30", "caravans": "yes", "fee": "yes", "name": "Blackwater River State Park Campground", "sanitary_dump_station": "yes", "tents": "yes", "tourism": "camp_site", "osm_id": 495985131}}, {"type": "Feature", "geometry": {"type": "Point", "coordinates": [-86.2745679, 30.3668882]}, "properties": {"capacity": "22", "fee": "yes", "tourism": "camp_site", "wheelchair": "yes", "osm_id": 496936483}}, {"type": "Feature", "geometry": {"type": "Point", "coordinates": [-86.273161, 30.3676363]}, "properties": {"capacity": "156", "fee": "yes", "internet_access": "wlan", "power_supply": "yes", "tourism": "caravan_site", "osm_id": 496936514}}, {"type": "Feature", "geometry": {"type": "Point", "coordinates": [-86.4415622, 34.8931665]}, "properties": {"capacity": "39", "caravans": "yes", "fee": "yes", "name": "Sharon Johnston Campground", "sanitary_dump_station": "yes", "tents": "yes", "tourism": "camp_site", "website": "https://www.madisoncountyal.gov/departments/recreation-department/sharon-johnston-park/campground", "osm_id": 506510998}}, {"type": "Feature", "geometry": {"type": "Point", "coordinates": [-87.596617, 33.2259851]}, "properties": {"name": "Campsite B10", "tourism": "camp_site", "osm_id": 519474574}}, {"type": "Feature", "geometry": {"type": "Point", "coordinates": [-87.5962416, 33.2261248]}, "properties": {"name": "Campsite B11", "tourism": "camp_site", "osm_id": 519474575}}, {"type": "Feature", "geometry": {"type": "Point", "coordinates": [-87.5964253, 33.2254871]}, "properties": {"name": "Campsite B12", "tourism": "camp_site", "osm_id": 519474579}}, {"type": "Feature", "geometry": {"type": "Point", "coordinates": [-87.6000082, 33.2227218]}, "properties": {"tourism": "caravan_site", "osm_id": 519474583}}, {"type": "Feature", "geometry": {"type": "Point", "coordinates": [-87.9080786, 34.5128543]}, "properties": {"capacity": "53", "caravans": "yes", "name": "Slickrock Campground", "tourism": "camp_site", "osm_id": 522292255}}, {"type": "Feature", "geometry": {"type": "Point", "coordinates": [-87.3200553, 34.1015861]}, "properties": {"capacity": "52", "caravans": "yes", "fee": "yes", "name": "Corinth Recreational Area Campground", "tourism": "camp_site", "website": "https://www.fs.usda.gov/recarea/alabama/recreation/camping-cabins/recarea/?recid=30103&actid=29", "osm_id": 525065500}}, {"type": "Feature", "geometry": {"type": "Point", "coordinates": [-86.0609994, 33.559219]}, "properties": {"name": "South Park A", "tourism": "camp_site", "osm_id": 532114269}}, {"type": "Feature", "geometry": {"type": "Point", "coordinates": [-86.0630942, 33.5578198]}, "properties": {"name": "South Park B", "tourism": "camp_site", "osm_id": 532114281}}, {"type": "Feature", "geometry": {"type": "Point", "coordinates": [-86.0647205, 33.5570357]}, "properties": {"name": "South Park C", "tourism": "camp_site", "osm_id": 532256075}}, {"type": "Feature", "geometry": {"type": "Point", "coordinates": [-86.0666112, 33.5559874]}, "properties": {"name": "South Park D", "tourism": "camp_site", "osm_id": 532256077}}, {"type": "Feature", "geometry": {"type": "Point", "coordinates": [-87.4990289, 34.80039]}, "properties": {"addr:city": "Muscle Shoals", "addr:housenumber": "180", "addr:state": "AL", "addr:street": "Alloys Park Lane", "caravans": "yes", "fee": "yes", "internet_access": "wlan", "name": "Alloys Park", "phone": "+1-256-577-9619", "tents": "yes", "tourism": "caravan_site", "website": "https://www.colbertcounty.org/parks/alloyspark/", "osm_id": 532962437}}, {"type": "Feature", "geometry": {"type": "Point", "coordinates": [-88.0867646, 34.8523499]}, "properties": {"addr:city": "Cherokee", "addr:housenumber": "9395", "addr:postcode": "35616", "addr:state": "AL", "addr:street": "Riverton Rose Trail", "caravans": "yes", "fee": "yes", "name": "Rose Trail Park Campground", "tents": "yes", "tourism": "camp_site", "website": "https://www.colbertcounty.org/rosetrail.html", "osm_id": 532966311}}, {"type": "Feature", "geometry": {"type": "Point", "coordinates": [-87.8031601, 34.7191068]}, "properties": {"addr:city": "Tuscumbia", "addr:housenumber": "116", "addr:postcode": "35674", "addr:state": "AL", "addr:street": "Florida Lane", "fee": "yes", "internet_access": "wlan", "internet_access:fee": "no", "name": "Tuscumbia RV Park", "sanitary_dump_station": "yes", "tourism": "caravan_site", "website": "https://tuscumbiarvpark.com/", "osm_id": 532967449}}, {"type": "Feature", "geometry": {"type": "Point", "coordinates": [-87.6797414, 34.2738256]}, "properties": {"fee": "yes", "name": "Twin Forks Campground", "tourism": "camp_site", "osm_id": 532970344}}, {"type": "Feature", "geometry": {"type": "Point", "coordinates": [-87.7101733, 34.7098226]}, "properties": {"addr:city": "Tuscumbia", "addr:housenumber": "1770", "addr:postcode": "35674", "addr:state": "AL", "addr:street": "Neil Morris Road", "fee": "yes", "internet_access": "wlan", "name": "Heritage Acres RV Park", "power_supply": "yes", "tourism": "caravan_site", "website": "https://www.heritageacresrvpark.com/", "osm_id": 532971306}}, {"type": "Feature", "geometry": {"type": "Point", "coordinates": [-86.9052783, 34.2136373]}, "properties": {"addr:city": "Cullman", "addr:housenumber": "220", "addr:postcode": "35057", "addr:state": "AL", "addr:street": "County Road 1185", "caravans": "yes", "fee": "yes", "internet_access": "wlan", "name": "Cullman Campground", "tents": "yes", "tourism": "camp_site", "osm_id": 533918608}}, {"type": "Feature", "geometry": {"type": "Point", "coordinates": [-87.9625012, 34.4484127]}, "properties": {"capacity": "38", "capacity:cabins": "11", "capacity:caravans": "yes", "capacity:tents": "yes", "name": "Elliot Branch Campground", "operator": "Bear Creek Development Authority", "payment:mastercard": "yes", "payment:visa": "yes", "tourism": "camp_site", "website": "https://bearcreeklakes.com/", "osm_id": 533920756}}, {"type": "Feature", "geometry": {"type": "Point", "coordinates": [-86.0813141, 34.0013639]}, "properties": {"addr:city": "Gadsden", "addr:housenumber": "4122", "addr:postcode": "35904", "addr:state": "AL", "addr:street": "Old Pump Station Road", "caravans": "yes", "fee": "yes", "internet_access": "wlan", "internet_access:fee": "no", "name": "The Cove RV Resort", "phone": "+1-256-467-3158", "tents": "yes", "tourism": "camp_site", "website": "https://www.thecoverv.com/", "osm_id": 534176198}}, {"type": "Feature", "geometry": {"type": "Point", "coordinates": [-85.6537786, 34.4081487]}, "properties": {"addr:city": "Fort Payne", "addr:housenumber": "1357", "addr:postcode": "35967", "addr:state": "AL", "addr:street": "County Road 261", "capacity": "42", "caravans": "yes", "fee": "yes", "internet_access": "wlan", "name": "Little River RV Park and Campground", "tents": "yes", "tourism": "camp_site", "website": "http://www.littleriverrvpark.com/", "osm_id": 534593796}}, {"type": "Feature", "geometry": {"type": "Point", "coordinates": [-86.9546507, 34.7082335]}, "properties": {"addr:city": "Tanner", "addr:housenumber": "10420", "addr:postcode": "35671", "addr:state": "AL", "addr:street": "US Highway 31", "fee": "yes", "internet_access": "wlan", "name": "Swan Creek Manufactured Home Community RV Park", "tourism": "caravan_site", "osm_id": 534660205}}, {"type": "Feature", "geometry": {"type": "Point", "coordinates": [-87.1382633, 34.8018133]}, "properties": {"addr:city": "Athens", "addr:housenumber": "10211", "addr:state": "AL", "addr:street": "US Highway 72", "name": "T's Outback", "phone": "+1-256-431-4761", "tourism": "caravan_site", "osm_id": 534666020}}, {"type": "Feature", "geometry": {"type": "Point", "coordinates": [-86.9052679, 34.4559956]}, "properties": {"email": "campingisourbusiness@gmail.com", "fee": "yes", "internet_access": "wlan", "internet_access:fee": "no", "name": "Kv's RV Park", "phone": "+1-256-309-4856", "power_supply": "yes", "tourism": "caravan_site", "website": "https://www.kvsrv.com/", "osm_id": 534877275}}, {"type": "Feature", "geometry": {"type": "Point", "coordinates": [-87.933652, 30.6670866]}, "properties": {"capacity": "71", "capacity:caravans": "61", "fee": "yes", "name": "Meaher State Park Campground", "power_supply": "yes", "tourism": "camp_site", "website": "https://www.alapark.com/Meaher-State-Park-Camping", "osm_id": 534932451}}, {"type": "Feature", "geometry": {"type": "Point", "coordinates": [-85.4782123, 32.5534925]}, "properties": {"cabins": "yes", "capacity": "45", "caravans": "yes", "drinking_water": "yes", "fee": "yes", "name": "Chewacla State Park Campground", "power_supply": "yes", "tents": "yes", "tourism": "camp_site", "website": "https://www.alapark.com/chewacla-state-park", "osm_id": 536093037}}, {"type": "Feature", "geometry": {"type": "Point", "coordinates": [-86.2245544, 34.5712478]}, "properties": {"fee": "yes", "name": "Cathedral Caverns State Park Campground Improved Sites", "power_supply": "yes", "tourism": "caravan_site", "website": "https://www.alapark.com/Cathedral-Caverns-State-Park-Camping", "osm_id": 538788392}}, {"type": "Feature", "geometry": {"type": "Point", "coordinates": [-86.2282089, 34.5706735]}, "properties": {"fee": "yes", "name": "Cathedral Caverns State Park Campground Primitive Sites", "power_supply": "no", "tourism": "camp_site", "website": "https://www.alapark.com/Cathedral-Caverns-State-Park-Camping", "osm_id": 538788393}}, {"type": "Feature", "geometry": {"type": "Point", "coordinates": [-86.5889175, 30.3969741]}, "properties": {"name": "Destin West RV Resort", "tourism": "caravan_site", "osm_id": 550682045}}, {"type": "Feature", "geometry": {"type": "Point", "coordinates": [-85.6720069, 31.4621182]}, "properties": {"addr:city": "Ozark", "addr:country": "US", "addr:housenumber": "377", "addr:postcode": "36360", "addr:state": "AL", "addr:street": "U.S. Highway 231", "capacity": "20", "contact:phone": "+1 334-625-6590", "internet_access": "yes", "internet_access:fee": "no", "name": "Mr. D's RV Park", "power_supply": "yes", "smoking": "yes", "tents": "yes", "tourism": "caravan_site", "website": "https://mrds-rvpark.com/", "osm_id": 555303107}}, {"type": "Feature", "geometry": {"type": "Point", "coordinates": [-87.0865333, 30.526232]}, "properties": {"addr:city": "Milton", "addr:housenumber": "2444", "addr:postcode": "32583", "addr:state": "FL", "addr:street": "Avalon Boulevard", "capacity": "79", "fee": "yes", "internet_access": "wlan", "internet_access:fee": "no", "name": "Avalon Landing RV Park", "phone": "+1-850-995-5898", "power_supply": "yes", "sanitary_dump_station": "no", "tourism": "caravan_site", "website": "https://avalonlandingrvpark.com/", "osm_id": 561007150}}, {"type": "Feature", "geometry": {"type": "Point", "coordinates": [-85.1923909, 30.7556478]}, "properties": {"name": "Florida Caverns RV Resort", "tourism": "camp_site", "website": "https://www.floridacavernsrvresort.com", "osm_id": 587340643}}, {"type": "Feature", "geometry": {"type": "Point", "coordinates": [-85.0974766, 34.5703562]}, "properties": {"addr:postcode": "30105", "addr:state": "GA", "addr:street": "Everett Springs Road", "beer": "no", "capacity": "26", "contact:website": "https://www.fs.usda.gov/recarea/conf/recreation/camping-cabins/recarea/?recid=10460", "drinking_water": "yes", "fee": "yes", "internet_access": "no", "liquor": "no", "maxstay": "14 days", "name": "The Pocket Campground", "opening_hours": "Apr-Oct unknown;Nov-Mar closed", "operator": "United States Forest Service", "phone": "+1-706-695-6736", "reservation": "no", "tents": "yes", "toilets": "yes", "tourism": "camp_site", "website": "https://www.fs.usda.gov/recarea/conf/recreation/camping-cabins/recarea/?recid=10460", "wine": "no", "osm_id": 590867443}}, {"type": "Feature", "geometry": {"type": "Point", "coordinates": [-86.8635075, 33.8755703]}, "properties": {"capacity:caravans": "13", "capacity:tents": "18", "caravans": "yes", "fee": "yes", "name": "Rickwood Caverns Campground", "sanitary_dump_station": "yes", "tents": "yes", "toilets": "yes", "tourism": "camp_site", "website": "https://www.alapark.com/parks/rickwood-caverns-state-park/camping", "osm_id": 601305357}}, {"type": "Feature", "geometry": {"type": "Point", "coordinates": [-86.953247, 34.0785726]}, "properties": {"cabins": "yes", "capacity": "30", "caravans": "yes", "drinking_water": "yes", "fee": "yes", "name": "Smith Lake Park Campground", "sanitary_dump_station": "yes", "shelter_type": "pavilion", "shower": "yes", "tents": "yes", "toilets": "yes", "tourism": "camp_site", "website": "http://www.cullmancountyparks.com/smithlake.html", "osm_id": 601322983}}, {"type": "Feature", "geometry": {"type": "Point", "coordinates": [-86.683533, 34.5880918]}, "properties": {"capacity": "23", "name": "Easter Posey Campground", "tourism": "camp_site", "osm_id": 603090419}}, {"type": "Feature", "geometry": {"type": "Point", "coordinates": [-86.6376748, 34.6924187]}, "properties": {"capacity": "42", "fee": "yes", "name": "Redstone Arsenal RV Park", "power_supply": "yes", "sanitary_dump_station": "yes", "tourism": "caravan_site", "osm_id": 603091771}}, {"type": "Feature", "geometry": {"type": "Point", "coordinates": [-87.713826, 30.2589599]}, "properties": {"addr:city": "Gulf Shores", "addr:housenumber": "18201", "addr:postcode": "36542", "addr:state": "AL", "addr:street": "State Hwy 180", "name": "Island Retreat RV Park", "tourism": "caravan_site", "osm_id": 603760978}}, {"type": "Feature", "geometry": {"type": "Point", "coordinates": [-87.7237396, 30.2582155]}, "properties": {"addr:city": "Gulf Shores", "addr:housenumber": "17595", "addr:postcode": "36542", "addr:state": "AL", "addr:street": "State Hwy 180", "name": "Doc's RV Park", "tourism": "caravan_site", "osm_id": 603804970}}, {"type": "Feature", "geometry": {"type": "Point", "coordinates": [-85.8186432, 33.7383053]}, "properties": {"addr:housenumber": "6514", "addr:state": "AL", "addr:street": "Weaver Road", "caravans": "yes", "charge": "25 USD/night", "drinking_water": "yes", "fee": "yes", "name": "Michael Tucker Campground", "phone": "+1-256-847-7349", "sanitary_dump_station": "no", "tents": "yes", "tourism": "camp_site", "website": "https://www.annistonal.gov/parks-recreation/michael-tucker-memorial-park-chief-ladiga-trail/", "osm_id": 606808668}}, {"type": "Feature", "geometry": {"type": "Point", "coordinates": [-85.6030272, 33.7249028]}, "properties": {"capacity": "21", "charge": "3 USD/night", "drinking_water": "no", "fee": "yes", "fixme": "the extent of this is a guess", "internet_access": "no", "name": "Pine Glen Recreation Area", "operator": "United States Forest Service", "shower": "no", "tents": "yes", "toilets": "yes", "tourism": "camp_site", "website": "https://www.fs.usda.gov/recarea/alabama/recreation/camping-cabins/recarea/?recid=30159", "osm_id": 606829328}}, {"type": "Feature", "geometry": {"type": "Point", "coordinates": [-86.080191, 34.9777018]}, "properties": {"capacity:tents": "6", "fee": "no", "internet_access": "no", "tourism": "camp_site", "osm_id": 607455084}}, {"type": "Feature", "geometry": {"type": "Point", "coordinates": [-87.5640471, 30.2927939]}, "properties": {"addr:city": "Orange Beach", "addr:housenumber": "4650", "addr:postcode": "36561", "addr:state": "AL", "addr:street": "Griffith Marina Road", "name": "Terry Cove Motor Coach Resort", "tourism": "caravan_site", "osm_id": 628750298}}, {"type": "Feature", "geometry": {"type": "Point", "coordinates": [-87.6209687, 30.2627759]}, "properties": {"addr:city": "Orange Beach", "addr:housenumber": "23601", "addr:postcode": "36561", "addr:state": "AL", "addr:street": "Perdido Beach Boulevard", "name": "Buena Vista Coastal RV Resort", "tourism": "caravan_site", "osm_id": 633788698}}, {"type": "Feature", "geometry": {"type": "Point", "coordinates": [-87.5712442, 34.887056]}, "properties": {"addr:housenumber": "520", "addr:street": "Westmoreland Road", "contact:website": "https://1bsa.org/camp.php?cn=12", "name": "Camp Westmoreland", "operator": "Greater Alabama Council Boy Scouts of America", "scout": "yes", "tourism": "camp_site", "osm_id": 654323657}}, {"type": "Feature", "geometry": {"type": "Point", "coordinates": [-87.4825765, 31.2566415]}, "properties": {"phone": "+1-251-862-2022", "tourism": "camp_site", "osm_id": 656570564}}, {"type": "Feature", "geometry": {"type": "Point", "coordinates": [-86.0633158, 34.6171076]}, "properties": {"name": "Crawford's RV Park", "tourism": "caravan_site", "osm_id": 666214791}}, {"type": "Feature", "geometry": {"type": "Point", "coordinates": [-87.5974617, 33.2236726]}, "properties": {"name": "site B1", "tourism": "camp_site", "osm_id": 667037569}}, {"type": "Feature", "geometry": {"type": "Point", "coordinates": [-88.4175529, 34.2922208]}, "properties": {"capacity": "60", "drinking_water": "yes", "fee": "yes", "name": "Whitten Park Campground", "operator": "U.S. Army Corps of Engineers", "power_supply": "yes", "tourism": "camp_site", "website": "https://www.recreation.gov/camping/campgrounds/232743", "osm_id": 669383309}}, {"type": "Feature", "geometry": {"type": "Point", "coordinates": [-88.4765047, 33.5955202]}, "properties": {"capacity": "110", "caravans": "yes", "fee": "yes", "name": "Dewayne Hayes Campground", "phone": "+1-662-434-6939", "tents": "yes", "tourism": "camp_site", "website": "https://www.recreation.gov/camping/campgrounds/232574", "osm_id": 670042765}}, {"type": "Feature", "geometry": {"type": "Point", "coordinates": [-86.7080241, 33.3637504]}, "properties": {"cabins": "yes", "caravans": "yes", "dog": "leashed", "drinking_water": "yes", "fee": "yes", "name": "Oak Mountain State Park Campground", "power_supply": "yes", "shower": "yes", "tents": "yes", "toilets": "yes", "toilets:disposal": "flush", "tourism": "camp_site", "website": "https://www.alapark.com/parks/oak-mountain-state-park/camping", "osm_id": 670059686}}, {"type": "Feature", "geometry": {"type": "Point", "coordinates": [-85.5597701, 33.7856804]}, "properties": {"capacity": "39", "caravans": "yes", "charge": "16 USD/night", "drinking_water": "yes", "fee": "yes", "name": "Coleman Lake Recreation Area Campground", "opening_hours": "Mar 15-Dec 01 unknown; Dec 02-Mar 14 closed", "shower": "yes", "tents": "yes", "toilets": "yes", "toilets:disposal": "flush", "tourism": "camp_site", "website": "https://www.fs.usda.gov/recarea/alabama/recreation/camping-cabins/recarea/?recid=30157&actid=29", "osm_id": 671553841}}, {"type": "Feature", "geometry": {"type": "Point", "coordinates": [-86.768935, 32.3396494]}, "properties": {"bbq": "yes", "caravans": "yes", "drinking_water": "yes", "fee": "yes", "fixme": "campground boundaries are approximated", "name": "Praire Creek Campground", "phone": "+1-334-418-4919", "power_supply": "yes", "tents": "yes", "tourism": "camp_site", "website": "https://www.recreation.gov/camping/campgrounds/232679", "osm_id": 671873481}}, {"type": "Feature", "geometry": {"type": "Point", "coordinates": [-85.1557193, 34.9315926]}, "properties": {"addr:city": "Ringgold", "addr:housenumber": "199", "addr:state": "GA", "addr:street": "KOA Boulevard", "name": "Battlefield Campground & RV Park", "tourism": "camp_site", "osm_id": 690757319}}, {"type": "Feature", "geometry": {"type": "Point", "coordinates": [-85.1561327, 34.9316779]}, "properties": {"addr:city": "Ringgold", "addr:housenumber": "199", "addr:state": "GA", "addr:street": "KOA Boulevard", "tourism": "camp_site", "osm_id": 690757705}}, {"type": "Feature", "geometry": {"type": "Point", "coordinates": [-87.314759, 30.5173782]}, "properties": {"addr:city": "Pensacola", "addr:country": "US", "addr:housenumber": "2605", "addr:postcode": "32526", "addr:state": "FL", "addr:street": "Wilde Lake Boulevard", "name": "Five Flags RV", "tourism": "caravan_site", "website": "https://www.fiveflagsrvpark.com/", "osm_id": 698936663}}, {"type": "Feature", "geometry": {"type": "Point", "coordinates": [-86.2004259, 30.7306045]}, "properties": {"access": "private", "name": "Choctaw", "tourism": "camp_site", "osm_id": 718136667}}, {"type": "Feature", "geometry": {"type": "Point", "coordinates": [-86.201108, 30.7310564]}, "properties": {"access": "private", "name": "Seminole", "tourism": "camp_site", "osm_id": 718136668}}, {"type": "Feature", "geometry": {"type": "Point", "coordinates": [-86.2023273, 30.7329446]}, "properties": {"name": "Staff Area", "tourism": "camp_site", "osm_id": 718136669}}, {"type": "Feature", "geometry": {"type": "Point", "coordinates": [-86.1992413, 30.7314472]}, "properties": {"access": "private", "name": "Chickasaw", "tourism": "camp_site", "osm_id": 718136671}}, {"type": "Feature", "geometry": {"type": "Point", "coordinates": [-86.2020723, 30.729073]}, "properties": {"access": "private", "name": "Cheyenne", "tourism": "camp_site", "osm_id": 718147690}}, {"type": "Feature", "geometry": {"type": "Point", "coordinates": [-86.2015686, 30.7283449]}, "properties": {"access": "private", "name": "Hope", "tourism": "camp_site", "osm_id": 718147691}}, {"type": "Feature", "geometry": {"type": "Point", "coordinates": [-86.2011375, 30.729071]}, "properties": {"access": "private", "name": "Comanche", "tourism": "camp_site", "osm_id": 718147692}}, {"type": "Feature", "geometry": {"type": "Point", "coordinates": [-86.2013171, 30.7301472]}, "properties": {"access": "private", "name": "Crow", "tourism": "camp_site", "osm_id": 718147693}}, {"type": "Feature", "geometry": {"type": "Point", "coordinates": [-86.2011021, 30.7319595]}, "properties": {"access": "private", "name": "Sioux", "tourism": "camp_site", "osm_id": 718147694}}, {"type": "Feature", "geometry": {"type": "Point", "coordinates": [-86.2003411, 30.7322403]}, "properties": {"access": "private", "name": "Iroquois", "tourism": "camp_site", "osm_id": 718147695}}, {"type": "Feature", "geometry": {"type": "Point", "coordinates": [-86.2011999, 30.7326309]}, "properties": {"access": "private", "name": "Mohican", "tourism": "camp_site", "osm_id": 718147696}}, {"type": "Feature", "geometry": {"type": "Point", "coordinates": [-86.4978649, 30.4114859]}, "properties": {"tourism": "caravan_site", "osm_id": 718242998}}, {"type": "Feature", "geometry": {"type": "Point", "coordinates": [-87.3638502, 34.8456888]}, "properties": {"tourism": "camp_site", "osm_id": 725982435}}, {"type": "Feature", "geometry": {"type": "Point", "coordinates": [-87.3162799, 30.5326735]}, "properties": {"tourism": "caravan_site", "osm_id": 733122310}}, {"type": "Feature", "geometry": {"type": "Point", "coordinates": [-87.5790556, 34.904092]}, "properties": {"addr:city": "Florence", "addr:housenumber": "1245", "addr:postcode": "35634", "addr:state": "AL", "addr:street": "Spring Cove Road", "group_only": "yes", "name": "Earl Trent Assembly", "operator": "Colbert-Lauderdale Baptist Association", "tourism": "camp_site", "website": "https://www.clbaptist.com/new-page-5", "osm_id": 749915101}}, {"type": "Feature", "geometry": {"type": "Point", "coordinates": [-85.2605237, 33.6909104]}, "properties": {"addr:city": "Tallapoosa", "addr:housenumber": "1179", "addr:postcode": "30176", "addr:state": "GA", "addr:street": "GA 100", "name": "Big Oak R V Park", "phone": "+1-770-574-5522", "sanitary_dump_station": "yes", "tourism": "caravan_site", "osm_id": 794539810}}, {"type": "Feature", "geometry": {"type": "Point", "coordinates": [-85.1559929, 34.9321011]}, "properties": {"tourism": "caravan_site", "osm_id": 835945681}}, {"type": "Feature", "geometry": {"type": "Point", "coordinates": [-86.5133724, 32.5824422]}, "properties": {"access": "private", "name": "Warner Scout Reservation", "operator": "Tukabatchee Area Council, BSA", "tourism": "camp_site", "osm_id": 838067356}}, {"type": "Feature", "geometry": {"type": "Point", "coordinates": [-86.2646149, 33.4374151]}, "properties": {"addr:city": "Alpine", "addr:housenumber": "1036", "addr:postcode": "35014", "addr:state": "AL", "addr:street": "Paul Bear Bryant Road", "fee": "yes", "name": "Logan Landing RV & Cabin Resort", "power_supply": "yes", "tourism": "caravan_site", "osm_id": 841789494}}, {"type": "Feature", "geometry": {"type": "Point", "coordinates": [-85.395147, 30.5287324]}, "properties": {"tourism": "caravan_site", "osm_id": 844118886}}, {"type": "Feature", "geometry": {"type": "Point", "coordinates": [-85.8229652, 33.4745011]}, "properties": {"access": "customers", "fee": "yes", "group_only": "yes", "name": "Cheaha State Park Group Campsite", "tourism": "camp_site", "website": "https://www.alapark.com/parks/cheaha-state-park/campgrounds", "osm_id": 852984051}}, {"type": "Feature", "geometry": {"type": "Point", "coordinates": [-86.383178, 32.4551065]}, "properties": {"name": "K & K Camping Center", "tourism": "camp_site", "osm_id": 858328347}}, {"type": "Feature", "geometry": {"type": "Point", "coordinates": [-86.3840765, 32.4968622]}, "properties": {"name": "Nettles Mobile Home Park", "tourism": "caravan_site", "osm_id": 862792828}}, {"type": "Feature", "geometry": {"type": "Point", "coordinates": [-86.3841677, 32.5016502]}, "properties": {"name": "Oak Tree Mobile Home Park", "tourism": "caravan_site", "osm_id": 862792829}}, {"type": "Feature", "geometry": {"type": "Point", "coordinates": [-86.3881937, 32.4992873]}, "properties": {"name": "Still Creek Mobile Home Park", "tourism": "caravan_site", "osm_id": 862792830}}, {"type": "Feature", "geometry": {"type": "Point", "coordinates": [-84.9330485, 30.7465721]}, "properties": {"fee": "yes", "name": "Three Rivers State Park Campground", "tents": "yes", "tourism": "camp_site", "website": "https://www.floridastateparks.org/parks-and-trails/three-rivers-state-park/experiences-amenities#camping", "osm_id": 862890443}}, {"type": "Feature", "geometry": {"type": "Point", "coordinates": [-84.9200449, 30.7379138]}, "properties": {"fee": "yes", "name": "Three Rivers State Park Group Campground", "tourism": "camp_site", "osm_id": 862890446}}, {"type": "Feature", "geometry": {"type": "Point", "coordinates": [-85.5419066, 32.606867]}, "properties": {"name": "University Station RV park", "tourism": "caravan_site", "osm_id": 912907826}}, {"type": "Feature", "geometry": {"type": "Point", "coordinates": [-85.7242509, 33.6116226]}, "properties": {"addr:city": "Anniston", "addr:housenumber": "24", "addr:postcode": "36207", "addr:state": "AL", "addr:street": "Cheaha State Park Drive", "fee": "yes", "internet_access": "wlan", "name": "Scenic Drive RV Park", "power_supply": "yes", "shower": "yes", "tourism": "caravan_site", "website": "http://www.scenicdrivervpark.com/", "osm_id": 920582491}}, {"type": "Feature", "geometry": {"type": "Point", "coordinates": [-85.5812896, 33.7827355]}, "properties": {"capacity": "45", "drinking_water": "yes", "fee": "yes", "horse": "yes", "name": "Warden Station Horse Camp", "tents": "yes", "tourism": "camp_site", "website": "https://www.fs.usda.gov/recarea/alabama/recarea/?recid=30161", "osm_id": 921290043}}, {"type": "Feature", "geometry": {"type": "Point", "coordinates": [-85.6172525, 34.9820316]}, "properties": {"addr:housenumber": "395", "addr:street": "County Road 159", "group_only": "yes", "name": "Grant Summit Cabins", "tourism": "camp_site", "website": "https://grantsummitcabins.holidayfuture.com/map", "osm_id": 927981068}}, {"type": "Feature", "geometry": {"type": "Point", "coordinates": [-85.4876474, 34.8254548]}, "properties": {"name": "Pioneer Site 01", "tourism": "camp_site", "osm_id": 946140110}}, {"type": "Feature", "geometry": {"type": "Point", "coordinates": [-85.4865213, 34.8258186]}, "properties": {"name": "Pioneer Site 03", "tourism": "camp_site", "osm_id": 946140111}}, {"type": "Feature", "geometry": {"type": "Point", "coordinates": [-85.4871413, 34.8268674]}, "properties": {"name": "Pioneer Site 04", "tourism": "camp_site", "osm_id": 946140113}}, {"type": "Feature", "geometry": {"type": "Point", "coordinates": [-85.4883766, 34.8263575]}, "properties": {"name": "Pioneer Site 02", "tourism": "camp_site", "osm_id": 946140117}}, {"type": "Feature", "geometry": {"type": "Point", "coordinates": [-85.081573, 32.5103928]}, "properties": {"fee": "yes", "name": "Sawyer's Mobile Home Estates & RV Park", "opening_hours": "Mo-Fr 09:00-18:00", "phone": "+1 334 298 7503", "tourism": "caravan_site", "website": "https://sawyersmobilehomeestates.business.site/", "osm_id": 946654145}}, {"type": "Feature", "geometry": {"type": "Point", "coordinates": [-87.4527683, 30.3957085]}, "properties": {"addr:city": "Lillian", "addr:housenumber": "11650", "addr:postcode": "36549", "addr:state": "AL", "addr:street": "County Road 99", "brand": "KOA", "brand:wikidata": "Q16988635", "email": "lostbayrv@live.com", "internet_access": "wlan", "name": "KOA Holiday", "phone": "+1-251-961-1717", "power_supply": "yes", "sanitary_dump_station": "yes", "short_name": "KOA", "tourism": "caravan_site", "website": "https://koa.com/campgrounds/gulf-shores/", "osm_id": 956109969}}, {"type": "Feature", "geometry": {"type": "Point", "coordinates": [-86.6718496, 31.8957636]}, "properties": {"tourism": "caravan_site", "osm_id": 956441363}}, {"type": "Feature", "geometry": {"type": "Point", "coordinates": [-87.3075162, 30.5105606]}, "properties": {"addr:city": "Pensacola", "addr:housenumber": "7800", "addr:postcode": "32526", "addr:state": "FL", "addr:street": "Pine Forest Road", "name": "Pensacola North RV Resort", "tourism": "caravan_site", "osm_id": 1009140871}}, {"type": "Feature", "geometry": {"type": "Point", "coordinates": [-85.4820108, 32.5490201]}, "properties": {"tourism": "caravan_site", "osm_id": 1013353098}}, {"type": "Feature", "geometry": {"type": "Point", "coordinates": [-88.0256501, 31.1568118]}, "properties": {"name": "Autumn Lake RV Park", "tourism": "caravan_site", "osm_id": 1039483134}}, {"type": "Feature", "geometry": {"type": "Point", "coordinates": [-87.4700602, 33.1745406]}, "properties": {"tourism": "caravan_site", "osm_id": 1042514891}}, {"type": "Feature", "geometry": {"type": "Point", "coordinates": [-87.7874365, 30.5026192]}, "properties": {"name": "Wales West RV Resort & Light Railway", "tourism": "camp_site", "osm_id": 1076225418}}, {"type": "Feature", "geometry": {"type": "Point", "coordinates": [-87.7701392, 30.3819024]}, "properties": {"addr:city": "Magnolia Springs", "addr:housenumber": "10723", "addr:postcode": "36555", "addr:street": "Magnolia Springs Highway", "name": "Magnolia Springs RV Hideaway Campground", "phone": "+1-251-965-6777", "tourism": "caravan_site", "website": "Magnolia Springs Golf & RV Hideaway Campground", "osm_id": 1076228515}}, {"type": "Feature", "geometry": {"type": "Point", "coordinates": [-87.8165032, 30.4120258]}, "properties": {"name": "The Plantations At Fish River", "tourism": "caravan_site", "osm_id": 1076229502}}, {"type": "Feature", "geometry": {"type": "Point", "coordinates": [-87.8122019, 30.4118274]}, "properties": {"name": "Camellia RV Park", "tourism": "caravan_site", "osm_id": 1076229503}}, {"type": "Feature", "geometry": {"type": "Point", "coordinates": [-87.6769947, 30.4350996]}, "properties": {"tourism": "caravan_site", "osm_id": 1076229843}}, {"type": "Feature", "geometry": {"type": "Point", "coordinates": [-87.6875801, 30.4561756]}, "properties": {"name": "Johnny's Lakeside RV Resort", "tourism": "caravan_site", "osm_id": 1076230253}}, {"type": "Feature", "geometry": {"type": "Point", "coordinates": [-87.1784115, 31.3546593]}, "properties": {"addr:city": "Repton", "addr:state": "AL", "fee": "yes", "image": "https://d1ay7qnb0dqwzm.cloudfront.net/348949.900.6302632546.jpg", "power_supply": "yes", "tourism": "caravan_site", "osm_id": 1076574211}}, {"type": "Feature", "geometry": {"type": "Point", "coordinates": [-87.6911844, 30.3540861]}, "properties": {"addr:city": "Foley", "addr:housenumber": "19546", "addr:postcode": "36535", "addr:state": "AL", "addr:street": "County Road 12", "name": "Deep South Boat Storage & RV Park", "tourism": "caravan_site", "osm_id": 1078685866}}, {"type": "Feature", "geometry": {"type": "Point", "coordinates": [-87.6859922, 30.3615299]}, "properties": {"addr:city": "Foley", "addr:housenumber": "19814", "addr:postcode": "36535", "addr:street": "County Road 20 South", "name": "Anchors Aweigh RV Resort", "phone": "+1 251-971-6644", "tourism": "caravan_site", "website": "https://anchorsaweighrvresort.com/", "osm_id": 1078686211}}, {"type": "Feature", "geometry": {"type": "Point", "coordinates": [-87.6810054, 30.3620563]}, "properties": {"tourism": "caravan_site", "osm_id": 1078686213}}, {"type": "Feature", "geometry": {"type": "Point", "coordinates": [-88.4789067, 32.0230756]}, "properties": {"tourism": "camp_site", "osm_id": 1080634096}}, {"type": "Feature", "geometry": {"type": "Point", "coordinates": [-86.95079, 34.0904615]}, "properties": {"addr:housenumber": "277", "addr:street": "County Road 307", "name": "Ryans Creek RV Resort", "tourism": "camp_site", "website": "https://ryans-creek-rv-resort.edan.io/", "osm_id": 1080976229}}, {"type": "Feature", "geometry": {"type": "Point", "coordinates": [-86.9735783, 34.0802368]}, "properties": {"name": "Speegle's Campground", "tourism": "camp_site", "osm_id": 1080977766}}, {"type": "Feature", "geometry": {"type": "Point", "coordinates": [-86.9791797, 34.0776847]}, "properties": {"name": "Brag Patch RV Park", "tourism": "camp_site", "osm_id": 1080977906}}, {"type": "Feature", "geometry": {"type": "Point", "coordinates": [-85.0995779, 31.6431649]}, "properties": {"name": "Hardridge Creek Campground", "tourism": "camp_site", "osm_id": 1084478812}}, {"type": "Feature", "geometry": {"type": "Point", "coordinates": [-85.0593797, 31.6751762]}, "properties": {"caravans": "yes", "name": "Cotton Hill Campground", "tents": "yes", "tourism": "camp_site", "osm_id": 1084479550}}, {"type": "Feature", "geometry": {"type": "Point", "coordinates": [-85.1474812, 31.7762197]}, "properties": {"tourism": "camp_site", "osm_id": 1084480398}}, {"type": "Feature", "geometry": {"type": "Point", "coordinates": [-84.9578665, 32.3788598]}, "properties": {"addr:city": "Columbus", "addr:housenumber": "3701", "addr:postcode": "31903", "addr:state": "GA", "addr:street": "South Lumpkin Road", "capacity:caravans": "43", "email": "info@campdavidrvresort.com", "name": "Camp David RV Resort", "phone": "+1-706-392-1627", "power_supply": "yes", "reservation": "yes", "sanitary_dump_station": "yes", "tourism": "caravan_site", "website": "https://www.campdavidrvresort.com/", "osm_id": 1084513825}}, {"type": "Feature", "geometry": {"type": "Point", "coordinates": [-85.0115925, 32.1824313]}, "properties": {"tourism": "camp_site", "osm_id": 1084514617}}, {"type": "Feature", "geometry": {"type": "Point", "coordinates": [-86.0148825, 34.6408258]}, "properties": {"tourism": "camp_site", "website": "https://www.jacksoncountyal.gov/jacksoncountypark", "osm_id": 1085476065}}, {"type": "Feature", "geometry": {"type": "Point", "coordinates": [-86.2523187, 34.2881963]}, "properties": {"tourism": "caravan_site", "osm_id": 1087951265}}, {"type": "Feature", "geometry": {"type": "Point", "coordinates": [-87.7540364, 30.6165444]}, "properties": {"tourism": "caravan_site", "osm_id": 1088043039}}, {"type": "Feature", "geometry": {"type": "Point", "coordinates": [-86.7314831, 33.0172981]}, "properties": {"tourism": "camp_site", "osm_id": 1090326315}}, {"type": "Feature", "geometry": {"type": "Point", "coordinates": [-86.2132001, 34.425349]}, "properties": {"tourism": "caravan_site", "osm_id": 1090628075}}, {"type": "Feature", "geometry": {"type": "Point", "coordinates": [-86.0877213, 34.5326791]}, "properties": {"addr:city": "Langston", "addr:housenumber": "155", "addr:state": "AL", "addr:street": "Eagle's Lane", "fee": "yes", "name": "Eagle's Landing RV Resort", "opening_hours": "Mo-Su 08:00-16:00", "phone": "+1-256-706-3809", "tourism": "camp_site", "website": "http://www.eagleslandingrvresort.net/", "osm_id": 1090629534}}, {"type": "Feature", "geometry": {"type": "Point", "coordinates": [-86.0905386, 34.5325815]}, "properties": {"addr:city": "Langston", "addr:housenumber": "10174", "addr:state": "AL", "addr:street": "County Road 67", "email": "windemerecove@aol.com", "fee": "yes", "name": "Windemere Cove", "phone": "+1-256-228-3010", "tourism": "camp_site", "website": "https://www.windemerecove.com/", "osm_id": 1090629851}}, {"type": "Feature", "geometry": {"type": "Point", "coordinates": [-86.0115885, 31.893675]}, "properties": {"addr:city": "Troy", "addr:state": "AL", "capacity:caravans": "118", "caravans": "yes", "fee": "yes", "internet_access": "wlan", "internet_access:fee": "no", "name": "Deer Run RV Park", "opening_hours": "Mo-Sa 10:00-18:00; Su 08:00-17:00", "phone": "+1-334-566-6517", "tourism": "camp_site", "website": "https://deerrunrvpark.com/", "osm_id": 1092271496}}, {"type": "Feature", "geometry": {"type": "Point", "coordinates": [-87.7815978, 30.4597518]}, "properties": {"name": "Rainbow Plantation", "tourism": "caravan_site", "website": "https://rainbowplantation.escapeesrvparks.com/", "osm_id": 1092774556}}, {"type": "Feature", "geometry": {"type": "Point", "coordinates": [-87.7202266, 30.4715141]}, "properties": {"name": "Cherokee Farms RV Park", "tourism": "caravan_site", "osm_id": 1092774800}}, {"type": "Feature", "geometry": {"type": "Point", "coordinates": [-85.9614488, 33.6214064]}, "properties": {"tourism": "camp_site", "osm_id": 1103584959}}, {"type": "Feature", "geometry": {"type": "Point", "coordinates": [-87.7071391, 30.308057]}, "properties": {"name": "Gulf Shores RV Resort", "tourism": "camp_site", "osm_id": 1105406258}}, {"type": "Feature", "geometry": {"type": "Point", "coordinates": [-87.6599279, 30.3465648]}, "properties": {"name": "Bella Terra RV Resort", "tourism": "caravan_site", "osm_id": 1105410149}}, {"type": "Feature", "geometry": {"type": "Point", "coordinates": [-87.6880033, 30.339315]}, "properties": {"name": "Blue Heron Escape RV Resort", "tourism": "caravan_site", "osm_id": 1105410153}}, {"type": "Feature", "geometry": {"type": "Point", "coordinates": [-87.6906996, 30.3238775]}, "properties": {"name": "Sun Runners RV Park", "tourism": "caravan_site", "osm_id": 1105410504}}, {"type": "Feature", "geometry": {"type": "Point", "coordinates": [-87.6888416, 30.324211]}, "properties": {"name": "Whispering Pines RV Resort West", "tourism": "caravan_site", "osm_id": 1105410505}}, {"type": "Feature", "geometry": {"type": "Point", "coordinates": [-87.7189777, 30.3650489]}, "properties": {"tourism": "caravan_site", "osm_id": 1105412423}}, {"type": "Feature", "geometry": {"type": "Point", "coordinates": [-87.6961793, 30.3107352]}, "properties": {"tourism": "caravan_site", "osm_id": 1105422342}}, {"type": "Feature", "geometry": {"type": "Point", "coordinates": [-87.6996421, 30.3081349]}, "properties": {"tourism": "caravan_site", "osm_id": 1105422345}}, {"type": "Feature", "geometry": {"type": "Point", "coordinates": [-87.7352726, 30.292223]}, "properties": {"tourism": "caravan_site", "osm_id": 1105424007}}, {"type": "Feature", "geometry": {"type": "Point", "coordinates": [-87.6875682, 30.2812781]}, "properties": {"addr:city": "Gulf Shores", "addr:housenumber": "108", "addr:postcode": "36542", "addr:state": "AL", "addr:street": "Waterway West Boulevard", "name": "Southport Campground", "phone": "+1 251-968-6220", "tourism": "camp_site", "osm_id": 1105425053}}, {"type": "Feature", "geometry": {"type": "Point", "coordinates": [-87.8464424, 30.2450514]}, "properties": {"tourism": "caravan_site", "osm_id": 1105435673}}, {"type": "Feature", "geometry": {"type": "Point", "coordinates": [-84.92249, 31.4710594]}, "properties": {"name": "Pioneer Area #2", "ref": "2", "tourism": "camp_site", "osm_id": 1110318177}}, {"type": "Feature", "geometry": {"type": "Point", "coordinates": [-84.9240609, 31.469319]}, "properties": {"name": "Pioneer Area #1", "ref": "1", "tourism": "camp_site", "osm_id": 1110318178}}, {"type": "Feature", "geometry": {"type": "Point", "coordinates": [-84.986211, 30.4390118]}, "properties": {"tourism": "caravan_site", "osm_id": 1119318388}}, {"type": "Feature", "geometry": {"type": "Point", "coordinates": [-84.9864246, 30.2759147]}, "properties": {"tourism": "caravan_site", "osm_id": 1119318389}}, {"type": "Feature", "geometry": {"type": "Point", "coordinates": [-86.0916191, 34.9868828]}, "properties": {"backcountry": "yes", "tourism": "camp_site", "osm_id": 1124250035}}, {"type": "Feature", "geometry": {"type": "Point", "coordinates": [-86.0960256, 34.9843799]}, "properties": {"backcountry": "yes", "tourism": "camp_site", "osm_id": 1124250037}}, {"type": "Feature", "geometry": {"type": "Point", "coordinates": [-86.098338, 34.9869747]}, "properties": {"backcountry": "yes", "tourism": "camp_site", "osm_id": 1124250040}}, {"type": "Feature", "geometry": {"type": "Point", "coordinates": [-85.3163602, 30.9470264]}, "properties": {"tourism": "caravan_site", "osm_id": 1124552965}}, {"type": "Feature", "geometry": {"type": "Point", "coordinates": [-85.3911802, 30.7499156]}, "properties": {"tourism": "caravan_site", "osm_id": 1124552970}}, {"type": "Feature", "geometry": {"type": "Point", "coordinates": [-85.176186, 30.747605]}, "properties": {"tourism": "caravan_site", "osm_id": 1124552971}}, {"type": "Feature", "geometry": {"type": "Point", "coordinates": [-85.1830465, 30.7282265]}, "properties": {"tourism": "caravan_site", "osm_id": 1124552972}}, {"type": "Feature", "geometry": {"type": "Point", "coordinates": [-84.9035045, 30.724392]}, "properties": {"tourism": "caravan_site", "osm_id": 1124552973}}, {"type": "Feature", "geometry": {"type": "Point", "coordinates": [-85.1320074, 30.6158769]}, "properties": {"tourism": "caravan_site", "osm_id": 1124552974}}, {"type": "Feature", "geometry": {"type": "Point", "coordinates": [-85.3832151, 30.6079183]}, "properties": {"tourism": "caravan_site", "osm_id": 1124552975}}, {"type": "Feature", "geometry": {"type": "Point", "coordinates": [-85.3429579, 30.4366933]}, "properties": {"tourism": "caravan_site", "osm_id": 1131848737}}, {"type": "Feature", "geometry": {"type": "Point", "coordinates": [-85.1442378, 30.2883755]}, "properties": {"tourism": "caravan_site", "osm_id": 1131848738}}, {"type": "Feature", "geometry": {"type": "Point", "coordinates": [-85.28311, 30.2301186]}, "properties": {"tourism": "caravan_site", "osm_id": 1131848739}}, {"type": "Feature", "geometry": {"type": "Point", "coordinates": [-86.0278618, 30.8971832]}, "properties": {"tourism": "caravan_site", "osm_id": 1132299673}}, {"type": "Feature", "geometry": {"type": "Point", "coordinates": [-85.685251, 30.9260978]}, "properties": {"tourism": "caravan_site", "osm_id": 1132303759}}, {"type": "Feature", "geometry": {"type": "Point", "coordinates": [-85.5327621, 30.7309809]}, "properties": {"tourism": "caravan_site", "osm_id": 1132643151}}, {"type": "Feature", "geometry": {"type": "Point", "coordinates": [-85.5325887, 30.7305881]}, "properties": {"tourism": "caravan_site", "osm_id": 1132650957}}, {"type": "Feature", "geometry": {"type": "Point", "coordinates": [-85.8064604, 30.5725107]}, "properties": {"tourism": "caravan_site", "osm_id": 1132654809}}, {"type": "Feature", "geometry": {"type": "Point", "coordinates": [-85.4688282, 30.4524183]}, "properties": {"tourism": "caravan_site", "osm_id": 1136084289}}, {"type": "Feature", "geometry": {"type": "Point", "coordinates": [-85.6468196, 30.2755052]}, "properties": {"tourism": "caravan_site", "osm_id": 1136084298}}, {"type": "Feature", "geometry": {"type": "Point", "coordinates": [-85.5090184, 30.2518025]}, "properties": {"tourism": "caravan_site", "osm_id": 1136084305}}, {"type": "Feature", "geometry": {"type": "Point", "coordinates": [-86.1975737, 30.7890727]}, "properties": {"tourism": "caravan_site", "osm_id": 1138222616}}, {"type": "Feature", "geometry": {"type": "Point", "coordinates": [-86.1808409, 30.7775743]}, "properties": {"tourism": "caravan_site", "osm_id": 1138222618}}, {"type": "Feature", "geometry": {"type": "Point", "coordinates": [-86.1131965, 30.6414272]}, "properties": {"tourism": "caravan_site", "osm_id": 1138222619}}, {"type": "Feature", "geometry": {"type": "Point", "coordinates": [-86.1300197, 30.4564787]}, "properties": {"tourism": "caravan_site", "osm_id": 1138222620}}, {"type": "Feature", "geometry": {"type": "Point", "coordinates": [-86.0695289, 30.4521603]}, "properties": {"tourism": "caravan_site", "osm_id": 1138222621}}, {"type": "Feature", "geometry": {"type": "Point", "coordinates": [-86.1165294, 30.4305522]}, "properties": {"tourism": "caravan_site", "osm_id": 1138222622}}, {"type": "Feature", "geometry": {"type": "Point", "coordinates": [-86.6403274, 30.8956539]}, "properties": {"tourism": "caravan_site", "osm_id": 1140741032}}, {"type": "Feature", "geometry": {"type": "Point", "coordinates": [-86.5722904, 30.7196936]}, "properties": {"tourism": "caravan_site", "osm_id": 1140741033}}, {"type": "Feature", "geometry": {"type": "Point", "coordinates": [-86.7525639, 30.7058051]}, "properties": {"tourism": "caravan_site", "osm_id": 1140741034}}, {"type": "Feature", "geometry": {"type": "Point", "coordinates": [-86.7487971, 30.6749721]}, "properties": {"tourism": "caravan_site", "osm_id": 1140741035}}, {"type": "Feature", "geometry": {"type": "Point", "coordinates": [-86.5289619, 30.4607444]}, "properties": {"tourism": "caravan_site", "osm_id": 1140741036}}, {"type": "Feature", "geometry": {"type": "Point", "coordinates": [-86.5284681, 30.4598824]}, "properties": {"tourism": "caravan_site", "osm_id": 1140741037}}, {"type": "Feature", "geometry": {"type": "Point", "coordinates": [-86.5286223, 30.460146]}, "properties": {"tourism": "caravan_site", "osm_id": 1140741038}}, {"type": "Feature", "geometry": {"type": "Point", "coordinates": [-86.5287472, 30.4604712]}, "properties": {"tourism": "caravan_site", "osm_id": 1140741039}}, {"type": "Feature", "geometry": {"type": "Point", "coordinates": [-86.5285949, 30.4601452]}, "properties": {"tourism": "caravan_site", "osm_id": 1140741040}}, {"type": "Feature", "geometry": {"type": "Point", "coordinates": [-86.4177535, 30.4545034]}, "properties": {"tourism": "caravan_site", "osm_id": 1140741041}}, {"type": "Feature", "geometry": {"type": "Point", "coordinates": [-86.6433464, 30.4499681]}, "properties": {"tourism": "caravan_site", "osm_id": 1140741042}}, {"type": "Feature", "geometry": {"type": "Point", "coordinates": [-86.6638746, 30.4402729]}, "properties": {"name": "Hurlburt Field Fam Camp", "tourism": "caravan_site", "osm_id": 1140741043}}, {"type": "Feature", "geometry": {"type": "Point", "coordinates": [-86.4792681, 30.4809666]}, "properties": {"tourism": "caravan_site", "osm_id": 1140741052}}, {"type": "Feature", "geometry": {"type": "Point", "coordinates": [-86.4796798, 30.4811483]}, "properties": {"tourism": "caravan_site", "osm_id": 1140741053}}, {"type": "Feature", "geometry": {"type": "Point", "coordinates": [-86.4790691, 30.4809743]}, "properties": {"tourism": "caravan_site", "osm_id": 1140741054}}, {"type": "Feature", "geometry": {"type": "Point", "coordinates": [-86.497735, 30.4111313]}, "properties": {"tourism": "caravan_site", "osm_id": 1140748457}}, {"type": "Feature", "geometry": {"type": "Point", "coordinates": [-86.9780157, 30.4039993]}, "properties": {"addr:city": "Gulf Breeze", "addr:housenumber": "5862", "addr:postcode": "32563", "addr:state": "FL", "addr:street": "Gulf Breeze Parkway", "leaf_type": "needleleaved", "name": "Gulf Breeze Rv Park", "opening_hours": "sunrise-sunset", "operator": "Gulf Breeze Rv Park", "operator:type": "business", "tourism": "caravan_site", "osm_id": 1151300369}}, {"type": "Feature", "geometry": {"type": "Point", "coordinates": [-86.9822398, 30.8473204]}, "properties": {"tourism": "caravan_site", "osm_id": 1151306605}}, {"type": "Feature", "geometry": {"type": "Point", "coordinates": [-87.0635591, 30.8449802]}, "properties": {"tourism": "caravan_site", "osm_id": 1151306606}}, {"type": "Feature", "geometry": {"type": "Point", "coordinates": [-86.8797802, 30.8392328]}, "properties": {"tourism": "caravan_site", "osm_id": 1151306607}}, {"type": "Feature", "geometry": {"type": "Point", "coordinates": [-86.8022024, 30.7734122]}, "properties": {"tourism": "caravan_site", "osm_id": 1151306608}}, {"type": "Feature", "geometry": {"type": "Point", "coordinates": [-87.2048858, 30.7633788]}, "properties": {"tourism": "caravan_site", "osm_id": 1151306609}}, {"type": "Feature", "geometry": {"type": "Point", "coordinates": [-87.1277216, 30.8791119]}, "properties": {"tourism": "caravan_site", "osm_id": 1151306610}}, {"type": "Feature", "geometry": {"type": "Point", "coordinates": [-86.8520542, 30.8626894]}, "properties": {"tourism": "caravan_site", "osm_id": 1151306611}}, {"type": "Feature", "geometry": {"type": "Point", "coordinates": [-86.8342159, 30.8611175]}, "properties": {"tourism": "caravan_site", "osm_id": 1151306612}}, {"type": "Feature", "geometry": {"type": "Point", "coordinates": [-86.8336868, 30.8605764]}, "properties": {"tourism": "caravan_site", "osm_id": 1151306613}}, {"type": "Feature", "geometry": {"type": "Point", "coordinates": [-87.1748879, 30.6211958]}, "properties": {"tourism": "caravan_site", "osm_id": 1151306627}}, {"type": "Feature", "geometry": {"type": "Point", "coordinates": [-86.9584046, 30.6220461]}, "properties": {"tourism": "caravan_site", "osm_id": 1151306628}}, {"type": "Feature", "geometry": {"type": "Point", "coordinates": [-86.9740594, 30.5908821]}, "properties": {"tourism": "caravan_site", "osm_id": 1151306629}}, {"type": "Feature", "geometry": {"type": "Point", "coordinates": [-86.837779, 30.4063046]}, "properties": {"tourism": "caravan_site", "osm_id": 1151306642}}, {"type": "Feature", "geometry": {"type": "Point", "coordinates": [-86.8377869, 30.4068827]}, "properties": {"tourism": "caravan_site", "osm_id": 1151306643}}, {"type": "Feature", "geometry": {"type": "Point", "coordinates": [-86.8122819, 30.4086164]}, "properties": {"tourism": "caravan_site", "osm_id": 1151306644}}, {"type": "Feature", "geometry": {"type": "Point", "coordinates": [-86.8125285, 30.4086534]}, "properties": {"tourism": "caravan_site", "osm_id": 1151306645}}, {"type": "Feature", "geometry": {"type": "Point", "coordinates": [-86.8119743, 30.4085667]}, "properties": {"tourism": "caravan_site", "osm_id": 1151306646}}, {"type": "Feature", "geometry": {"type": "Point", "coordinates": [-87.0293297, 30.5699137]}, "properties": {"tourism": "caravan_site", "osm_id": 1151306653}}, {"type": "Feature", "geometry": {"type": "Point", "coordinates": [-87.0865199, 30.5263032]}, "properties": {"tourism": "caravan_site", "osm_id": 1151306654}}, {"type": "Feature", "geometry": {"type": "Point", "coordinates": [-87.0970861, 30.4982039]}, "properties": {"tourism": "caravan_site", "osm_id": 1151306655}}, {"type": "Feature", "geometry": {"type": "Point", "coordinates": [-86.8510516, 30.4037328]}, "properties": {"tourism": "caravan_site", "osm_id": 1151306656}}, {"type": "Feature", "geometry": {"type": "Point", "coordinates": [-86.8736969, 30.4008787]}, "properties": {"addr:city": "Navarre", "addr:country": "US", "addr:housenumber": "8315", "addr:postcode": "32566", "addr:state": "FL", "addr:street": "Navarre Parkway", "internet_access": "wlan", "internet_access:fee": "customers", "name": "Santa Rosa RV Resort", "power_supply": "yes", "sanitary_dump_station": "yes", "tourism": "caravan_site", "website": "https://santarosarvresort.com", "osm_id": 1151306657}}, {"type": "Feature", "geometry": {"type": "Point", "coordinates": [-86.211939, 30.6765626]}, "properties": {"backcountry": "yes", "capacity:tents": "12", "internet_access": "no", "name": "Alaqua Campsite", "picnic_table": "yes", "tourism": "camp_site", "wheelchair": "no", "osm_id": 1155135853}}, {"type": "Feature", "geometry": {"type": "Point", "coordinates": [-87.1360327, 30.3347529]}, "properties": {"tourism": "caravan_site", "osm_id": 1157309739}}, {"type": "Feature", "geometry": {"type": "Point", "coordinates": [-87.2777852, 30.9706914]}, "properties": {"tourism": "caravan_site", "osm_id": 1157325016}}, {"type": "Feature", "geometry": {"type": "Point", "coordinates": [-87.2938618, 30.9686086]}, "properties": {"tourism": "caravan_site", "osm_id": 1157325017}}, {"type": "Feature", "geometry": {"type": "Point", "coordinates": [-87.5413259, 30.8364694]}, "properties": {"tourism": "caravan_site", "osm_id": 1157325018}}, {"type": "Feature", "geometry": {"type": "Point", "coordinates": [-87.5738671, 30.8294869]}, "properties": {"tourism": "caravan_site", "osm_id": 1157325019}}, {"type": "Feature", "geometry": {"type": "Point", "coordinates": [-87.3278332, 30.7595287]}, "properties": {"tourism": "caravan_site", "osm_id": 1157325020}}, {"type": "Feature", "geometry": {"type": "Point", "coordinates": [-87.3446742, 30.9357726]}, "properties": {"tourism": "caravan_site", "osm_id": 1157325021}}, {"type": "Feature", "geometry": {"type": "Point", "coordinates": [-87.3134581, 30.852264]}, "properties": {"tourism": "caravan_site", "osm_id": 1157325024}}, {"type": "Feature", "geometry": {"type": "Point", "coordinates": [-87.2674467, 30.6113248]}, "properties": {"tourism": "caravan_site", "osm_id": 1157325029}}, {"type": "Feature", "geometry": {"type": "Point", "coordinates": [-87.3758887, 30.5343045]}, "properties": {"addr:city": "Pensacola", "addr:country": "US", "addr:housenumber": "5565", "addr:postcode": "32514", "addr:state": "FL", "addr:street": "West Nine Mile Road", "internet_access": "wlan", "internet_access:fee": "no", "name": "Leisure Lakes RV Park", "phone": "+1-850-861-1841", "power_supply": "yes", "tourism": "caravan_site", "website": "https://www.leisurelakesrvfl.com/", "osm_id": 1157325037}}, {"type": "Feature", "geometry": {"type": "Point", "coordinates": [-87.3152301, 30.5320101]}, "properties": {"tourism": "caravan_site", "osm_id": 1157325038}}, {"type": "Feature", "geometry": {"type": "Point", "coordinates": [-87.3163224, 30.5331471]}, "properties": {"tourism": "caravan_site", "osm_id": 1157325039}}, {"type": "Feature", "geometry": {"type": "Point", "coordinates": [-87.307746, 30.5327059]}, "properties": {"tourism": "caravan_site", "osm_id": 1157325040}}, {"type": "Feature", "geometry": {"type": "Point", "coordinates": [-87.2786453, 30.5301919]}, "properties": {"tourism": "caravan_site", "osm_id": 1157325041}}, {"type": "Feature", "geometry": {"type": "Point", "coordinates": [-87.3262289, 30.5168777]}, "properties": {"tourism": "caravan_site", "osm_id": 1157325042}}, {"type": "Feature", "geometry": {"type": "Point", "coordinates": [-87.4145542, 30.3140484]}, "properties": {"tourism": "caravan_site", "osm_id": 1157336877}}, {"type": "Feature", "geometry": {"type": "Point", "coordinates": [-87.4278342, 30.3117242]}, "properties": {"tourism": "caravan_site", "osm_id": 1157336878}}, {"type": "Feature", "geometry": {"type": "Point", "coordinates": [-87.5092955, 30.2844946]}, "properties": {"tourism": "caravan_site", "osm_id": 1157336879}}, {"type": "Feature", "geometry": {"type": "Point", "coordinates": [-87.5131792, 30.2834928]}, "properties": {"tourism": "caravan_site", "osm_id": 1157336880}}, {"type": "Feature", "geometry": {"type": "Point", "coordinates": [-85.2136531, 34.9790645]}, "properties": {"name": "Holiday Travel Park of Chattanooga", "tourism": "caravan_site", "osm_id": 1162673315}}, {"type": "Feature", "geometry": {"type": "Point", "coordinates": [-84.9450212, 30.5718285]}, "properties": {"group_only": "yes", "tourism": "camp_site", "osm_id": 1173757497}}, {"type": "Feature", "geometry": {"type": "Point", "coordinates": [-84.9503447, 30.5691919]}, "properties": {"tourism": "camp_site", "osm_id": 1173757504}}, {"type": "Feature", "geometry": {"type": "Point", "coordinates": [-85.7622991, 33.6185702]}, "properties": {"name": "Country Court Motel & RV Park", "tourism": "caravan_site", "osm_id": 1176112474}}, {"type": "Feature", "geometry": {"type": "Point", "coordinates": [-85.7697974, 33.6133461]}, "properties": {"tourism": "camp_site", "osm_id": 1176112615}}, {"type": "Feature", "geometry": {"type": "Point", "coordinates": [-86.0961178, 34.9837911]}, "properties": {"backcountry": "yes", "tourism": "camp_site", "osm_id": 1179635173}}, {"type": "Feature", "geometry": {"type": "Point", "coordinates": [-86.0018585, 33.9898996]}, "properties": {"caravans": "yes", "fee": "yes", "name": "River Rocks Landing", "tourism": "camp_site", "website": "https://riverrockslanding.com/", "osm_id": 1184568744}}, {"type": "Feature", "geometry": {"type": "Point", "coordinates": [-88.41701, 30.8611186]}, "properties": {"tourism": "caravan_site", "osm_id": 1191281297}}, {"type": "Feature", "geometry": {"type": "Point", "coordinates": [-87.9152694, 31.5167347]}, "properties": {"tourism": "caravan_site", "osm_id": 1197056931}}, {"type": "Feature", "geometry": {"type": "Point", "coordinates": [-85.1939177, 33.7018992]}, "properties": {"brand": "Yogi Bear's Jellystone Park", "brand:wikidata": "Q8054389", "name": "Yogi Bear's Jellystone Park", "official_name": "Yogi Bear's Jellystone Park Camp-Resorts", "tourism": "caravan_site", "osm_id": 1202111186}}, {"type": "Feature", "geometry": {"type": "Point", "coordinates": [-87.3136637, 30.3419727]}, "properties": {"name": "Oak Grove Park", "tourism": "caravan_site", "website": "https://get.dodlodging.net/propertys/Oak-Grove-Park-Pensacola", "osm_id": 1218587029}}, {"type": "Feature", "geometry": {"type": "Point", "coordinates": [-87.2934149, 30.3525849]}, "properties": {"name": "Scout Camp Area", "tourism": "camp_site", "osm_id": 1222325196}}, {"type": "Feature", "geometry": {"type": "Point", "coordinates": [-87.2947525, 30.3534527]}, "properties": {"tourism": "caravan_site", "osm_id": 1222349752}}, {"type": "Feature", "geometry": {"type": "Point", "coordinates": [-87.6367928, 33.0025092]}, "properties": {"addr:city": "Moundville", "addr:state": "AL", "capacity": "34", "caravans": "yes", "charge": "20 USD", "dog": "leashed", "drinking_water": "yes", "fee": "yes", "name": "Moundville Archaeological Park Campground", "phone": "+1 205-371-2234", "power_supply": "yes", "reservation": "no", "shower": "yes", "tourism": "camp_site", "website": "https://moundville.museums.ua.edu/about/campground/", "osm_id": 1233921068}}, {"type": "Feature", "geometry": {"type": "Point", "coordinates": [-86.4282458, 30.4989053]}, "properties": {"name": "Fred Gannon Rocky Bayou State Park", "tourism": "camp_site", "osm_id": 1241835376}}, {"type": "Feature", "geometry": {"type": "Point", "coordinates": [-86.2007009, 32.5531164]}, "properties": {"tourism": "caravan_site", "osm_id": 1257661264}}, {"type": "Feature", "geometry": {"type": "Point", "coordinates": [-88.0129596, 31.1545159]}, "properties": {"tourism": "caravan_site", "osm_id": 1266564817}}, {"type": "Feature", "geometry": {"type": "Point", "coordinates": [-86.0776485, 33.849067]}, "properties": {"internet_access": "wlan", "name": "Greensport RV Park", "tourism": "caravan_site", "website": "https://greensportrvpark.com/", "osm_id": 1274544707}}, {"type": "Feature", "geometry": {"type": "Point", "coordinates": [-85.2342904, 34.3308396]}, "properties": {"name": "WinShape Cabins", "tourism": "camp_site", "osm_id": 1284782054}}, {"type": "Feature", "geometry": {"type": "Point", "coordinates": [-86.4983313, 33.8169037]}, "properties": {"capacity:caravans": "5", "fee": "yes", "power_supply": "yes", "reservation": "required", "tourism": "caravan_site", "website": "https://www.ridgeriding.com/hotel-closed/rv-camping", "osm_id": 1288824748}}, {"type": "Feature", "geometry": {"type": "Point", "coordinates": [-88.130731, 30.710895]}, "properties": {"tourism": "caravan_site", "osm_id": 1290053285}}, {"type": "Feature", "geometry": {"type": "Point", "coordinates": [-88.1065813, 30.6529872]}, "properties": {"tourism": "caravan_site", "osm_id": 1291163963}}, {"type": "Feature", "geometry": {"type": "Point", "coordinates": [-87.8705846, 30.9587947]}, "properties": {"tourism": "caravan_site", "osm_id": 1291333007}}, {"type": "Feature", "geometry": {"type": "Point", "coordinates": [-87.6312724, 30.5186029]}, "properties": {"name": "Emmaus RV Park", "tourism": "caravan_site", "osm_id": 1291374222}}, {"type": "Feature", "geometry": {"type": "Point", "coordinates": [-87.6670701, 30.5027559]}, "properties": {"name": "Graystone RV Park", "tourism": "caravan_site", "osm_id": 1291375052}}, {"type": "Feature", "geometry": {"type": "Point", "coordinates": [-88.1556755, 30.6167621]}, "properties": {"tourism": "caravan_site", "osm_id": 1291892851}}, {"type": "Feature", "geometry": {"type": "Point", "coordinates": [-88.1583202, 30.6081656]}, "properties": {"tourism": "caravan_site", "osm_id": 1291892859}}, {"type": "Feature", "geometry": {"type": "Point", "coordinates": [-88.1805907, 30.5785503]}, "properties": {"tourism": "caravan_site", "osm_id": 1292153987}}, {"type": "Feature", "geometry": {"type": "Point", "coordinates": [-88.1984435, 30.5722465]}, "properties": {"tourism": "caravan_site", "osm_id": 1292179883}}, {"type": "Feature", "geometry": {"type": "Point", "coordinates": [-88.2035061, 30.5707273]}, "properties": {"tourism": "caravan_site", "osm_id": 1292179884}}, {"type": "Feature", "geometry": {"type": "Point", "coordinates": [-88.2186696, 30.5762693]}, "properties": {"tourism": "caravan_site", "osm_id": 1292188394}}, {"type": "Feature", "geometry": {"type": "Point", "coordinates": [-88.1798505, 30.5608088]}, "properties": {"tourism": "caravan_site", "osm_id": 1292846521}}, {"type": "Feature", "geometry": {"type": "Point", "coordinates": [-88.1924651, 30.5592167]}, "properties": {"tourism": "caravan_site", "osm_id": 1292846526}}, {"type": "Feature", "geometry": {"type": "Point", "coordinates": [-88.0898349, 30.5577828]}, "properties": {"name": "Southwood RV Park", "tourism": "caravan_site", "osm_id": 1293508990}}, {"type": "Feature", "geometry": {"type": "Point", "coordinates": [-88.1001292, 30.5482852]}, "properties": {"name": "Riverchase Mobile Home Park", "tourism": "caravan_site", "osm_id": 1293508996}}, {"type": "Feature", "geometry": {"type": "Point", "coordinates": [-85.0985927, 33.3174363]}, "properties": {"name": "Chattahoochee RV Park", "tourism": "caravan_site", "osm_id": 1293725931}}, {"type": "Feature", "geometry": {"type": "Point", "coordinates": [-85.1196147, 33.4109816]}, "properties": {"tourism": "caravan_site", "osm_id": 1293727491}}, {"type": "Feature", "geometry": {"type": "Point", "coordinates": [-88.3946506, 30.6165044]}, "properties": {"name": "Camp Huck-a-Berry", "tourism": "camp_site", "osm_id": 1303935524}}, {"type": "Feature", "geometry": {"type": "Point", "coordinates": [-87.9070828, 30.7350454]}, "properties": {"caravans": "no", "name": "Bartram - Improved Tent Camping", "static_caravans": "no", "tents": "yes", "tourism": "camp_site", "website": "https://www.blakeleypark.com/Camping-Cabins/-Bartram-Improved-Tent-Camping", "osm_id": 1313110671}}, {"type": "Feature", "geometry": {"type": "Point", "coordinates": [-87.9060199, 30.7334136]}, "properties": {"caravans": "yes", "name": "Apalachee - RV Camping", "static_caravans": "no", "tourism": "camp_site", "website": "https://www.blakeleypark.com/Camping-Cabins/RV-Camping-Up-to-40-ft", "osm_id": 1313110672}}, {"type": "Feature", "geometry": {"type": "Point", "coordinates": [-87.9189298, 30.7407465]}, "properties": {"caravans": "no", "name": "Tensaw - Group Camping", "static_caravans": "no", "tents": "yes", "tourism": "camp_site", "website": "https://www.blakeleypark.com/Camping-Cabins/Tensaw-Group-Camping", "osm_id": 1313110673}}, {"type": "Feature", "geometry": {"type": "Point", "coordinates": [-87.914484, 30.7409105]}, "properties": {"caravans": "no", "name": "Harper - Tent Camping", "static_caravans": "no", "tents": "yes", "tourism": "camp_site", "website": "https://www.blakeleypark.com/Camping-Cabins/Harper-Tent-Camping", "osm_id": 1313110674}}, {"type": "Feature", "geometry": {"type": "Point", "coordinates": [-87.9150622, 30.7418533]}, "properties": {"caravans": "no", "name": "Delta - Improved Tent Camping", "static_caravans": "no", "tents": "yes", "tourism": "camp_site", "website": "https://www.blakeleypark.com/Camping-Cabins/Delta-Improved-Tent-Camping", "osm_id": 1313110675}}, {"type": "Feature", "geometry": {"type": "Point", "coordinates": [-87.9107298, 30.7327519]}, "properties": {"caravans": "yes", "name": "Carson - Horse Trailer Camping", "static_caravans": "no", "tourism": "camp_site", "website": "https://www.blakeleypark.com/Camping-Cabins/Carson-Horse-Trailer-Camping", "osm_id": 1313110680}}, {"type": "Feature", "geometry": {"type": "Point", "coordinates": [-87.9094285, 30.7342041]}, "properties": {"name": "Austin - RV Camping", "tourism": "camp_site", "osm_id": 1313110681}}, {"type": "Feature", "geometry": {"type": "Point", "coordinates": [-87.6421637, 30.3020006]}, "properties": {"name": "Sugar Sands RV Resort", "tourism": "caravan_site", "osm_id": 1317027564}}, {"type": "Feature", "geometry": {"type": "Point", "coordinates": [-87.6431498, 30.3990751]}, "properties": {"tourism": "caravan_site", "osm_id": 1317027580}}, {"type": "Feature", "geometry": {"type": "Point", "coordinates": [-87.6506188, 30.4156636]}, "properties": {"addr:city": "Foley", "addr:housenumber": "1;13000", "addr:postcode": "36535", "addr:state": "AL", "addr:street": "Springsteen Lane", "description": "RV Resort", "email": "welcome@ahoyrvresort.com", "name": "Ahoy RV Resort", "tourism": "caravan_site", "osm_id": 1317027581}}, {"type": "Feature", "geometry": {"type": "Point", "coordinates": [-87.7695822, 30.4244979]}, "properties": {"tourism": "caravan_site", "osm_id": 1317027592}}, {"type": "Feature", "geometry": {"type": "Point", "coordinates": [-88.099374, 30.7774287]}, "properties": {"name": "RV Camping", "tourism": "caravan_site", "osm_id": 1363866556}}, {"type": "Feature", "geometry": {"type": "Point", "coordinates": [-88.1010227, 30.7799411]}, "properties": {"name": "Tent Camping", "tourism": "camp_site", "osm_id": 1363866557}}, {"type": "Feature", "geometry": {"type": "Point", "coordinates": [-87.4864012, 31.1012544]}, "properties": {"addr:city": "Atmore", "addr:housenumber": "303", "addr:postcode": "36502", "addr:state": "AL", "addr:street": "Poarch Road", "name": "Wind Creek Atmore RV Park", "tourism": "caravan_site", "osm_id": 1366095848}}, {"type": "Feature", "geometry": {"type": "Point", "coordinates": [-87.6644092, 30.3832376]}, "properties": {"addr:city": "Foley", "addr:housenumber": "2252", "addr:postcode": "36535", "addr:state": "AL", "addr:street": "Wind Creeks Rd", "name": "Tropic Hideaway RV Resort", "tourism": "caravan_site", "osm_id": 1381824477}}, {"type": "Feature", "geometry": {"type": "Point", "coordinates": [-86.1992532, 33.5989066]}, "properties": {"tourism": "camp_site", "osm_id": 1388845258}}, {"type": "Feature", "geometry": {"type": "Point", "coordinates": [-85.5995149, 34.1452733]}, "properties": {"tourism": "caravan_site", "osm_id": 1389000962}}, {"type": "Feature", "geometry": {"type": "Point", "coordinates": [-85.6042099, 34.1554706]}, "properties": {"tourism": "caravan_site", "osm_id": 1389002402}}, {"type": "Feature", "geometry": {"type": "Point", "coordinates": [-85.5707921, 34.13535]}, "properties": {"tourism": "caravan_site", "osm_id": 1389002686}}, {"type": "Feature", "geometry": {"type": "Point", "coordinates": [-85.6152763, 34.5251483]}, "properties": {"access": "customers", "addr:city": "Mentone", "addr:housenumber": "16490", "addr:postcode": "35984", "addr:state": "AL", "addr:street": "County Road 89", "backcountry": "no", "camp_site": "serviced", "caravans": "no", "club": "scout", "dog": "no", "drinking_water": "yes", "fee": "yes", "group_only": "yes", "internet_access": "wlan", "name": "Camp Comer Scout Reservation", "nudism": "no", "operator": "Scouting America Greater Alabama Council", "reservation": "required", "shower": "yes", "static_caravans": "no", "tents": "yes", "toilets": "yes", "tourism": "camp_site", "website": "https://1bsa.org/camp-comer/", "wheelchair": "limited", "osm_id": 1391858347}}, {"type": "Feature", "geometry": {"type": "Point", "coordinates": [-86.5972402, 33.3664087]}, "properties": {"addr:housenumber": "928", "addr:street": "Hargis Drive", "caravans": "no", "contact:facebook": "https://www.facebook.com/Hargis-Christian-Camp-100312139163533", "email": "info@hargischristiancamp.org", "name": "Hargis Christian Camp", "static_caravans": "no", "tourism": "camp_site", "website": "https://www.hargischristiancamp.org/", "osm_id": 1409313888}}, {"type": "Feature", "geometry": {"type": "Point", "coordinates": [-86.34253, 33.7934274]}, "properties": {"tourism": "camp_site", "osm_id": 1414699559}}, {"type": "Feature", "geometry": {"type": "Point", "coordinates": [-86.635226, 34.3270803]}, "properties": {"access": "private", "addr:city": "Baileyton", "addr:housenumber": "555", "addr:postcode": "35019", "addr:state": "AL", "addr:street": "Mardis Point Road", "camp_site": "serviced", "caravans": "no", "name": "Hulaco Youth and Family Camp", "static_caravans": "no", "tourism": "camp_site", "osm_id": 1415663325}}, {"type": "Feature", "geometry": {"type": "Point", "coordinates": [-86.8015856, 30.7159644]}, "properties": {"addr:city": "Holt", "addr:country": "US", "addr:housenumber": "12375", "addr:postcode": "32564", "addr:state": "FL", "addr:street": "Shammah Road", "caravans": "yes", "fee": "yes", "name": "Blackwater Joe's Canoe Rental, Cabins and Camping", "phone": "+1-850-803-2267", "tents": "yes", "tourism": "camp_site", "website": "https://www.blackwaterjoescanoes.com/", "osm_id": 1416985915}}, {"type": "Feature", "geometry": {"type": "Point", "coordinates": [-88.1937213, 32.6218766]}, "properties": {"tourism": "caravan_site", "osm_id": 1424496572}}, {"type": "Feature", "geometry": {"type": "Point", "coordinates": [-87.7174726, 30.365117]}, "properties": {"addr:city": "Foley", "addr:housenumber": "9619", "addr:postcode": "36535", "addr:state": "AL", "addr:street": "County Road 65", "name": "Foley Oaks RV Resort", "tourism": "caravan_site", "osm_id": 1426269986}}, {"type": "Feature", "geometry": {"type": "Point", "coordinates": [-87.7192961, 30.3742698]}, "properties": {"addr:city": "Foley", "addr:housenumber": "17897", "addr:postcode": "36535", "addr:state": "AL", "addr:street": "Coastal Paradise Cir", "name": "Coastal Paradise RV Resort", "power_supply": "yes", "sanitary_dump_station": "yes", "tourism": "caravan_site", "osm_id": 1427357574}}, {"type": "Feature", "geometry": {"type": "Point", "coordinates": [-87.7177995, 30.3399481]}, "properties": {"addr:city": "Foley", "addr:housenumber": "7935", "addr:postcode": "36535", "addr:state": "AL", "addr:street": "County Road 65", "name": "A&R RV Park", "tourism": "caravan_site", "osm_id": 1427712478}}, {"type": "Feature", "geometry": {"type": "Point", "coordinates": [-87.663683, 30.3682348]}, "properties": {"addr:city": "Foley", "addr:housenumber": "21240", "addr:postcode": "36535", "addr:state": "AL", "addr:street": "Miflin Road", "name": "Creekside Rv Resort", "phone": "+1 251-978-2328", "tourism": "caravan_site", "osm_id": 1430578532}}, {"type": "Feature", "geometry": {"type": "Point", "coordinates": [-87.5414351, 30.4125994]}, "properties": {"addr:city": "Elberta", "addr:housenumber": "12958", "addr:postcode": "36530", "addr:state": "AL", "addr:street": "Easy Like That Cir", "name": "Sun City RV Park", "tourism": "caravan_site", "osm_id": 1431845068}}, {"type": "Feature", "geometry": {"type": "Point", "coordinates": [-87.4815622, 30.4168775]}, "properties": {"addr:city": "Elberta", "addr:housenumber": "13155", "addr:postcode": "36530", "addr:state": "AL", "addr:street": "County Road 91", "name": "HWY 98 RV Park", "tourism": "caravan_site", "osm_id": 1433124653}}, {"type": "Feature", "geometry": {"type": "Point", "coordinates": [-85.4244482, 34.8762909]}, "properties": {"access": "permit", "camp_site": "basic", "capacity:tents": "3-5", "fee": "yes", "name": "Durham Backcountry Campsite", "operator": "Lula Lake Land Trust", "tourism": "camp_site", "website": "https://www.signupgenius.com/go/10C084CA9A82AA7F4C07-durham#/", "osm_id": 1433402970}}, {"type": "Feature", "geometry": {"type": "Point", "coordinates": [-85.397705, 34.873116]}, "properties": {"access": "permit", "camp_site": "basic", "capacity:tents": "3-5", "fee": "yes", "name": "Nickajack Campsite", "operator": "Lula Lake Land Trust", "tents": "yes", "tourism": "camp_site", "website": "https://www.signupgenius.com/go/10C084CA9A82AA7F4C07-50084158-nickajack", "osm_id": 1433402972}}, {"type": "Feature", "geometry": {"type": "Point", "coordinates": [-85.3837597, 34.9250909]}, "properties": {"access": "permit", "camp_site": "basic", "capacity:tents": "3-5", "fee": "yes", "name": "Moonshine Campsite", "operator": "Lula Lake Land Trust", "tents": "yes", "tourism": "camp_site", "website": "https://www.signupgenius.com/go/10C084CA9A82AA7F4C07-50084149-moonshine#/", "osm_id": 1433402973}}, {"type": "Feature", "geometry": {"type": "Point", "coordinates": [-85.1081818, 34.5262771]}, "properties": {"access": "private", "addr:city": "Amuchee", "addr:housenumber": "3624", "addr:postcode": "30105", "addr:state": "GA", "addr:street": "Everett Springs Road", "camp_site": "standard", "fixme": "Area of camp is approximate.  Northwest Georgia Council owns lots L04 008, L03 008, L04 008 according to Floyd County Property website.  I expanded the area to encompass these 3 plots, but not sure if that is the official extent of the camp", "name": "Camp Sidney Dew", "operator": "Scouting America Northwest Georgia Council", "tourism": "camp_site", "website": "https://www.nwgascouting.org/sidneydew", "osm_id": 1442699232}}, {"type": "Feature", "geometry": {"type": "Point", "coordinates": [-87.9811548, 34.926139]}, "properties": {"tourism": "camp_site", "osm_id": 1453985020}}, {"type": "Feature", "geometry": {"type": "Point", "coordinates": [-87.6705004, 30.3681717]}, "properties": {"tourism": "caravan_site", "osm_id": 1465448192}}, {"type": "Feature", "geometry": {"type": "Point", "coordinates": [-87.1570348, 34.697472]}, "properties": {"addr:city": "Hillsboro", "addr:housenumber": "44", "addr:state": "AL", "addr:street": "County Road 443", "caravans": "yes", "fee": "yes", "name": "Wheeler Lake Campground at Mallard Creek KOA", "old_name": "Mallard Creek Campground", "opening_hours": "Mar-Nov unknown; Dec-Feb closed", "phone": "+1-256-280-4390", "tents": "yes", "tourism": "camp_site", "type": "multipolygon", "website": "https://www.wheelerlakecampground.com/", "osm_id": 7656986}}, {"type": "Feature", "geometry": {"type": "Point", "coordinates": [-87.2678524, 34.0202444]}, "properties": {"bbq": "yes", "boundary": "camp_site", "capacity": "102", "drinking_water": "yes", "fee": "yes", "name": "Clear Creek Campground", "power_supply": "yes", "tents": "yes", "tourism": "camp_site", "type": "multipolygon", "website": "https://www.fs.usda.gov/recarea/alabama/recarea/?recid=30085", "osm_id": 7674251}}, {"type": "Feature", "geometry": {"type": "Point", "coordinates": [-85.9281163, 32.8543329]}, "properties": {"boundary": "camp_site", "capacity": "586", "caravans": "yes", "dog": "leashed", "fee": "yes", "name": "Wind Creek State Park Campground", "power_supply": "yes", "tourism": "camp_site", "type": "multipolygon", "website": "https://www.alapark.com/wind-creek-state-park-campground", "osm_id": 7674282}}, {"type": "Feature", "geometry": {"type": "Point", "coordinates": [-87.6394169, 30.2641791]}, "properties": {"boundary": "camp_site", "capacity": "507", "caravans": "yes", "contact:email": "gulfstatepark@dcnr.alabama.gov", "contact:phone": "+1-251-948-7275", "dog": "leashed", "drinking_water": "yes", "fee": "yes", "internet_access": "wlan", "name": "Gulf State Park Campground", "power_supply": "yes", "tents": "yes", "tourism": "camp_site", "type": "multipolygon", "website": "https://www.alapark.com/parks/gulf-state-park/rv-and-primitive-campground", "osm_id": 7674299}}, {"type": "Feature", "geometry": {"type": "Point", "coordinates": [-87.239624, 34.7765018]}, "properties": {"capacity": "48", "name": "Riverview RV Park", "phone": "+1-256-729-6329", "power_supply": "yes", "tourism": "caravan_site", "type": "multipolygon", "osm_id": 7675156}}, {"type": "Feature", "geometry": {"type": "Point", "coordinates": [-86.2769905, 31.2985182]}, "properties": {"boundary": "camp_site", "capacity": "40", "caravans": "yes", "disabled": "yes", "fee": "yes", "internet_access": "wlan", "name": "Frank Jackson State Park Campground", "operator": "Alabama State Park", "power_supply": "yes", "tents": "yes", "tourism": "camp_site", "type": "multipolygon", "website": "https://www.alapark.com/frank-jackson-state-park", "osm_id": 7687149}}, {"type": "Feature", "geometry": {"type": "Point", "coordinates": [-88.1962506, 34.6183274]}, "properties": {"capacity:caravans": "62", "caravans": "yes", "charge": "22 USD", "drinking_water": "yes", "fee": "yes", "name": "Tishamingo State Park Campground", "power_supply": "yes", "shower": "yes", "tents": "yes", "tourism": "camp_site", "type": "multipolygon", "website": "https://www.mdwfp.com/parks-destinations/state-parks/tishomingo/camping/", "osm_id": 9485657}}, {"type": "Feature", "geometry": {"type": "Point", "coordinates": [-87.979036, 30.906187]}, "properties": {"addr:city": "Creola", "addr:housenumber": "2350", "addr:postcode": "36525", "addr:state": "AL", "addr:street": "Dead Lake Marina Road", "capacity": "60", "fee": "yes", "leisure": "park", "name": "River Delta Marina and Campground", "operator": "Mobile County", "tourism": "caravan_site", "type": "multipolygon", "website": "https://www.mobilecountyal.gov/living/parks_river_delta.html", "osm_id": 9685116}}, {"type": "Feature", "geometry": {"type": "Point", "coordinates": [-86.4988979, 30.4111653]}, "properties": {"cabins": "yes", "leisure": "beach_resort", "name": "Destin Army Recreation Area", "tourism": "camp_site", "type": "multipolygon", "osm_id": 9963414}}, {"type": "Feature", "geometry": {"type": "Point", "coordinates": [-87.0086128, 34.6241825]}, "properties": {"addr:city": "Decatur", "addr:housenumber": "1600", "addr:postcode": "35601", "addr:state": "AL", "addr:street": "AL Highway 20", "capacity": "33", "contact:email": "jlmarina@aol.com", "contact:phone": "+1-256-350-4722", "fee": "yes", "internet_access": "wlan", "internet_access:fee": "no", "name": "Jay Landings RV Park", "power_supply": "yes", "tourism": "caravan_site", "type": "multipolygon", "website": "https://www.jaylandingsrvpark.com/", "osm_id": 11646639}}, {"type": "Feature", "geometry": {"type": "Point", "coordinates": [-87.4367776, 33.2573114]}, "properties": {"addr:city": "Tuscaloosa", "addr:state": "AL", "capacity": "46", "capacity:caravans": "40", "capacity:tents": "46", "caravans": "yes", "charge": "30 USD", "fee": "yes", "name": "Deerlick Creek Campground", "opening_hours": "Mar-Nov", "operator": "Corp of Engineers", "phone": "+1-205-759-1591", "power_supply": "yes", "reservation": "yes", "tents": "yes", "toilets": "flush", "tourism": "camp_site", "type": "multipolygon", "website": "https://www.recreation.gov/camping/campgrounds/232571", "osm_id": 12491123}}, {"type": "Feature", "geometry": {"type": "Point", "coordinates": [-86.3377056, 34.4465528]}, "properties": {"tourism": "camp_site", "type": "multipolygon", "osm_id": 14375232}}, {"type": "Feature", "geometry": {"type": "Point", "coordinates": [-86.1092532, 34.5155656]}, "properties": {"name": "South Sauty Creek Resort", "tourism": "camp_site", "type": "multipolygon", "osm_id": 14523252}}, {"type": "Feature", "geometry": {"type": "Point", "coordinates": [-86.0960304, 34.5235795]}, "properties": {"name": "Northshore Campground", "tourism": "camp_site", "type": "multipolygon", "osm_id": 14523256}}, {"type": "Feature", "geometry": {"type": "Point", "coordinates": [-85.6816315, 30.7672224]}, "properties": {"tourism": "caravan_site", "type": "multipolygon", "osm_id": 15319745}}, {"type": "Feature", "geometry": {"type": "Point", "coordinates": [-85.8235665, 30.2048341]}, "properties": {"tourism": "caravan_site", "type": "multipolygon", "osm_id": 15404972}}, {"type": "Feature", "geometry": {"type": "Point", "coordinates": [-86.979538, 30.7009755]}, "properties": {"tourism": "caravan_site", "type": "multipolygon", "osm_id": 15559185}}, {"type": "Feature", "geometry": {"type": "Point", "coordinates": [-86.9515445, 30.6525164]}, "properties": {"tourism": "caravan_site", "type": "multipolygon", "osm_id": 15559186}}, {"type": "Feature", "geometry": {"type": "Point", "coordinates": [-87.3459271, 30.9342859]}, "properties": {"tourism": "caravan_site", "type": "multipolygon", "osm_id": 15645969}}, {"type": "Feature", "geometry": {"type": "Point", "coordinates": [-85.1821468, 33.0199547]}, "properties": {"name": "Whitetail Ridge Campground", "tourism": "camp_site", "type": "multipolygon", "osm_id": 17737648}}, {"type": "Feature", "geometry": {"type": "Point", "coordinates": [-88.1378746, 30.7720463]}, "properties": {"tourism": "caravan_site", "type": "multipolygon", "osm_id": 17748320}}, {"type": "Feature", "geometry": {"type": "Point", "coordinates": [-88.0732855, 30.80987]}, "properties": {"tourism": "caravan_site", "type": "multipolygon", "osm_id": 17748708}}, {"type": "Feature", "geometry": {"type": "Point", "coordinates": [-88.0575384, 30.8542436]}, "properties": {"tourism": "caravan_site", "type": "multipolygon", "osm_id": 17761521}}, {"type": "Feature", "geometry": {"type": "Point", "coordinates": [-88.0717568, 30.8279586]}, "properties": {"tourism": "caravan_site", "type": "multipolygon", "osm_id": 17761744}}, {"type": "Feature", "geometry": {"type": "Point", "coordinates": [-88.1590537, 30.8125951]}, "properties": {"tourism": "caravan_site", "type": "multipolygon", "osm_id": 17766425}}, {"type": "Feature", "geometry": {"type": "Point", "coordinates": [-88.0397442, 30.8872259]}, "properties": {"tourism": "caravan_site", "type": "multipolygon", "osm_id": 17771127}}, {"type": "Feature", "geometry": {"type": "Point", "coordinates": [-88.0407194, 30.8976404]}, "properties": {"tourism": "caravan_site", "type": "multipolygon", "osm_id": 17777499}}, {"type": "Feature", "geometry": {"type": "Point", "coordinates": [-88.0546147, 30.8721655]}, "properties": {"name": "I-65 RV Campground", "tourism": "caravan_site", "type": "multipolygon", "osm_id": 17777757}}, {"type": "Feature", "geometry": {"type": "Point", "coordinates": [-88.2318408, 30.6982128]}, "properties": {"tourism": "caravan_site", "type": "multipolygon", "osm_id": 17796922}}, {"type": "Feature", "geometry": {"type": "Point", "coordinates": [-88.2037115, 30.7520097]}, "properties": {"tourism": "caravan_site", "type": "multipolygon", "osm_id": 17807967}}, {"type": "Feature", "geometry": {"type": "Point", "coordinates": [-88.2548206, 30.7806002]}, "properties": {"tourism": "caravan_site", "type": "multipolygon", "osm_id": 17808112}}, {"type": "Feature", "geometry": {"type": "Point", "coordinates": [-88.2229828, 30.768901]}, "properties": {"tourism": "caravan_site", "type": "multipolygon", "osm_id": 17810774}}, {"type": "Feature", "geometry": {"type": "Point", "coordinates": [-88.2219928, 30.7611938]}, "properties": {"tourism": "caravan_site", "type": "multipolygon", "osm_id": 17810778}}, {"type": "Feature", "geometry": {"type": "Point", "coordinates": [-88.2362519, 30.6706872]}, "properties": {"tourism": "caravan_site", "type": "multipolygon", "osm_id": 17871400}}, {"type": "Feature", "geometry": {"type": "Point", "coordinates": [-88.2275471, 30.6631047]}, "properties": {"tourism": "caravan_site", "type": "multipolygon", "osm_id": 17871404}}, {"type": "Feature", "geometry": {"type": "Point", "coordinates": [-88.2583377, 30.3828773]}, "properties": {"alt_name": "Dockside RV Resort & Alabama Gulf Coast Campground", "name": "Dockside RV Resort", "tourism": "camp_site", "type": "multipolygon", "osm_id": 17874039}}, {"type": "Feature", "geometry": {"type": "Point", "coordinates": [-88.1141727, 30.3679462]}, "properties": {"tourism": "caravan_site", "type": "multipolygon", "osm_id": 17874859}}, {"type": "Feature", "geometry": {"type": "Point", "coordinates": [-88.2285672, 30.7171519]}, "properties": {"tourism": "caravan_site", "type": "multipolygon", "osm_id": 17889661}}, {"type": "Feature", "geometry": {"type": "Point", "coordinates": [-88.0807219, 30.2498672]}, "properties": {"addr:city": "Dauphin Island", "addr:housenumber": "109", "addr:postcode": "36528", "addr:state": "AL", "addr:street": "Bienville Boulevard", "capacity": "151", "caravans": "yes", "fee": "yes", "internet_access": "wlan", "internet_access:fee": "no", "name": "Dauphin Island Campground", "sanitary_dump_station": "yes", "tents": "yes", "tourism": "camp_site", "type": "multipolygon", "website": "https://dauphinisland.org/", "osm_id": 17920102}}, {"type": "Feature", "geometry": {"type": "Point", "coordinates": [-87.637096, 30.2826736]}, "properties": {"name": "Pandion Ridge", "tourism": "caravan_site", "type": "multipolygon", "osm_id": 18418861}}, {"type": "Feature", "geometry": {"type": "Point", "coordinates": [-88.339695, 30.4909135]}, "properties": {"tourism": "caravan_site", "type": "multipolygon", "osm_id": 18728263}}, {"type": "Feature", "geometry": {"type": "Point", "coordinates": [-86.2093776, 33.6842838]}, "properties": {"tourism": "camp_site", "type": "multipolygon", "osm_id": 19162722}}, {"type": "Feature", "geometry": {"type": "Point", "coordinates": [-85.3170935, 34.360281]}, "properties": {"tourism": "camp_site", "type": "multipolygon", "osm_id": 19165908}}, {"type": "Feature", "geometry": {"type": "Point", "coordinates": [-86.18961, 34.4574196]}, "properties": {"addr:city": "Langston", "addr:housenumber": "1001", "addr:postcode": "35755", "addr:state": "AL", "addr:street": "Murphy Hill Road", "name": "Little Mountain Marina Resort", "tourism": "caravan_site", "type": "multipolygon", "osm_id": 19235718}}, {"type": "Feature", "geometry": {"type": "Point", "coordinates": [-86.1845553, 34.465275]}, "properties": {"addr:city": "Langston", "addr:housenumber": "1345", "addr:postcode": "35755", "addr:state": "AL", "addr:street": "Murphy Hill Road", "internet_access": "wlan", "name": "Mountain Lake Resort", "power_supply": "yes", "tourism": "caravan_site", "type": "multipolygon", "website": "https://www.mountainlakesrvpark.com/", "osm_id": 19235719}}, {"type": "Feature", "geometry": {"type": "Point", "coordinates": [-86.2014446, 34.4046054]}, "properties": {"capacity": "295", "capacity:note": "295 is the number of improved camp sites", "caravans": "yes", "dog": "leashed", "fee": "yes", "internet_access": "wlan", "name": "Lake Guntersville State Park RV Campground", "note": "can draw details from http://www.alapark.com/parks/pdfs/lakeguntersville/lakeguntersvillestateparkcampground.pdf", "tents": "yes", "tourism": "caravan_site", "type": "multipolygon", "website": "https://www.alapark.com/lake-guntersville-state-park-rv-camping", "osm_id": 19244163}}, {"type": "Feature", "geometry": {"type": "Point", "coordinates": [-87.8300009, 30.5473884]}, "properties": {"name": "Fairhope Motorcoach Resort", "tourism": "caravan_site", "type": "multipolygon", "osm_id": 19291483}}, {"type": "Feature", "geometry": {"type": "Point", "coordinates": [-86.3305906, 32.32399]}, "properties": {"internet_access": "wlan", "internet_access:fee": "no", "name": "The Wood RV Park", "sanitary_dump_station": "customers", "tourism": "camp_site", "type": "multipolygon", "osm_id": 19742611}}, {"type": "Feature", "geometry": {"type": "Point", "coordinates": [-87.8096931, 30.4886675]}, "properties": {"tourism": "caravan_site", "type": "multipolygon", "osm_id": 20013377}}]}