{"type": "FeatureCollection", "features": [{"type": "Feature", "geometry": {"type": "Point", "coordinates": [-90.4157207, 34.8180399]}, "properties": {"created_by": "Potlatch 0.10", "name": "Sam's Town RV Park", "tourism": "caravan_site", "osm_id": 280815404}}, {"type": "Feature", "geometry": {"type": "Point", "coordinates": [-93.2387918, 34.9612021]}, "properties": {"access": "yes", "addr:city": "Plainview", "addr:housenumber": "10692", "addr:postcode": "72857", "addr:state": "AR", "addr:street": "Carter Cove Road", "backcountry": "no", "capacity:persons": "34", "caravans": "yes", "drinking_water": "yes", "ele": "114", "name": "Carter Cove Public Use Area", "operator": "US Army Corps of Engineers", "phone": "+1 479-272-4983", "picnic_table": "yes", "power_supply": "yes", "sanitary_dump_station": "yes", "shower": "yes", "tents": "yes", "toilets": "yes", "tourism": "camp_site", "website": "https://www.recreation.gov/camping/campgrounds/232543", "osm_id": 359011685}}, {"type": "Feature", "geometry": {"type": "Point", "coordinates": [-92.858289, 35.4427807]}, "properties": {"camp_site": "basic", "ele": "176", "fishing": "yes", "gnis:feature_id": "79838", "name": "West Fork Point Remove Creek Site Eight Reservoir", "tourism": "camp_site", "water": "reservoir", "osm_id": 359017042}}, {"type": "Feature", "geometry": {"type": "Point", "coordinates": [-92.5458062, 35.0775297]}, "properties": {"name": "Toad Suck Ferry Campground", "tourism": "camp_site", "osm_id": 843180542}}, {"type": "Feature", "geometry": {"type": "Point", "coordinates": [-94.2581075, 35.743233]}, "properties": {"capacity:cabins": "no", "capacity:caravans": "no", "capacity:tents": "yes", "name": "Rock Hole Camp", "tourism": "camp_site", "osm_id": 1218502033}}, {"type": "Feature", "geometry": {"type": "Point", "coordinates": [-94.376615, 34.6857237]}, "properties": {"name": "Queen Wilhelmina State Park", "tourism": "caravan_site", "osm_id": 1439952015}}, {"type": "Feature", "geometry": {"type": "Point", "coordinates": [-92.4626788, 35.3595308]}, "properties": {"name": "Guss Blass Scout Reservation", "tourism": "camp_site", "osm_id": 1853335184}}, {"type": "Feature", "geometry": {"type": "Point", "coordinates": [-90.5835844, 36.0637294]}, "properties": {"name": "RV Park (Private)", "tourism": "caravan_site", "osm_id": 2104367861}}, {"type": "Feature", "geometry": {"type": "Point", "coordinates": [-92.1624196, 34.8988636]}, "properties": {"tourism": "caravan_site", "osm_id": 2294779466}}, {"type": "Feature", "geometry": {"type": "Point", "coordinates": [-93.4699342, 34.5687304]}, "properties": {"name": "Tompkins Bend CoE", "tourism": "caravan_site", "osm_id": 2343783518}}, {"type": "Feature", "geometry": {"type": "Point", "coordinates": [-93.5935048, 34.6416484]}, "properties": {"name": "High Shoals Cabins", "tourism": "camp_site", "osm_id": 3139346201}}, {"type": "Feature", "geometry": {"type": "Point", "coordinates": [-93.9598886, 35.64328]}, "properties": {"tourism": "camp_site", "osm_id": 3228577398}}, {"type": "Feature", "geometry": {"type": "Point", "coordinates": [-93.9597599, 35.6405596]}, "properties": {"tourism": "camp_site", "osm_id": 3228577400}}, {"type": "Feature", "geometry": {"type": "Point", "coordinates": [-94.0307364, 34.3648952]}, "properties": {"access": "permit", "camp_site": "standard", "name": "Loop B", "operator": "US Forest Service", "tourism": "camp_site", "osm_id": 3236166229}}, {"type": "Feature", "geometry": {"type": "Point", "coordinates": [-93.920448, 34.423268]}, "properties": {"tourism": "camp_site", "osm_id": 3236166231}}, {"type": "Feature", "geometry": {"type": "Point", "coordinates": [-94.010898, 34.3908253]}, "properties": {"access": "yes", "camp_site": "basic", "fee": "yes", "name": "Bard Springs Recreation Area", "operator": "US Forest Service", "tents": "yes", "tourism": "camp_site", "osm_id": 3236166232}}, {"type": "Feature", "geometry": {"type": "Point", "coordinates": [-93.3474631, 35.9181409]}, "properties": {"addr:postcode": "72641", "addr:state": "AR", "addr:street": "Co Road 167", "name": "Castle Bluff Camp", "tourism": "camp_site", "osm_id": 3256886719}}, {"type": "Feature", "geometry": {"type": "Point", "coordinates": [-94.3814035, 34.5327176]}, "properties": {"ele": "904 feet", "name": "Camp Pioneer", "operator": "Caddo Area Council, Boy Scouts of America", "tourism": "camp_site", "website": "https://www.camppioneer.org/", "osm_id": 3558464643}}, {"type": "Feature", "geometry": {"type": "Point", "coordinates": [-93.7429197, 35.4947219]}, "properties": {"name": "Chateau Aux Arc RV Park", "power_supply": "yes", "tourism": "caravan_site", "website": "https://www.chateauauxarc.com/RV_Park.html", "osm_id": 3756218810}}, {"type": "Feature", "geometry": {"type": "Point", "coordinates": [-89.6486236, 36.189544]}, "properties": {"tourism": "camp_site", "osm_id": 4023752889}}, {"type": "Feature", "geometry": {"type": "Point", "coordinates": [-93.6881465, 35.0928399]}, "properties": {"tourism": "camp_site", "osm_id": 4041714857}}, {"type": "Feature", "geometry": {"type": "Point", "coordinates": [-93.2807314, 36.055741]}, "properties": {"fee": "yes", "name": "Kyle's Landing", "operator": "NPS", "tourism": "camp_site", "osm_id": 4173015846}}, {"type": "Feature", "geometry": {"type": "Point", "coordinates": [-93.0454715, 35.8786441]}, "properties": {"fee": "no", "name": "Sam's Throne campsite", "tourism": "camp_site", "osm_id": 4259924593}}, {"type": "Feature", "geometry": {"type": "Point", "coordinates": [-93.1599545, 36.0640641]}, "properties": {"capacity": "31", "name": "Ozark Campground", "operator": "US National Park Service", "tourism": "camp_site", "osm_id": 4285104560}}, {"type": "Feature", "geometry": {"type": "Point", "coordinates": [-93.2149826, 36.0716827]}, "properties": {"name": "Erbie Campground", "operator": "National Park Service", "tourism": "camp_site", "osm_id": 4285150843}}, {"type": "Feature", "geometry": {"type": "Point", "coordinates": [-92.2442374, 36.2468159]}, "properties": {"name": "Quarry Park", "tourism": "camp_site", "osm_id": 4345184689}}, {"type": "Feature", "geometry": {"type": "Point", "coordinates": [-94.2236211, 35.5223809]}, "properties": {"addr:city": "Alma", "addr:housenumber": "3539", "addr:postcode": "72921", "addr:state": "AR", "addr:street": "US-71", "name": "Fort Smith Alma RV Park", "phone": "+1-479-632-2704", "tourism": "camp_site", "website": "https://fortsmithalmarvpark.com/", "osm_id": 4561591974}}, {"type": "Feature", "geometry": {"type": "Point", "coordinates": [-93.0784319, 34.1767546]}, "properties": {"tourism": "camp_site", "osm_id": 4797880096}}, {"type": "Feature", "geometry": {"type": "Point", "coordinates": [-93.0790694, 34.1779379]}, "properties": {"tourism": "camp_site", "osm_id": 4797913279}}, {"type": "Feature", "geometry": {"type": "Point", "coordinates": [-94.2474403, 36.4761848]}, "properties": {"addr:housenumber": "428", "addr:postcode": "72714", "addr:street": "Towncenter", "name": "Vacation Rentals", "tourism": "camp_site", "osm_id": 5017065021}}, {"type": "Feature", "geometry": {"type": "Point", "coordinates": [-92.8512777, 36.4968358]}, "properties": {"tourism": "camp_site", "osm_id": 5058342822}}, {"type": "Feature", "geometry": {"type": "Point", "coordinates": [-89.7901954, 34.1267993]}, "properties": {"tourism": "camp_site", "osm_id": 5235293392}}, {"type": "Feature", "geometry": {"type": "Point", "coordinates": [-90.1142584, 34.7745283]}, "properties": {"caravans": "yes", "fee": "yes", "internet_access": "no", "motor_vehicle": "yes", "name": "Dub Patton Campground", "openfire": "yes", "operator": "US Army Corps of Engineers", "tents": "yes", "tourism": "camp_site", "osm_id": 5645872378}}, {"type": "Feature", "geometry": {"type": "Point", "coordinates": [-89.6948216, 34.4288976]}, "properties": {"addr:state": "MS", "fee": "yes", "name": "Clear Creek Campground", "tourism": "camp_site", "osm_id": 5700308238}}, {"type": "Feature", "geometry": {"type": "Point", "coordinates": [-89.6954275, 34.4257271]}, "properties": {"name": "Toby Tubby BSA Camp", "tourism": "camp_site", "osm_id": 5700329421}}, {"type": "Feature", "geometry": {"type": "Point", "coordinates": [-89.6947852, 34.4243656]}, "properties": {"addr:state": "MS", "tourism": "camp_site", "osm_id": 5700329422}}, {"type": "Feature", "geometry": {"type": "Point", "coordinates": [-89.7392208, 34.3389993]}, "properties": {"addr:state": "MS", "name": "Rebel Campground", "tourism": "camp_site", "osm_id": 5706500592}}, {"type": "Feature", "geometry": {"type": "Point", "coordinates": [-92.0549714, 35.4994434]}, "properties": {"tourism": "camp_site", "osm_id": 5897182645}}, {"type": "Feature", "geometry": {"type": "Point", "coordinates": [-91.1688572, 34.8874046]}, "properties": {"tourism": "camp_site", "osm_id": 6278707040}}, {"type": "Feature", "geometry": {"type": "Point", "coordinates": [-90.6968569, 34.711289]}, "properties": {"addr:city": "Marianna", "addr:housenumber": "2955", "addr:postcode": "72360", "addr:state": "AR", "addr:street": "State Hwy 44", "capacity": "17", "charge": "34 USD", "fee": "yes", "name": "Mississippi River SP - Beech Point", "phone": "+1-870-295-4040", "shower": "yes", "tents": "yes", "tourism": "camp_site", "osm_id": 7874303647}}, {"type": "Feature", "geometry": {"type": "Point", "coordinates": [-93.3528319, 34.5440165]}, "properties": {"name": "25", "tourism": "camp_site", "osm_id": 7955642785}}, {"type": "Feature", "geometry": {"type": "Point", "coordinates": [-93.2650276, 34.5878117]}, "properties": {"name": "61", "tourism": "camp_site", "osm_id": 7955642885}}, {"type": "Feature", "geometry": {"type": "Point", "coordinates": [-94.2396781, 36.3935808]}, "properties": {"tourism": "camp_site", "osm_id": 8294833355}}, {"type": "Feature", "geometry": {"type": "Point", "coordinates": [-94.2407599, 36.3764671]}, "properties": {"description": "Not overnight parking for access to overnight parking see website.", "name": "Coler Grove Camper Parking", "tourism": "caravan_site", "website": "https://www.peelcompton.org/coler-mountain-bike-preserve/", "osm_id": 8373302778}}, {"type": "Feature", "geometry": {"type": "Point", "coordinates": [-92.9112856, 35.1266153]}, "properties": {"name": "106", "tourism": "camp_site", "osm_id": 9190502717}}, {"type": "Feature", "geometry": {"type": "Point", "coordinates": [-92.3853142, 34.9797252]}, "properties": {"access": "permissive", "backcountry": "yes", "capacity": "1", "name": "Camp Robinson Camping Area 4", "tourism": "camp_site", "osm_id": 9294121810}}, {"type": "Feature", "geometry": {"type": "Point", "coordinates": [-92.3801386, 34.998388]}, "properties": {"access": "permissive", "backcountry": "yes", "name": "Camp Robinson Camping Area 1", "operator": "Arkansas Game and Fish Commission", "tourism": "camp_site", "osm_id": 9294134060}}, {"type": "Feature", "geometry": {"type": "Point", "coordinates": [-92.3765699, 34.961796]}, "properties": {"backcountry": "yes", "tourism": "camp_site", "osm_id": 9294268088}}, {"type": "Feature", "geometry": {"type": "Point", "coordinates": [-92.3614243, 34.9928678]}, "properties": {"access": "permissive", "name": "Camp Robinson SUA Camp Ground", "operator": "Arkansas Game and Fish Commission", "tourism": "camp_site", "osm_id": 9294738932}}, {"type": "Feature", "geometry": {"type": "Point", "coordinates": [-91.5126798, 34.8082716]}, "properties": {"backcountry": "yes", "name": "Wattensaw WMA", "tourism": "camp_site", "osm_id": 9376430603}}, {"type": "Feature", "geometry": {"type": "Point", "coordinates": [-93.94327, 36.3049117]}, "properties": {"access": "yes", "backcountry": "yes", "camp_site": "basic", "charge": "15.33 USD", "description": "Reservation required. No dispersed camping is allowed in the area; camping allowed only in designated sites. (last verified 2022-02).", "fee": "yes", "name": "Site 3", "operator": "Arkansas State Parks", "operator:wikidata": "Q109319503", "tourism": "camp_site", "osm_id": 9464947479}}, {"type": "Feature", "geometry": {"type": "Point", "coordinates": [-93.9421838, 36.3039883]}, "properties": {"access": "yes", "backcountry": "yes", "camp_site": "basic", "charge": "15.33 USD", "description": "Reservation required. No dispersed camping is allowed in the area; camping allowed only in designated sites. (last verified 2022-02).", "fee": "yes", "name": "Site 5", "operator": "Arkansas State Parks", "operator:wikidata": "Q109319503", "tourism": "camp_site", "osm_id": 9464948091}}, {"type": "Feature", "geometry": {"type": "Point", "coordinates": [-93.9419624, 36.3044178]}, "properties": {"access": "yes", "backcountry": "yes", "camp_site": "basic", "charge": "15.33 USD", "description": "Reservation required. No dispersed camping is allowed in the area; camping allowed only in designated sites. (last verified 2022-02).", "fee": "yes", "name": "Site 4", "operator": "Arkansas State Parks", "operator:wikidata": "Q109319503", "tourism": "camp_site", "osm_id": 9464958289}}, {"type": "Feature", "geometry": {"type": "Point", "coordinates": [-93.9474961, 36.3037819]}, "properties": {"access": "yes", "backcountry": "yes", "camp_site": "basic", "charge": "15.33 USD", "description": "Reservation required. No dispersed camping is allowed in the area; camping allowed only in designated sites. (last verified 2022-02).", "fee": "yes", "name": "Site 1", "operator": "Arkansas State Parks", "operator:wikidata": "Q109319503", "tourism": "camp_site", "osm_id": 9464960519}}, {"type": "Feature", "geometry": {"type": "Point", "coordinates": [-93.9458076, 36.3015633]}, "properties": {"access": "yes", "backcountry": "yes", "camp_site": "basic", "charge": "15.33 USD", "description": "Reservation required. No dispersed camping is allowed in the area; camping allowed only in designated sites. (last verified 2022-02).", "fee": "yes", "name": "Site 2", "operator": "Arkansas State Parks", "operator:wikidata": "Q109319503", "tourism": "camp_site", "osm_id": 9464971921}}, {"type": "Feature", "geometry": {"type": "Point", "coordinates": [-92.1169365, 35.8736993]}, "properties": {"name": "Whitewater RV Park", "tourism": "caravan_site", "osm_id": 9712876116}}, {"type": "Feature", "geometry": {"type": "Point", "coordinates": [-92.1165871, 35.8794992]}, "properties": {"name": "Ozark RV Park", "tourism": "caravan_site", "osm_id": 9712960559}}, {"type": "Feature", "geometry": {"type": "Point", "coordinates": [-89.902144, 34.1367525]}, "properties": {"tourism": "camp_site", "osm_id": 9906496749}}, {"type": "Feature", "geometry": {"type": "Point", "coordinates": [-89.8925056, 34.1637047]}, "properties": {"tourism": "camp_site", "osm_id": 9906497583}}, {"type": "Feature", "geometry": {"type": "Point", "coordinates": [-89.8849995, 34.1352337]}, "properties": {"tourism": "camp_site", "osm_id": 9906514387}}, {"type": "Feature", "geometry": {"type": "Point", "coordinates": [-94.5468026, 34.4362298]}, "properties": {"addr:city": "Watson", "addr:housenumber": "7247", "addr:postcode": "74963", "addr:state": "OK", "addr:street": "SH-4", "contact:facebook": "willowswatsonR", "contact:instagram": "mntviewrvpark", "description": "types of payments also Online Payment Portal", "email": "stay@mountainviewrvparkok.com", "name": "Mountain View RV Park", "opening_hours": "24/7", "payment:cash": "yes", "payment:cheque": "yes", "phone": "+1-580-247-2047", "start_date": "2021", "tourism": "camp_site", "website": "https://mountainviewrvparkok.com", "osm_id": 10169100574}}, {"type": "Feature", "geometry": {"type": "Point", "coordinates": [-93.9712411, 35.6725524]}, "properties": {"backcountry": "yes", "leisure": "firepit", "tourism": "camp_site", "osm_id": 10187559634}}, {"type": "Feature", "geometry": {"type": "Point", "coordinates": [-93.9461786, 35.6731298]}, "properties": {"backcountry": "yes", "leisure": "firepit", "tourism": "camp_site", "osm_id": 10205707060}}, {"type": "Feature", "geometry": {"type": "Point", "coordinates": [-93.9328614, 35.6984632]}, "properties": {"backcountry": "yes", "leisure": "firepit", "tourism": "camp_site", "osm_id": 10205707061}}, {"type": "Feature", "geometry": {"type": "Point", "coordinates": [-93.9375955, 35.6939749]}, "properties": {"backcountry": "yes", "leisure": "firepit", "tourism": "camp_site", "osm_id": 10205707062}}, {"type": "Feature", "geometry": {"type": "Point", "coordinates": [-93.950446, 35.6889896]}, "properties": {"backcountry": "yes", "leisure": "firepit", "tourism": "camp_site", "osm_id": 10205707063}}, {"type": "Feature", "geometry": {"type": "Point", "coordinates": [-93.9633608, 35.6810476]}, "properties": {"backcountry": "yes", "leisure": "firepit", "tourism": "camp_site", "osm_id": 10205707064}}, {"type": "Feature", "geometry": {"type": "Point", "coordinates": [-93.968811, 35.6710554]}, "properties": {"backcountry": "yes", "leisure": "firepit", "tourism": "camp_site", "osm_id": 10205707065}}, {"type": "Feature", "geometry": {"type": "Point", "coordinates": [-93.9649875, 35.6804615]}, "properties": {"backcountry": "yes", "leisure": "firepit", "tourism": "camp_site", "osm_id": 10205707066}}, {"type": "Feature", "geometry": {"type": "Point", "coordinates": [-92.7826253, 34.9852506]}, "properties": {"name": "Harris Brake Lake Resort", "tourism": "camp_site", "osm_id": 10613231864}}, {"type": "Feature", "geometry": {"type": "Point", "coordinates": [-94.2885733, 35.7296525]}, "properties": {"backcountry": "yes", "fee": "no", "leisure": "firepit", "name": "Junction Camp", "tents": "yes", "tourism": "camp_site", "osm_id": 10679694130}}, {"type": "Feature", "geometry": {"type": "Point", "coordinates": [-94.2523313, 35.7581883]}, "properties": {"fee": "no", "name": "Quail Valley", "tents": "yes", "tourism": "camp_site", "osm_id": 10682039405}}, {"type": "Feature", "geometry": {"type": "Point", "coordinates": [-92.1622524, 34.8990952]}, "properties": {"addr:city": "Jacksonville", "addr:housenumber": "1", "addr:postcode": "72099", "addr:state": "AR", "addr:street": "Fam Camp Loop", "ref": "1", "tourism": "caravan_site", "osm_id": 10785776664}}, {"type": "Feature", "geometry": {"type": "Point", "coordinates": [-92.1623006, 34.899157]}, "properties": {"addr:city": "Jacksonville", "addr:housenumber": "2", "addr:postcode": "72099", "addr:state": "AR", "addr:street": "Fam Camp Loop", "ref": "2", "tourism": "caravan_site", "osm_id": 10785776665}}, {"type": "Feature", "geometry": {"type": "Point", "coordinates": [-92.1625149, 34.899299]}, "properties": {"addr:city": "Jacksonville", "addr:housenumber": "3", "addr:postcode": "72099", "addr:state": "AR", "addr:street": "Fam Camp Loop", "ref": "3", "tourism": "caravan_site", "osm_id": 10785776666}}, {"type": "Feature", "geometry": {"type": "Point", "coordinates": [-92.1625856, 34.8993241]}, "properties": {"addr:city": "Jacksonville", "addr:housenumber": "4", "addr:postcode": "72099", "addr:state": "AR", "addr:street": "Fam Camp Loop", "ref": "4", "tourism": "caravan_site", "osm_id": 10785776667}}, {"type": "Feature", "geometry": {"type": "Point", "coordinates": [-92.1627516, 34.8993106]}, "properties": {"addr:city": "Jacksonville", "addr:housenumber": "5", "addr:postcode": "72099", "addr:state": "AR", "addr:street": "Fam Camp Loop", "ref": "5", "tourism": "caravan_site", "osm_id": 10785776668}}, {"type": "Feature", "geometry": {"type": "Point", "coordinates": [-92.1628117, 34.8992826]}, "properties": {"addr:city": "Jacksonville", "addr:housenumber": "6", "addr:postcode": "72099", "addr:state": "AR", "addr:street": "Fam Camp Loop", "ref": "6", "tourism": "caravan_site", "osm_id": 10785776669}}, {"type": "Feature", "geometry": {"type": "Point", "coordinates": [-92.16292, 34.899243]}, "properties": {"addr:city": "Jacksonville", "addr:housenumber": "7", "addr:postcode": "72099", "addr:state": "AR", "addr:street": "Fam Camp Loop", "ref": "7", "tourism": "caravan_site", "osm_id": 10785776670}}, {"type": "Feature", "geometry": {"type": "Point", "coordinates": [-92.1629894, 34.8992131]}, "properties": {"addr:city": "Jacksonville", "addr:housenumber": "8", "addr:postcode": "72099", "addr:state": "AR", "addr:street": "Fam Camp Loop", "ref": "8", "tourism": "caravan_site", "osm_id": 10785776671}}, {"type": "Feature", "geometry": {"type": "Point", "coordinates": [-92.1631131, 34.8992198]}, "properties": {"addr:city": "Jacksonville", "addr:housenumber": "9", "addr:postcode": "72099", "addr:state": "AR", "addr:street": "Fam Camp Loop", "ref": "9", "tourism": "caravan_site", "osm_id": 10785776672}}, {"type": "Feature", "geometry": {"type": "Point", "coordinates": [-92.1631778, 34.8991889]}, "properties": {"addr:city": "Jacksonville", "addr:housenumber": "10", "addr:postcode": "72099", "addr:state": "AR", "addr:street": "Fam Camp Loop", "ref": "10", "tourism": "caravan_site", "osm_id": 10785776673}}, {"type": "Feature", "geometry": {"type": "Point", "coordinates": [-92.1635219, 34.8995755]}, "properties": {"addr:city": "Jacksonville", "addr:housenumber": "11", "addr:postcode": "72099", "addr:state": "AR", "addr:street": "Fam Camp Loop", "ref": "11", "tourism": "caravan_site", "osm_id": 10785776674}}, {"type": "Feature", "geometry": {"type": "Point", "coordinates": [-92.1636409, 34.8997338]}, "properties": {"addr:city": "Jacksonville", "addr:housenumber": "14", "addr:postcode": "72099", "addr:state": "AR", "addr:street": "Fam Camp Loop", "ref": "14", "tourism": "caravan_site", "osm_id": 10785776675}}, {"type": "Feature", "geometry": {"type": "Point", "coordinates": [-92.1637598, 34.8998682]}, "properties": {"addr:city": "Jacksonville", "addr:housenumber": "18", "addr:postcode": "72099", "addr:state": "AR", "addr:street": "Fam Camp Loop", "ref": "18", "tourism": "caravan_site", "osm_id": 10785776676}}, {"type": "Feature", "geometry": {"type": "Point", "coordinates": [-92.1638867, 34.9000134]}, "properties": {"addr:city": "Jacksonville", "addr:housenumber": "22", "addr:postcode": "72099", "addr:state": "AR", "addr:street": "Fam Camp Loop", "ref": "22", "tourism": "caravan_site", "osm_id": 10785776677}}, {"type": "Feature", "geometry": {"type": "Point", "coordinates": [-92.1640241, 34.8998747]}, "properties": {"addr:city": "Jacksonville", "addr:housenumber": "23", "addr:postcode": "72099", "addr:state": "AR", "addr:street": "Fam Camp Loop", "ref": "23", "tourism": "caravan_site", "osm_id": 10785776678}}, {"type": "Feature", "geometry": {"type": "Point", "coordinates": [-92.1638946, 34.8997229]}, "properties": {"addr:city": "Jacksonville", "addr:housenumber": "19", "addr:postcode": "72099", "addr:state": "AR", "addr:street": "Fam Camp Loop", "ref": "19", "tourism": "caravan_site", "osm_id": 10785776679}}, {"type": "Feature", "geometry": {"type": "Point", "coordinates": [-92.1637915, 34.8995734]}, "properties": {"addr:city": "Jacksonville", "addr:housenumber": "15", "addr:postcode": "72099", "addr:state": "AR", "addr:street": "Fam Camp Loop", "ref": "15", "tourism": "caravan_site", "osm_id": 10785776680}}, {"type": "Feature", "geometry": {"type": "Point", "coordinates": [-92.1636329, 34.8994303]}, "properties": {"addr:city": "Jacksonville", "addr:housenumber": "12", "addr:postcode": "72099", "addr:state": "AR", "addr:street": "Fam Camp Loop", "ref": "12", "tourism": "caravan_site", "osm_id": 10785776681}}, {"type": "Feature", "geometry": {"type": "Point", "coordinates": [-92.1640717, 34.8993956]}, "properties": {"addr:city": "Jacksonville", "addr:housenumber": "16", "addr:postcode": "72099", "addr:state": "AR", "addr:street": "Fam Camp Loop", "ref": "16", "tourism": "caravan_site", "osm_id": 10785776682}}, {"type": "Feature", "geometry": {"type": "Point", "coordinates": [-92.164151, 34.8995322]}, "properties": {"addr:city": "Jacksonville", "addr:housenumber": "20", "addr:postcode": "72099", "addr:state": "AR", "addr:street": "Fam Camp Loop", "ref": "20", "tourism": "caravan_site", "osm_id": 10785776683}}, {"type": "Feature", "geometry": {"type": "Point", "coordinates": [-92.1643149, 34.899749]}, "properties": {"addr:city": "Jacksonville", "addr:housenumber": "24", "addr:postcode": "72099", "addr:state": "AR", "addr:street": "Fam Camp Loop", "ref": "24", "tourism": "caravan_site", "osm_id": 10785776684}}, {"type": "Feature", "geometry": {"type": "Point", "coordinates": [-92.1634258, 34.8998471]}, "properties": {"addr:city": "Jacksonville", "addr:housenumber": "13", "addr:postcode": "72099", "addr:state": "AR", "addr:street": "Fam Camp Loop", "ref": "13", "tourism": "caravan_site", "osm_id": 10785776685}}, {"type": "Feature", "geometry": {"type": "Point", "coordinates": [-92.1635184, 34.8999983]}, "properties": {"addr:city": "Jacksonville", "addr:housenumber": "17", "addr:postcode": "72099", "addr:state": "AR", "addr:street": "Fam Camp Loop", "ref": "17", "tourism": "caravan_site", "osm_id": 10785776686}}, {"type": "Feature", "geometry": {"type": "Point", "coordinates": [-92.1636915, 34.9001119]}, "properties": {"addr:city": "Jacksonville", "addr:housenumber": "21", "addr:postcode": "72099", "addr:state": "AR", "addr:street": "Fam Camp Loop", "ref": "21", "tourism": "caravan_site", "osm_id": 10785776687}}, {"type": "Feature", "geometry": {"type": "Point", "coordinates": [-92.1641553, 34.9003182]}, "properties": {"addr:city": "Jacksonville", "addr:housenumber": "27", "addr:postcode": "72099", "addr:state": "AR", "addr:street": "Fam Camp Loop", "ref": "27", "tourism": "caravan_site", "osm_id": 10785776688}}, {"type": "Feature", "geometry": {"type": "Point", "coordinates": [-92.1642626, 34.900471]}, "properties": {"addr:city": "Jacksonville", "addr:housenumber": "28", "addr:postcode": "72099", "addr:state": "AR", "addr:street": "Fam Camp Loop", "ref": "28", "tourism": "caravan_site", "osm_id": 10785776689}}, {"type": "Feature", "geometry": {"type": "Point", "coordinates": [-92.1644186, 34.9006155]}, "properties": {"addr:city": "Jacksonville", "addr:housenumber": "30", "addr:postcode": "72099", "addr:state": "AR", "addr:street": "Fam Camp Loop", "ref": "30", "tourism": "caravan_site", "osm_id": 10785776690}}, {"type": "Feature", "geometry": {"type": "Point", "coordinates": [-92.1645502, 34.900755]}, "properties": {"addr:city": "Jacksonville", "addr:housenumber": "33", "addr:postcode": "72099", "addr:state": "AR", "addr:street": "Fam Camp Loop", "ref": "33", "tourism": "caravan_site", "osm_id": 10785776691}}, {"type": "Feature", "geometry": {"type": "Point", "coordinates": [-92.1643538, 34.9001737]}, "properties": {"addr:city": "Jacksonville", "addr:housenumber": "26", "addr:postcode": "72099", "addr:state": "AR", "addr:street": "Fam Camp Loop", "ref": "26", "tourism": "caravan_site", "osm_id": 10785776692}}, {"type": "Feature", "geometry": {"type": "Point", "coordinates": [-92.1644571, 34.9003298]}, "properties": {"addr:city": "Jacksonville", "addr:housenumber": "29", "addr:postcode": "72099", "addr:state": "AR", "addr:street": "Fam Camp Loop", "ref": "29", "sanitary_dump_station": "yes", "tourism": "caravan_site", "osm_id": 10785776693}}, {"type": "Feature", "geometry": {"type": "Point", "coordinates": [-92.1645846, 34.9004344]}, "properties": {"addr:city": "Jacksonville", "addr:housenumber": "31", "addr:postcode": "72099", "addr:state": "AR", "addr:street": "Fam Camp Loop", "ref": "31", "tourism": "caravan_site", "osm_id": 10785776694}}, {"type": "Feature", "geometry": {"type": "Point", "coordinates": [-92.1647001, 34.9005955]}, "properties": {"addr:city": "Jacksonville", "addr:housenumber": "34", "addr:postcode": "72099", "addr:state": "AR", "addr:street": "Fam Camp Loop", "ref": "34", "tourism": "caravan_site", "osm_id": 10785776695}}, {"type": "Feature", "geometry": {"type": "Point", "coordinates": [-92.165099, 34.9006354]}, "properties": {"addr:city": "Jacksonville", "addr:housenumber": "36", "addr:postcode": "72099", "addr:state": "AR", "addr:street": "Fam Camp Loop", "ref": "36", "tourism": "caravan_site", "osm_id": 10785776696}}, {"type": "Feature", "geometry": {"type": "Point", "coordinates": [-92.1649532, 34.9004992]}, "properties": {"addr:city": "Jacksonville", "addr:housenumber": "35", "addr:postcode": "72099", "addr:state": "AR", "addr:street": "Fam Camp Loop", "ref": "35", "tourism": "caravan_site", "osm_id": 10785776697}}, {"type": "Feature", "geometry": {"type": "Point", "coordinates": [-92.1648216, 34.9003315]}, "properties": {"addr:city": "Jacksonville", "addr:housenumber": "32", "addr:postcode": "72099", "addr:state": "AR", "addr:street": "Fam Camp Loop", "ref": "32", "tourism": "caravan_site", "osm_id": 10785776698}}, {"type": "Feature", "geometry": {"type": "Point", "coordinates": [-92.1647143, 34.9001786]}, "properties": {"addr:city": "Jacksonville", "addr:housenumber": "25", "addr:postcode": "72099", "addr:state": "AR", "addr:street": "Fam Camp Loop", "ref": "25", "tourism": "caravan_site", "osm_id": 10785776699}}, {"type": "Feature", "geometry": {"type": "Point", "coordinates": [-94.2867816, 35.7296525]}, "properties": {"backcountry": "yes", "leisure": "firepit", "tents": "yes", "tourism": "camp_site", "osm_id": 10789181687}}, {"type": "Feature", "geometry": {"type": "Point", "coordinates": [-94.2874199, 35.7295132]}, "properties": {"backcountry": "yes", "leisure": "firepit", "tents": "yes", "tourism": "camp_site", "osm_id": 10789181688}}, {"type": "Feature", "geometry": {"type": "Point", "coordinates": [-94.2878813, 35.729744]}, "properties": {"backcountry": "yes", "leisure": "firepit", "tents": "yes", "tourism": "camp_site", "osm_id": 10789181689}}, {"type": "Feature", "geometry": {"type": "Point", "coordinates": [-94.2802155, 35.7316208]}, "properties": {"backcountry": "yes", "leisure": "firepit", "tents": "yes", "tourism": "camp_site", "osm_id": 10789181690}}, {"type": "Feature", "geometry": {"type": "Point", "coordinates": [-94.2602304, 35.7454717]}, "properties": {"leisure": "firepit", "tourism": "camp_site", "osm_id": 10789181691}}, {"type": "Feature", "geometry": {"type": "Point", "coordinates": [-94.2578191, 35.7426112]}, "properties": {"leisure": "firepit", "tourism": "camp_site", "osm_id": 10789181692}}, {"type": "Feature", "geometry": {"type": "Point", "coordinates": [-94.2575026, 35.7422802]}, "properties": {"leisure": "firepit", "tourism": "camp_site", "osm_id": 10789181693}}, {"type": "Feature", "geometry": {"type": "Point", "coordinates": [-92.9499033, 35.7197863]}, "properties": {"tourism": "camp_site", "osm_id": 10927231420}}, {"type": "Feature", "geometry": {"type": "Point", "coordinates": [-93.2660404, 34.5833911]}, "properties": {"tourism": "camp_site", "osm_id": 11041534339}}, {"type": "Feature", "geometry": {"type": "Point", "coordinates": [-93.177637, 34.6144803]}, "properties": {"tourism": "camp_site", "osm_id": 11043218623}}, {"type": "Feature", "geometry": {"type": "Point", "coordinates": [-92.4538553, 34.8175252]}, "properties": {"tourism": "camp_site", "osm_id": 11099420458}}, {"type": "Feature", "geometry": {"type": "Point", "coordinates": [-93.9011604, 34.3641447]}, "properties": {"backcountry": "yes", "capacity": "1", "tents": "yes", "tourism": "camp_site", "osm_id": 11296646102}}, {"type": "Feature", "geometry": {"type": "Point", "coordinates": [-93.9016056, 34.3627631]}, "properties": {"backcountry": "yes", "capacity": "2", "tents": "yes", "tourism": "camp_site", "osm_id": 11296646103}}, {"type": "Feature", "geometry": {"type": "Point", "coordinates": [-93.9072222, 34.3561559]}, "properties": {"backcountry": "yes", "capacity": "2", "tents": "yes", "tourism": "camp_site", "osm_id": 11296646105}}, {"type": "Feature", "geometry": {"type": "Point", "coordinates": [-93.9050818, 34.353574]}, "properties": {"backcountry": "yes", "capacity": "4", "tents": "yes", "tourism": "camp_site", "osm_id": 11296646107}}, {"type": "Feature", "geometry": {"type": "Point", "coordinates": [-93.9061439, 34.3546812]}, "properties": {"backcountry": "yes", "capacity": "2", "tents": "yes", "tourism": "camp_site", "osm_id": 11296646109}}, {"type": "Feature", "geometry": {"type": "Point", "coordinates": [-93.9366621, 34.350186]}, "properties": {"backcountry": "yes", "capacity": "2", "tents": "yes", "tourism": "camp_site", "osm_id": 11296646112}}, {"type": "Feature", "geometry": {"type": "Point", "coordinates": [-93.9509261, 34.3515445]}, "properties": {"backcountry": "yes", "capacity": "3", "tents": "yes", "tourism": "camp_site", "osm_id": 11296646114}}, {"type": "Feature", "geometry": {"type": "Point", "coordinates": [-93.9518742, 34.35157]}, "properties": {"backcountry": "yes", "capacity": "2", "tents": "yes", "tourism": "camp_site", "osm_id": 11296646116}}, {"type": "Feature", "geometry": {"type": "Point", "coordinates": [-93.9560437, 34.3517671]}, "properties": {"backcountry": "yes", "capacity": "2", "tents": "yes", "tourism": "camp_site", "osm_id": 11296646118}}, {"type": "Feature", "geometry": {"type": "Point", "coordinates": [-93.9702943, 34.3538198]}, "properties": {"backcountry": "yes", "capacity": "3", "tents": "yes", "tourism": "camp_site", "osm_id": 11296646120}}, {"type": "Feature", "geometry": {"type": "Point", "coordinates": [-93.9754871, 34.3549292]}, "properties": {"backcountry": "yes", "capacity": "2", "tents": "yes", "tourism": "camp_site", "osm_id": 11296646122}}, {"type": "Feature", "geometry": {"type": "Point", "coordinates": [-93.9748956, 34.3597474]}, "properties": {"backcountry": "yes", "capacity": "2", "tents": "yes", "tourism": "camp_site", "osm_id": 11296646124}}, {"type": "Feature", "geometry": {"type": "Point", "coordinates": [-93.9605096, 34.377024]}, "properties": {"backcountry": "yes", "capacity": "4", "tents": "yes", "tourism": "camp_site", "osm_id": 11296646126}}, {"type": "Feature", "geometry": {"type": "Point", "coordinates": [-93.9622852, 34.3820325]}, "properties": {"backcountry": "yes", "capacity": "4", "tents": "yes", "tourism": "camp_site", "osm_id": 11296646128}}, {"type": "Feature", "geometry": {"type": "Point", "coordinates": [-93.9629746, 34.3912406]}, "properties": {"backcountry": "yes", "capacity": "3", "tents": "yes", "tourism": "camp_site", "osm_id": 11296646130}}, {"type": "Feature", "geometry": {"type": "Point", "coordinates": [-93.9711285, 34.4208766]}, "properties": {"backcountry": "yes", "capacity": "5", "leisure": "firepit", "tents": "yes", "tourism": "camp_site", "osm_id": 11296646132}}, {"type": "Feature", "geometry": {"type": "Point", "coordinates": [-93.9008211, 34.4059028]}, "properties": {"backcountry": "yes", "capacity": "1", "tents": "yes", "tourism": "camp_site", "osm_id": 11301376408}}, {"type": "Feature", "geometry": {"type": "Point", "coordinates": [-93.9050442, 34.407713]}, "properties": {"backcountry": "yes", "capacity": "5", "tents": "yes", "tourism": "camp_site", "osm_id": 11301376410}}, {"type": "Feature", "geometry": {"type": "Point", "coordinates": [-93.9058462, 34.4070336]}, "properties": {"backcountry": "yes", "capacity": "3", "tents": "yes", "tourism": "camp_site", "osm_id": 11301376412}}, {"type": "Feature", "geometry": {"type": "Point", "coordinates": [-93.9110228, 34.40895]}, "properties": {"backcountry": "yes", "capacity": "2", "tents": "yes", "tourism": "camp_site", "osm_id": 11301376414}}, {"type": "Feature", "geometry": {"type": "Point", "coordinates": [-93.9158535, 34.4122383]}, "properties": {"backcountry": "yes", "capacity": "3", "tents": "yes", "tourism": "camp_site", "osm_id": 11301376416}}, {"type": "Feature", "geometry": {"type": "Point", "coordinates": [-93.9232779, 34.4143448]}, "properties": {"backcountry": "yes", "capacity": "1", "tents": "yes", "tourism": "camp_site", "osm_id": 11301376418}}, {"type": "Feature", "geometry": {"type": "Point", "coordinates": [-93.9225107, 34.41521]}, "properties": {"backcountry": "yes", "capacity": "3", "tents": "yes", "tourism": "camp_site", "osm_id": 11301376420}}, {"type": "Feature", "geometry": {"type": "Point", "coordinates": [-93.91985, 34.4170178]}, "properties": {"backcountry": "yes", "capacity": "3", "tents": "yes", "tourism": "camp_site", "osm_id": 11301376422}}, {"type": "Feature", "geometry": {"type": "Point", "coordinates": [-93.8918102, 34.4014612]}, "properties": {"backcountry": "yes", "capacity": "2", "tents": "yes", "tourism": "camp_site", "osm_id": 11301376424}}, {"type": "Feature", "geometry": {"type": "Point", "coordinates": [-93.8887149, 34.4009212]}, "properties": {"backcountry": "yes", "capacity": "3", "tents": "yes", "tourism": "camp_site", "osm_id": 11301376426}}, {"type": "Feature", "geometry": {"type": "Point", "coordinates": [-93.8793272, 34.3749531]}, "properties": {"backcountry": "yes", "capacity": "4", "tents": "yes", "tourism": "camp_site", "osm_id": 11301376428}}, {"type": "Feature", "geometry": {"type": "Point", "coordinates": [-93.8863184, 34.3781453]}, "properties": {"backcountry": "yes", "capacity": "2", "tents": "yes", "tourism": "camp_site", "osm_id": 11301376430}}, {"type": "Feature", "geometry": {"type": "Point", "coordinates": [-93.8874167, 34.3815809]}, "properties": {"backcountry": "yes", "capacity": "2", "tents": "yes", "tourism": "camp_site", "osm_id": 11301376432}}, {"type": "Feature", "geometry": {"type": "Point", "coordinates": [-93.8858905, 34.3822737]}, "properties": {"backcountry": "yes", "capacity": "3", "tents": "yes", "tourism": "camp_site", "osm_id": 11301376434}}, {"type": "Feature", "geometry": {"type": "Point", "coordinates": [-93.8834417, 34.3828648]}, "properties": {"backcountry": "yes", "capacity": "3", "tents": "yes", "tourism": "camp_site", "osm_id": 11301376436}}, {"type": "Feature", "geometry": {"type": "Point", "coordinates": [-93.8797081, 34.3876903]}, "properties": {"backcountry": "yes", "capacity": "5", "tents": "yes", "tourism": "camp_site", "osm_id": 11301376438}}, {"type": "Feature", "geometry": {"type": "Point", "coordinates": [-93.8837636, 34.3973226]}, "properties": {"backcountry": "yes", "capacity": "2", "tents": "yes", "tourism": "camp_site", "osm_id": 11301376440}}, {"type": "Feature", "geometry": {"type": "Point", "coordinates": [-93.8868106, 34.399642]}, "properties": {"backcountry": "yes", "capacity": "3", "tents": "yes", "tourism": "camp_site", "osm_id": 11301376441}}, {"type": "Feature", "geometry": {"type": "Point", "coordinates": [-93.8882643, 34.3742424]}, "properties": {"backcountry": "yes", "capacity": "2", "tents": "yes", "tourism": "camp_site", "osm_id": 11301376443}}, {"type": "Feature", "geometry": {"type": "Point", "coordinates": [-93.8946801, 34.3721681]}, "properties": {"backcountry": "yes", "capacity": "2", "tents": "yes", "tourism": "camp_site", "osm_id": 11301376445}}, {"type": "Feature", "geometry": {"type": "Point", "coordinates": [-92.0975319, 34.2838441]}, "properties": {"name": "Twin Pines Mobile Home & RV Park", "tourism": "caravan_site", "osm_id": 11352198419}}, {"type": "Feature", "geometry": {"type": "Point", "coordinates": [-93.8339236, 35.8242033]}, "properties": {"addr:housenumber": "145", "addr:street": "Madison 5334", "name": "Mill Creek Outfitters", "phone": "+1 870-692-3625", "tourism": "camp_site", "website": "https://www.millcreekoutfitters.com/", "osm_id": 11599845268}}, {"type": "Feature", "geometry": {"type": "Point", "coordinates": [-94.3859644, 33.9191145]}, "properties": {"check_date": "2024-04-08", "name": "Little River RV Park", "tourism": "caravan_site", "osm_id": 11802792094}}, {"type": "Feature", "geometry": {"type": "Point", "coordinates": [-94.2441291, 35.773224]}, "properties": {"name": "Informal Campsite", "tourism": "camp_site", "osm_id": 11823142262}}, {"type": "Feature", "geometry": {"type": "Point", "coordinates": [-94.2704469, 35.7548799]}, "properties": {"backcountry": "yes", "capacity": "1", "informal": "yes", "tourism": "camp_site", "osm_id": 11823253891}}, {"type": "Feature", "geometry": {"type": "Point", "coordinates": [-94.2701411, 35.7548886]}, "properties": {"backcountry": "yes", "capacity": "2", "informal": "yes", "tourism": "camp_site", "osm_id": 11823253892}}, {"type": "Feature", "geometry": {"type": "Point", "coordinates": [-94.2697978, 35.7558028]}, "properties": {"backcountry": "yes", "capacity": "3", "informal": "yes", "tourism": "camp_site", "osm_id": 11823253894}}, {"type": "Feature", "geometry": {"type": "Point", "coordinates": [-94.2454527, 35.7703447]}, "properties": {"backcountry": "yes", "capacity": "5", "informal": "yes", "tourism": "camp_site", "osm_id": 11823253897}}, {"type": "Feature", "geometry": {"type": "Point", "coordinates": [-94.2501076, 35.7567988]}, "properties": {"backcountry": "yes", "capacity": "4", "informal": "yes", "tourism": "camp_site", "osm_id": 11823253899}}, {"type": "Feature", "geometry": {"type": "Point", "coordinates": [-94.2508469, 35.7572898]}, "properties": {"backcountry": "yes", "capacity": "4", "informal": "yes", "tourism": "camp_site", "osm_id": 11823253900}}, {"type": "Feature", "geometry": {"type": "Point", "coordinates": [-94.2525352, 35.7577928]}, "properties": {"backcountry": "yes", "capacity": "3", "informal": "yes", "tents": "no", "tourism": "camp_site", "osm_id": 11823253901}}, {"type": "Feature", "geometry": {"type": "Point", "coordinates": [-94.2856823, 35.7369859]}, "properties": {"backcountry": "yes", "capacity": "3", "tourism": "camp_site", "osm_id": 11823253906}}, {"type": "Feature", "geometry": {"type": "Point", "coordinates": [-94.5607343, 36.1752384]}, "properties": {"name": "Green Tree RV Park", "tourism": "caravan_site", "osm_id": 12040806768}}, {"type": "Feature", "geometry": {"type": "Point", "coordinates": [-92.8834497, 35.9704534]}, "properties": {"access": "yes", "caravans": "yes", "name": "Woolum Campground", "operator": "Buffalo National River", "static_caravans": "yes", "tents": "yes", "tourism": "camp_site", "osm_id": 12157704581}}, {"type": "Feature", "geometry": {"type": "Point", "coordinates": [-94.5865964, 34.8987838]}, "properties": {"addr:housenumber": "18758", "addr:street": "Runestone Road", "name": "Runestone RV Park", "phone": "+1-918-649-7940", "tourism": "camp_site", "website": "https://www.runestonervpark.com/", "osm_id": 12191553456}}, {"type": "Feature", "geometry": {"type": "Point", "coordinates": [-92.8793463, 34.5421735]}, "properties": {"tourism": "caravan_site", "osm_id": 12382369685}}, {"type": "Feature", "geometry": {"type": "Point", "coordinates": [-93.0172132, 34.5139565]}, "properties": {"tourism": "caravan_site", "osm_id": 12382369740}}, {"type": "Feature", "geometry": {"type": "Point", "coordinates": [-92.8363298, 34.3483774]}, "properties": {"tourism": "caravan_site", "osm_id": 12382401737}}, {"type": "Feature", "geometry": {"type": "Point", "coordinates": [-93.6892614, 34.0498494]}, "properties": {"tourism": "caravan_site", "osm_id": 12384470859}}, {"type": "Feature", "geometry": {"type": "Point", "coordinates": [-94.1955735, 33.3900485]}, "properties": {"tourism": "caravan_site", "osm_id": 12384804308}}, {"type": "Feature", "geometry": {"type": "Point", "coordinates": [-94.0952755, 34.9213761]}, "properties": {"name": "Big Pine RV Park", "tourism": "caravan_site", "osm_id": 12449986292}}, {"type": "Feature", "geometry": {"type": "Point", "coordinates": [-93.4477111, 35.6711712]}, "properties": {"access": "yes", "name": "Ozone Rec Area", "operator": "US Forest Service", "static_caravans": "no", "tents": "yes", "tourism": "camp_site", "osm_id": 12480749369}}, {"type": "Feature", "geometry": {"type": "Point", "coordinates": [-93.7861078, 35.6816929]}, "properties": {"access": "yes", "tents": "yes", "tourism": "camp_site", "osm_id": 12481088977}}, {"type": "Feature", "geometry": {"type": "Point", "coordinates": [-92.326972, 36.2075061]}, "properties": {"access": "yes", "camp_site": "basic", "caravans": "no", "fee": "no", "name": "Camp Matney", "static_caravans": "no", "tents": "yes", "tourism": "camp_site", "osm_id": 12481092336}}, {"type": "Feature", "geometry": {"type": "Point", "coordinates": [-91.994092, 35.5109201]}, "properties": {"access": "yes", "camp_site": "serviced", "caravans": "yes", "check_date": "2025-03-08", "fee": "yes", "name": "Camp Area B", "operator": "United States Army Corps of Engineers", "operator:short": "USACE", "operator:type": "government", "operator:wikidata": "Q1049334", "static_caravans": "no", "tents": "yes", "tourism": "camp_site", "website": "https://www.recreation.gov/camping/campgrounds/232613", "osm_id": 12645910962}}, {"type": "Feature", "geometry": {"type": "Point", "coordinates": [-91.9925538, 35.5096867]}, "properties": {"access": "yes", "camp_site": "serviced", "caravans": "yes", "check_date": "2025-03-08", "fee": "yes", "name": "Camp Area C", "operator": "United States Army Corps of Engineers", "operator:short": "USACE", "operator:type": "government", "operator:wikidata": "Q1049334", "static_caravans": "no", "tents": "yes", "tourism": "camp_site", "website": "https://www.recreation.gov/camping/campgrounds/232613", "osm_id": 12645956729}}, {"type": "Feature", "geometry": {"type": "Point", "coordinates": [-91.988952, 35.5102234]}, "properties": {"access": "yes", "camp_site": "serviced", "caravans": "yes", "check_date": "2025-03-08", "fee": "yes", "name": "Camp Area D", "operator": "United States Army Corps of Engineers", "operator:short": "USACE", "operator:type": "government", "operator:wikidata": "Q1049334", "static_caravans": "no", "tents": "yes", "tourism": "camp_site", "website": "https://www.recreation.gov/camping/campgrounds/232613", "osm_id": 12645956732}}, {"type": "Feature", "geometry": {"type": "Point", "coordinates": [-91.9973162, 35.514688]}, "properties": {"access": "yes", "camp_site": "serviced", "caravans": "yes", "check_date": "2025-03-08", "fee": "yes", "name": "Camp Area A", "operator": "United States Army Corps of Engineers", "operator:short": "USACE", "operator:type": "government", "operator:wikidata": "Q1049334", "static_caravans": "no", "tents": "yes", "tourism": "camp_site", "website": "https://www.recreation.gov/camping/campgrounds/232613", "osm_id": 12646937747}}, {"type": "Feature", "geometry": {"type": "Point", "coordinates": [-92.0083243, 35.527034]}, "properties": {"tourism": "camp_site", "osm_id": 12652612306}}, {"type": "Feature", "geometry": {"type": "Point", "coordinates": [-92.5220412, 36.2926191]}, "properties": {"tourism": "caravan_site", "osm_id": 12710718344}}, {"type": "Feature", "geometry": {"type": "Point", "coordinates": [-91.3142053, 35.627972]}, "properties": {"access": "yes", "camp_site": "basic", "caravans": "yes", "operator": "Arkansas State Parks", "static_caravans": "no", "tents": "yes", "tourism": "camp_site", "osm_id": 12814675910}}, {"type": "Feature", "geometry": {"type": "Point", "coordinates": [-92.2493092, 36.0193923]}, "properties": {"access": "yes", "fee": "yes", "name": "Barkshed Campground", "operator": "US Forest Service", "operator:type": "government", "ownership": "national", "tents": "yes", "tourism": "camp_site", "osm_id": 12874234421}}, {"type": "Feature", "geometry": {"type": "Point", "coordinates": [-90.7920893, 35.0333529]}, "properties": {"tourism": "caravan_site", "osm_id": 12926196132}}, {"type": "Feature", "geometry": {"type": "Point", "coordinates": [-92.5667778, 36.0720808]}, "properties": {"camp_site": "basic", "description": "5 group sites", "group_only": "yes", "name": "Group Campground", "static_caravans": "no", "tents": "yes", "tourism": "camp_site", "osm_id": 12952792198}}, {"type": "Feature", "geometry": {"type": "Point", "coordinates": [-94.2161215, 34.3044731]}, "properties": {"access": "permit", "fee": "yes", "group_only": "yes", "name": "River Ridge Group Campground", "operator": "Arkansas State Parks", "static_caravans": "no", "tents": "yes", "tourism": "camp_site", "osm_id": 12957921424}}, {"type": "Feature", "geometry": {"type": "Point", "coordinates": [-94.2276716, 34.3213942]}, "properties": {"access": "permit", "camp_site": "basic", "caravans": "no", "description": "6 tent pads, each with picnic table and fire ring", "drinking_water": "no", "fee": "yes", "name": "Cossatot Falls Campground", "operator": "Arkansas State Parks", "sanitary_dump_station": "no", "static_caravans": "no", "tents": "yes", "toilets": "yes", "tourism": "camp_site", "website": "https://www.arkansasstateparks.com/cossatotriver", "osm_id": 12957921426}}, {"type": "Feature", "geometry": {"type": "Point", "coordinates": [-94.2376701, 34.3227322]}, "properties": {"access": "permit", "camp_site": "basic", "fee": "yes", "name": "Sandbar Campground", "operator": "https://www.arkansasstateparks.com/cossatotriver", "tents": "yes", "tourism": "camp_site", "osm_id": 12957921427}}, {"type": "Feature", "geometry": {"type": "Point", "coordinates": [-94.2492175, 34.3438485]}, "properties": {"access": "permit", "camp_site": "basic", "fee": "yes", "name": "Ed Banks Campground", "operator": "Arkansas State Parks", "static_caravans": "no", "tents": "yes", "tourism": "camp_site", "website": "https://www.arkansasstateparks.com/cossatotriver", "osm_id": 12957921430}}, {"type": "Feature", "geometry": {"type": "Point", "coordinates": [-92.8093486, 35.4896034]}, "properties": {"name": "Brock Creek Campground & Trailhead", "operator": "US Forest Service", "tourism": "camp_site", "osm_id": 12961301703}}, {"type": "Feature", "geometry": {"type": "Point", "coordinates": [-93.249218, 35.2138064]}, "properties": {"access": "permit", "bbq": "yes", "bin": "no", "camp_site": "basic", "capacity:tents": "1", "caravans": "no", "drinking_water": "no", "fee": "yes", "name": "Campsite 1", "operator": "Mount Nebo State Park", "picnic_table": "yes", "static_caravans": "no", "tents": "yes", "toilets": "no", "tourism": "camp_site", "osm_id": 13022033874}}, {"type": "Feature", "geometry": {"type": "Point", "coordinates": [-93.2496615, 35.2132448]}, "properties": {"access": "permit", "bbq": "yes", "bin": "no", "camp_site": "basic", "capacity:tents": "1", "caravans": "no", "drinking_water": "no", "fee": "yes", "name": "Campsite 2", "operator": "Mount Nebo State Park", "picnic_table": "yes", "static_caravans": "no", "tents": "yes", "toilets": "no", "tourism": "camp_site", "osm_id": 13022033875}}, {"type": "Feature", "geometry": {"type": "Point", "coordinates": [-93.2497343, 35.2125149]}, "properties": {"access": "permit", "bbq": "yes", "bin": "no", "camp_site": "basic", "capacity:tents": "1", "caravans": "no", "drinking_water": "no", "fee": "yes", "name": "Campsite 3", "operator": "Mount Nebo State Park", "picnic_table": "yes", "static_caravans": "no", "tents": "yes", "toilets": "no", "tourism": "camp_site", "osm_id": 13022033876}}, {"type": "Feature", "geometry": {"type": "Point", "coordinates": [-93.2610562, 35.2180251]}, "properties": {"access": "permit", "bbq": "yes", "bin": "no", "camp_site": "basic", "capacity:tents": "1", "caravans": "no", "drinking_water": "no", "fee": "yes", "name": "Campsite 4", "operator": "Mount Nebo State Park", "picnic_table": "yes", "static_caravans": "no", "tents": "yes", "toilets": "no", "tourism": "camp_site", "osm_id": 13022033877}}, {"type": "Feature", "geometry": {"type": "Point", "coordinates": [-93.2594485, 35.2258513]}, "properties": {"access": "permit", "bbq": "yes", "bin": "no", "camp_site": "basic", "capacity:tents": "1", "caravans": "no", "drinking_water": "no", "fee": "yes", "name": "Campsite 5", "operator": "Mount Nebo State Park", "picnic_table": "yes", "static_caravans": "no", "tents": "yes", "toilets": "no", "tourism": "camp_site", "osm_id": 13022033880}}, {"type": "Feature", "geometry": {"type": "Point", "coordinates": [-93.2617322, 35.2273127]}, "properties": {"access": "permit", "bbq": "yes", "bin": "no", "camp_site": "basic", "capacity:tents": "1", "caravans": "no", "drinking_water": "no", "fee": "yes", "name": "Campsite 6", "operator": "Mount Nebo State Park", "picnic_table": "yes", "static_caravans": "no", "tents": "yes", "toilets": "no", "tourism": "camp_site", "osm_id": 13022033881}}, {"type": "Feature", "geometry": {"type": "Point", "coordinates": [-93.2624165, 35.2278919]}, "properties": {"access": "permit", "bbq": "yes", "bin": "no", "camp_site": "basic", "capacity:tents": "1", "caravans": "no", "drinking_water": "no", "fee": "yes", "name": "Campsite 7", "operator": "Mount Nebo State Park", "picnic_table": "yes", "static_caravans": "no", "tents": "yes", "toilets": "no", "tourism": "camp_site", "osm_id": 13022033882}}, {"type": "Feature", "geometry": {"type": "Point", "coordinates": [-93.2631783, 35.2287964]}, "properties": {"access": "permit", "bbq": "yes", "bin": "no", "camp_site": "basic", "capacity:tents": "1", "caravans": "no", "drinking_water": "no", "fee": "yes", "name": "Campsite 8", "operator": "Mount Nebo State Park", "picnic_table": "yes", "static_caravans": "no", "tents": "yes", "toilets": "no", "tourism": "camp_site", "osm_id": 13022033883}}, {"type": "Feature", "geometry": {"type": "Point", "coordinates": [-93.2617652, 35.2291176]}, "properties": {"access": "permit", "bbq": "yes", "bin": "no", "camp_site": "basic", "capacity:tents": "1", "caravans": "no", "drinking_water": "no", "fee": "yes", "name": "Campsite 9", "operator": "Mount Nebo State Park", "picnic_table": "yes", "static_caravans": "no", "tents": "yes", "toilets": "no", "tourism": "camp_site", "osm_id": 13022033884}}, {"type": "Feature", "geometry": {"type": "Point", "coordinates": [-93.2617998, 35.2298604]}, "properties": {"access": "permit", "bbq": "yes", "bin": "no", "camp_site": "basic", "capacity:tents": "1", "caravans": "no", "drinking_water": "no", "fee": "yes", "name": "Campsite 10", "operator": "Mount Nebo State Park", "picnic_table": "yes", "static_caravans": "no", "tents": "yes", "toilets": "no", "tourism": "camp_site", "osm_id": 13022033885}}, {"type": "Feature", "geometry": {"type": "Point", "coordinates": [-93.644014, 35.1722275]}, "properties": {"name": "Cameron Bluff Campground", "tourism": "camp_site", "osm_id": 13027742529}}, {"type": "Feature", "geometry": {"type": "Point", "coordinates": [-93.6243354, 35.2255513]}, "properties": {"name": "Cove Lake", "tourism": "camp_site", "osm_id": 13027758703}}, {"type": "Feature", "geometry": {"type": "Point", "coordinates": [-93.6215902, 35.2234719]}, "properties": {"tourism": "camp_site", "osm_id": 13027758704}}, {"type": "Feature", "geometry": {"type": "Point", "coordinates": [-90.9361698, 33.1635999]}, "properties": {"motorhome": "yes", "ref": "10", "tourism": "camp_site", "osm_id": 13048347918}}, {"type": "Feature", "geometry": {"type": "Point", "coordinates": [-90.936425, 33.1636203]}, "properties": {"motorhome": "yes", "ref": "8", "tourism": "camp_site", "osm_id": 13048347919}}, {"type": "Feature", "geometry": {"type": "Point", "coordinates": [-90.9362684, 33.1635624]}, "properties": {"motorhome": "yes", "ref": "9", "tourism": "camp_site", "osm_id": 13048347920}}, {"type": "Feature", "geometry": {"type": "Point", "coordinates": [-90.9363433, 33.1647779]}, "properties": {"motorhome": "yes", "ref": "1", "tourism": "camp_site", "osm_id": 13048347921}}, {"type": "Feature", "geometry": {"type": "Point", "coordinates": [-90.9362857, 33.1644936]}, "properties": {"motorhome": "yes", "ref": "2", "tourism": "camp_site", "osm_id": 13048347922}}, {"type": "Feature", "geometry": {"type": "Point", "coordinates": [-90.9363267, 33.1643604]}, "properties": {"motorhome": "yes", "ref": "3", "tourism": "camp_site", "osm_id": 13048347923}}, {"type": "Feature", "geometry": {"type": "Point", "coordinates": [-90.936343, 33.1641858]}, "properties": {"motorhome": "yes", "ref": "4", "tourism": "camp_site", "osm_id": 13048347924}}, {"type": "Feature", "geometry": {"type": "Point", "coordinates": [-90.9363711, 33.1640506]}, "properties": {"motorhome": "yes", "ref": "5", "tourism": "camp_site", "osm_id": 13048347925}}, {"type": "Feature", "geometry": {"type": "Point", "coordinates": [-90.936415, 33.1639421]}, "properties": {"motorhome": "yes", "ref": "6", "tourism": "camp_site", "osm_id": 13048347926}}, {"type": "Feature", "geometry": {"type": "Point", "coordinates": [-90.9364676, 33.1637771]}, "properties": {"motorhome": "yes", "ref": "7", "tourism": "camp_site", "osm_id": 13048347927}}, {"type": "Feature", "geometry": {"type": "Point", "coordinates": [-90.9362458, 33.1641972]}, "properties": {"motorhome": "yes", "ref": "13", "tourism": "camp_site", "osm_id": 13048347928}}, {"type": "Feature", "geometry": {"type": "Point", "coordinates": [-90.9361547, 33.1651999]}, "properties": {"motorhome": "yes", "ref": "16", "tourism": "camp_site", "osm_id": 13048347929}}, {"type": "Feature", "geometry": {"type": "Point", "coordinates": [-90.9361391, 33.163868]}, "properties": {"motorhome": "yes", "ref": "11", "tourism": "camp_site", "osm_id": 13048347930}}, {"type": "Feature", "geometry": {"type": "Point", "coordinates": [-90.9362082, 33.1639799]}, "properties": {"motorhome": "yes", "ref": "12", "tourism": "camp_site", "osm_id": 13048347931}}, {"type": "Feature", "geometry": {"type": "Point", "coordinates": [-90.9361986, 33.1647285]}, "properties": {"motorhome": "yes", "ref": "14", "tourism": "camp_site", "osm_id": 13048347932}}, {"type": "Feature", "geometry": {"type": "Point", "coordinates": [-90.9362633, 33.1648284]}, "properties": {"motorhome": "yes", "ref": "15", "tourism": "camp_site", "osm_id": 13048347933}}, {"type": "Feature", "geometry": {"type": "Point", "coordinates": [-89.9995518, 34.9427072]}, "properties": {"tourism": "caravan_site", "osm_id": 13119698877}}, {"type": "Feature", "geometry": {"type": "Point", "coordinates": [-92.286713, 36.3778873]}, "properties": {"tourism": "caravan_site", "osm_id": 13175495399}}, {"type": "Feature", "geometry": {"type": "Point", "coordinates": [-93.0146618, 35.1679946]}, "properties": {"tourism": "camp_site", "osm_id": 13202591754}}, {"type": "Feature", "geometry": {"type": "Point", "coordinates": [-93.1708217, 35.243845]}, "properties": {"tourism": "camp_site", "osm_id": 13233244596}}, {"type": "Feature", "geometry": {"type": "Point", "coordinates": [-91.2669833, 34.0303171]}, "properties": {"tourism": "camp_site", "osm_id": 13272027027}}, {"type": "Feature", "geometry": {"type": "Point", "coordinates": [-91.2636372, 34.0318991]}, "properties": {"tourism": "camp_site", "osm_id": 13272027070}}, {"type": "Feature", "geometry": {"type": "Point", "coordinates": [-91.2675318, 34.0332594]}, "properties": {"tourism": "camp_site", "osm_id": 13272027071}}, {"type": "Feature", "geometry": {"type": "Point", "coordinates": [-91.2478347, 34.0318339]}, "properties": {"tourism": "camp_site", "osm_id": 13272027102}}, {"type": "Feature", "geometry": {"type": "Point", "coordinates": [-90.7579207, 34.5538198]}, "properties": {"access": "yes", "camp_site": "basic", "caravans": "no", "drinking_water": "yes", "fee": "yes", "name": "Delta Heritage Trail State Park Campground", "operator": "Arkansas State Parks", "operator:wikidata": "Q109319503", "phone": "+1-870-572-2352", "reservation": "yes", "static_caravans": "no", "tents": "yes", "toilets": "yes", "tourism": "camp_site", "website": "https://reserve.arkansasstateparks.com/delta-heritage/camping", "osm_id": 13280137866}}, {"type": "Feature", "geometry": {"type": "Point", "coordinates": [-90.6327004, 35.8055196]}, "properties": {"tourism": "caravan_site", "osm_id": 13286387181}}, {"type": "Feature", "geometry": {"type": "Point", "coordinates": [-90.6833994, 35.8058451]}, "properties": {"tourism": "caravan_site", "osm_id": 13286387182}}, {"type": "Feature", "geometry": {"type": "Point", "coordinates": [-94.031396, 34.3665905]}, "properties": {"access": "permit", "camp_site": "standard", "name": "Loop D", "operator": "US Forest Service", "tourism": "camp_site", "osm_id": 13342620290}}, {"type": "Feature", "geometry": {"type": "Point", "coordinates": [-94.031376, 34.3685105]}, "properties": {"access": "permit", "camp_site": "standard", "name": "Loop C", "operator": "US Forest Service", "tourism": "camp_site", "osm_id": 13342620291}}, {"type": "Feature", "geometry": {"type": "Point", "coordinates": [-92.1578087, 34.8247134]}, "properties": {"tourism": "caravan_site", "osm_id": 13358264883}}, {"type": "Feature", "geometry": {"type": "Point", "coordinates": [-89.9946738, 34.9932348]}, "properties": {"tourism": "caravan_site", "osm_id": 13363727893}}, {"type": "Feature", "geometry": {"type": "Point", "coordinates": [-89.9675321, 34.6953669]}, "properties": {"tourism": "caravan_site", "osm_id": 13446615727}}, {"type": "Feature", "geometry": {"type": "Point", "coordinates": [-92.2134486, 35.9946975]}, "properties": {"access": "yes", "caravans": "yes", "fee": "yes", "name": "Lower Campground", "operator": "US Forest Service", "static_caravans": "no", "tents": "yes", "tourism": "camp_site", "osm_id": 13456785139}}, {"type": "Feature", "geometry": {"type": "Point", "coordinates": [-92.2119378, 35.9939663]}, "properties": {"access": "yes", "caravans": "yes", "fee": "yes", "name": "Upper Campground", "operator": "US Forest Service", "static_caravans": "no", "tents": "yes", "tourism": "camp_site", "osm_id": 13456785140}}, {"type": "Feature", "geometry": {"type": "Point", "coordinates": [-90.2125663, 33.5317883]}, "properties": {"tourism": "caravan_site", "osm_id": 233676009}}, {"type": "Feature", "geometry": {"type": "Point", "coordinates": [-93.2951599, 36.0060274]}, "properties": {"name": "West Campground", "operator": "Horseshoe Canyon Ranch", "tourism": "camp_site", "website": "https://horseshoecanyonduderanch.com/", "osm_id": 266466326}}, {"type": "Feature", "geometry": {"type": "Point", "coordinates": [-90.7595381, 33.7375508]}, "properties": {"tourism": "camp_site", "osm_id": 321050983}}, {"type": "Feature", "geometry": {"type": "Point", "coordinates": [-94.3705513, 36.0917364]}, "properties": {"capacity": "18", "fee": "10.00", "internet_access": "no", "name": "Lake Wedington", "sanitary_dump_station": "no", "tents": "yes", "tourism": "caravan_site", "osm_id": 368988012}}, {"type": "Feature", "geometry": {"type": "Point", "coordinates": [-93.8209805, 35.4732514]}, "properties": {"backcountry": "no", "capacity": "64", "caravans": "yes", "drinking_water": "yes", "fee": "yes", "name": "Aux Arc Park", "openfire": "yes", "sanitary_dump_station": "yes", "tents": "yes", "tourism": "camp_site", "website": "https://www.recreation.gov/camping/aux-arc/r/campgroundDetails.do?contractCode=NRSO&parkId=71013", "osm_id": 375971705}}, {"type": "Feature", "geometry": {"type": "Point", "coordinates": [-94.258279, 35.775731]}, "properties": {"capacity": "6", "fee": "16.00", "internet_access": "no", "name": "Campground D", "operator": "Devils Den State Park", "power_supply": "yes", "tents": "yes", "tourism": "caravan_site", "osm_id": 412180134}}, {"type": "Feature", "geometry": {"type": "Point", "coordinates": [-94.2577587, 35.7739836]}, "properties": {"capacity": "45", "fee": "32", "internet_access": "wlan", "internet_access:fee": "no", "name": "Campground E", "operator": "Devils Den State Park", "power_supply": "yes", "sanitary_dump_station": "yes", "tents": "yes", "tourism": "caravan_site", "osm_id": 412180135}}, {"type": "Feature", "geometry": {"type": "Point", "coordinates": [-93.0362051, 34.5244712]}, "properties": {"addr:city": "Hot Springs", "addr:housenumber": "305", "addr:postcode": "71901", "addr:state": "AR", "addr:street": "Gorge Road", "capacity": "40", "charge": "30 USD", "fee": "yes", "leisure": "park", "name": "Gulpha Gorge Campground", "operator": "National Park Service", "operator:short": "NPS", "operator:type": "public", "operator:wikidata": "Q308439", "operator:wikipedia": "en:National Park Service", "tourism": "camp_site", "website": "https://www.nps.gov/hosp/planyourvisit/campground.htm", "osm_id": 472151389}}, {"type": "Feature", "geometry": {"type": "Point", "coordinates": [-93.553249, 34.3207085]}, "properties": {"tourism": "camp_site", "osm_id": 487599710}}, {"type": "Feature", "geometry": {"type": "Point", "coordinates": [-90.127629, 35.0588749]}, "properties": {"capacity": "45", "caravans": "yes", "fee": "yes", "name": "T. O. Fuller State Park Campground", "power_supply": "yes", "tents": "yes", "tourism": "camp_site", "website": "https://tnstateparks.com/parks/campground/t-o-fuller", "osm_id": 535008757}}, {"type": "Feature", "geometry": {"type": "Point", "coordinates": [-90.0460537, 35.3451255]}, "properties": {"name": "Meeman-Shelby Forest State Park", "tourism": "camp_site", "osm_id": 549642612}}, {"type": "Feature", "geometry": {"type": "Point", "coordinates": [-94.1136388, 35.6962633]}, "properties": {"tourism": "camp_site", "osm_id": 592473418}}, {"type": "Feature", "geometry": {"type": "Point", "coordinates": [-92.9122621, 35.1280498]}, "properties": {"tourism": "caravan_site", "osm_id": 605420159}}, {"type": "Feature", "geometry": {"type": "Point", "coordinates": [-92.9153547, 35.1277152]}, "properties": {"tourism": "caravan_site", "osm_id": 605420160}}, {"type": "Feature", "geometry": {"type": "Point", "coordinates": [-92.9137373, 35.1261369]}, "properties": {"tents": "yes", "tourism": "caravan_site", "osm_id": 605420161}}, {"type": "Feature", "geometry": {"type": "Point", "coordinates": [-93.2377737, 35.4019806]}, "properties": {"addr:city": "Dover", "addr:housenumber": "9688", "addr:postcode": "72837", "addr:state": "AR", "addr:street": "SR 333", "capacity": "28", "fee": "yes", "internet_access": "no", "name": "HillBilly Haven", "power_supply": "yes", "sanitary_dump_station": "no", "tourism": "caravan_site", "osm_id": 613044233}}, {"type": "Feature", "geometry": {"type": "Point", "coordinates": [-92.2599729, 34.7516835]}, "properties": {"addr:city": "North Little Rock", "addr:housenumber": "250", "addr:postcode": "72114", "addr:state": "AR", "addr:street": "South Locust Street", "capacity": "61", "internet_access": "wlan", "internet_access:fee": "customers", "name": "Downtown Riverside RV Park", "operator": "City of North Little Rock", "phone": "+1-501-340-5312", "power_supply": "yes", "reservation": "recommended", "sanitary_dump_station": "yes", "tourism": "caravan_site", "website": "https://downtownriversidervpark.com", "osm_id": 622351934}}, {"type": "Feature", "geometry": {"type": "Point", "coordinates": [-91.9840606, 34.2563372]}, "properties": {"tourism": "camp_site", "osm_id": 623233726}}, {"type": "Feature", "geometry": {"type": "Point", "coordinates": [-91.4839348, 36.31409]}, "properties": {"tourism": "caravan_site", "osm_id": 623526304}}, {"type": "Feature", "geometry": {"type": "Point", "coordinates": [-93.8070461, 35.1547927]}, "properties": {"tourism": "caravan_site", "osm_id": 624782367}}, {"type": "Feature", "geometry": {"type": "Point", "coordinates": [-93.302024, 36.4878654]}, "properties": {"tourism": "caravan_site", "osm_id": 628870267}}, {"type": "Feature", "geometry": {"type": "Point", "coordinates": [-93.666467, 34.0295024]}, "properties": {"name": "Crater of Diamonds Campground", "tourism": "caravan_site", "osm_id": 636457237}}, {"type": "Feature", "geometry": {"type": "Point", "coordinates": [-93.1668869, 36.2824403]}, "properties": {"capacity": "42", "email": "ParkersRV@eritter.net", "fee": "yes", "name": "Parker's RV Park", "phone": "+1-888-590-2267", "tourism": "caravan_site", "website": "http://www.parkersrvpark.com", "osm_id": 637522084}}, {"type": "Feature", "geometry": {"type": "Point", "coordinates": [-89.8597254, 35.6263478]}, "properties": {"tourism": "camp_site", "osm_id": 647855526}}, {"type": "Feature", "geometry": {"type": "Point", "coordinates": [-91.5187885, 34.6837191]}, "properties": {"tourism": "caravan_site", "osm_id": 654134263}}, {"type": "Feature", "geometry": {"type": "Point", "coordinates": [-92.3141051, 34.7977412]}, "properties": {"addr:city": "North Little Rock", "addr:housenumber": "4101", "addr:postcode": "72118", "addr:state": "AR", "addr:street": "Arlene Layman Drive", "capacity": "54", "internet_access": "wlan", "name": "Burns Park - RV Campground", "phone": "+1-501-771-0702", "power_supply": "yes", "sanitary_dump_station": "yes", "tourism": "caravan_site", "osm_id": 668478236}}, {"type": "Feature", "geometry": {"type": "Point", "coordinates": [-93.058093, 34.458078]}, "properties": {"addr:city": "Hot Springs", "addr:housenumber": "3921", "addr:postcode": "71913", "addr:state": "AR", "addr:street": "Central Avenue", "name": "Timbercrest RV & Mobile Home Park", "power_supply": "yes", "tourism": "caravan_site", "osm_id": 672975580}}, {"type": "Feature", "geometry": {"type": "Point", "coordinates": [-93.0835814, 35.2831645]}, "properties": {"addr:city": "Russellville", "addr:housenumber": "321", "addr:postcode": "72802", "addr:state": "AR", "addr:street": "Bradley Cove Road", "email": "david.ivy63@gmail.com", "internet_access": "yes", "internet_access:fee": "no", "name": "Ivy's Cove", "note": "Laundry, Restrooms, Showers, Store. Exit 84 off Interstate 40, North past the Flying J Continue 1/8 mile Ivy's Cove will be on your right", "phone": "+1-479-280-1662", "sanitary_dump_station": "yes", "tourism": "caravan_site", "website": "http://www.ivyscove.com/amenities.html", "osm_id": 708659411}}, {"type": "Feature", "geometry": {"type": "Point", "coordinates": [-93.7168055, 36.398567]}, "properties": {"tourism": "caravan_site", "osm_id": 711692650}}, {"type": "Feature", "geometry": {"type": "Point", "coordinates": [-94.034467, 36.2424378]}, "properties": {"name": "Hickory Creek Park", "tourism": "camp_site", "osm_id": 712043797}}, {"type": "Feature", "geometry": {"type": "Point", "coordinates": [-93.7921915, 36.4202508]}, "properties": {"name": "Eureka Springs KOA Journey", "tourism": "caravan_site", "osm_id": 713391988}}, {"type": "Feature", "geometry": {"type": "Point", "coordinates": [-93.6385935, 34.4794694]}, "properties": {"caravans": "yes", "name": "Crystal Campground", "operator": "USFS", "tents": "yes", "tourism": "camp_site", "osm_id": 733654657}}, {"type": "Feature", "geometry": {"type": "Point", "coordinates": [-93.3798489, 34.5203169]}, "properties": {"caravans": "yes", "name": "Loop C", "operator": "USFS", "tents": "yes", "tourism": "camp_site", "osm_id": 733957396}}, {"type": "Feature", "geometry": {"type": "Point", "coordinates": [-93.3801788, 34.5211919]}, "properties": {"caravans": "yes", "name": "Loop B", "operator": "USFS", "tents": "yes", "tourism": "camp_site", "osm_id": 733957397}}, {"type": "Feature", "geometry": {"type": "Point", "coordinates": [-93.3835316, 34.5176605]}, "properties": {"caravans": "yes", "name": "Loop A", "operator": "USFS", "tents": "yes", "tourism": "camp_site", "osm_id": 733957398}}, {"type": "Feature", "geometry": {"type": "Point", "coordinates": [-94.2440521, 35.7864177]}, "properties": {"fee": "yes", "name": "Hike-in campground", "tourism": "camp_site", "osm_id": 754447455}}, {"type": "Feature", "geometry": {"type": "Point", "coordinates": [-92.8924649, 34.3505881]}, "properties": {"access": "yes", "name": "overnight camping", "tourism": "camp_site", "osm_id": 755036741}}, {"type": "Feature", "geometry": {"type": "Point", "coordinates": [-93.9429712, 33.5151357]}, "properties": {"addr:city": "Texarkana", "addr:housenumber": "8225", "addr:postcode": "71854", "addr:state": "AR", "addr:street": "Camper Lane", "check_date": "2024-09-09", "name": "Sunrise RV Park", "tourism": "caravan_site", "osm_id": 758825786}}, {"type": "Feature", "geometry": {"type": "Point", "coordinates": [-91.5654502, 34.8212523]}, "properties": {"check_date": "2024-09-09", "tourism": "caravan_site", "osm_id": 759718635}}, {"type": "Feature", "geometry": {"type": "Point", "coordinates": [-90.2297234, 35.2615681]}, "properties": {"name": "Memphis KOA Journey", "tourism": "caravan_site", "osm_id": 759741562}}, {"type": "Feature", "geometry": {"type": "Point", "coordinates": [-89.6990974, 36.3077834]}, "properties": {"tourism": "caravan_site", "osm_id": 759752232}}, {"type": "Feature", "geometry": {"type": "Point", "coordinates": [-93.346113, 36.0398902]}, "properties": {"access": "customers", "caravans": "no", "dog": "leashed", "fee": "yes", "name": "Steel Creek Campground", "openfire": "yes", "operator": "Buffalo National River (National Park Service)", "reservation": "recommended", "shower": "no", "static_caravans": "no", "tents": "yes", "toilets": "yes", "tourism": "camp_site", "website": "https://www.recreation.gov/camping/campgrounds/10001451", "osm_id": 829395160}}, {"type": "Feature", "geometry": {"type": "Point", "coordinates": [-92.9141035, 34.4351121]}, "properties": {"tourism": "camp_site", "osm_id": 833285000}}, {"type": "Feature", "geometry": {"type": "Point", "coordinates": [-93.9812907, 33.6840204]}, "properties": {"tourism": "camp_site", "osm_id": 833340974}}, {"type": "Feature", "geometry": {"type": "Point", "coordinates": [-93.112186, 33.688866]}, "properties": {"tourism": "camp_site", "osm_id": 833341528}}, {"type": "Feature", "geometry": {"type": "Point", "coordinates": [-93.9570141, 35.6917454]}, "properties": {"dog": "leashed", "fee": "yes", "name": "White Rock Mountain Campground", "tourism": "camp_site", "osm_id": 857587511}}, {"type": "Feature", "geometry": {"type": "Point", "coordinates": [-90.7088649, 35.1644398]}, "properties": {"name": "Campground Area A", "operator": "Arkansas State Parks", "operator:type": "government", "operator:wikidata": "Q109319503", "tourism": "camp_site", "osm_id": 880336853}}, {"type": "Feature", "geometry": {"type": "Point", "coordinates": [-90.7006462, 35.1735338]}, "properties": {"name": "Campground Area B", "operator": "Arkansas State Parks", "operator:type": "government", "operator:wikidata": "Q109319503", "tourism": "camp_site", "osm_id": 880336854}}, {"type": "Feature", "geometry": {"type": "Point", "coordinates": [-94.240696, 36.3764627]}, "properties": {"capacity": "4", "internet_access": "no", "power_supply": "no", "sanitary_dump_station": "no", "tourism": "caravan_site", "osm_id": 892460563}}, {"type": "Feature", "geometry": {"type": "Point", "coordinates": [-93.954346, 33.412196]}, "properties": {"addr:city": "Texarkana", "addr:housenumber": "6848", "addr:postcode": "71854", "addr:state": "AR", "addr:street": "Tennessee Road", "name": "Camp Preston Hunt", "operator": "Caddo Area Council, BSA", "tourism": "camp_site", "osm_id": 897739602}}, {"type": "Feature", "geometry": {"type": "Point", "coordinates": [-94.23947, 36.3917018]}, "properties": {"tourism": "caravan_site", "osm_id": 898548897}}, {"type": "Feature", "geometry": {"type": "Point", "coordinates": [-94.2395871, 36.3912359]}, "properties": {"tourism": "camp_site", "osm_id": 898548898}}, {"type": "Feature", "geometry": {"type": "Point", "coordinates": [-93.7439566, 34.2323113]}, "properties": {"name": "Daisy State Park", "tourism": "camp_site", "osm_id": 941066426}}, {"type": "Feature", "geometry": {"type": "Point", "coordinates": [-94.1365544, 33.4694412]}, "properties": {"addr:city": "Texarkana", "addr:housenumber": "5100", "addr:postcode": "75503", "addr:state": "TX", "addr:street": "North Kings Highway", "name": "El Chaparral Mobile Home Park", "tourism": "caravan_site", "osm_id": 945146331}}, {"type": "Feature", "geometry": {"type": "Point", "coordinates": [-94.0770419, 33.3877593]}, "properties": {"addr:city": "Texarkana", "addr:housenumber": "2505", "addr:postcode": "75501", "addr:state": "TX", "addr:street": "Bender Road", "name": "Glenn Acres Manufactured Home Community", "tourism": "caravan_site", "osm_id": 946993635}}, {"type": "Feature", "geometry": {"type": "Point", "coordinates": [-94.1327033, 33.4331328]}, "properties": {"addr:city": "Nash", "addr:housenumber": "1041", "addr:postcode": "75569", "addr:state": "TX", "addr:street": "North Kings Highway", "name": "Pine Ridge Estates", "toilets": "no", "tourism": "caravan_site", "osm_id": 947951678}}, {"type": "Feature", "geometry": {"type": "Point", "coordinates": [-94.1182994, 33.4412776]}, "properties": {"addr:city": "Nash", "addr:housenumber": "700", "addr:postcode": "75569", "addr:state": "TX", "addr:street": "East New Boston Road", "name": "Oakwood Park", "tourism": "caravan_site", "osm_id": 947990435}}, {"type": "Feature", "geometry": {"type": "Point", "coordinates": [-94.1175655, 33.4419506]}, "properties": {"addr:city": "Nash", "addr:housenumber": "920", "addr:postcode": "75569", "addr:state": "TX", "addr:street": "East New Boston Road", "name": "Woodland Estates", "tourism": "caravan_site", "osm_id": 947990436}}, {"type": "Feature", "geometry": {"type": "Point", "coordinates": [-94.1099463, 33.4421688]}, "properties": {"addr:city": "Nash", "addr:housenumber": "1400", "addr:postcode": "75569", "addr:state": "TX", "addr:street": "East New Boston Road", "name": "Alpine Mobile Village", "tourism": "caravan_site", "osm_id": 947991808}}, {"type": "Feature", "geometry": {"type": "Point", "coordinates": [-94.1126429, 33.3856216]}, "properties": {"addr:city": "Texarkana", "addr:housenumber": "5000", "addr:postcode": "75501", "addr:state": "TX", "addr:street": "US Highway 59", "name": "Texarkana RV Park & Event Center", "tourism": "caravan_site", "osm_id": 949541695}}, {"type": "Feature", "geometry": {"type": "Point", "coordinates": [-93.7616532, 36.4338337]}, "properties": {"tourism": "camp_site", "osm_id": 971147184}}, {"type": "Feature", "geometry": {"type": "Point", "coordinates": [-93.0000965, 34.4422968]}, "properties": {"name": "Catherine's Landing", "tourism": "caravan_site", "website": "https://rvcoutdoors.com/catherines-landing/", "osm_id": 998153506}}, {"type": "Feature", "geometry": {"type": "Point", "coordinates": [-93.0697961, 34.1782602]}, "properties": {"fee": "yes", "idp:camp_site": "organized_camp", "tourism": "camp_site", "osm_id": 1008286678}}, {"type": "Feature", "geometry": {"type": "Point", "coordinates": [-90.0138803, 34.9452354]}, "properties": {"tourism": "camp_site", "osm_id": 1049493234}}, {"type": "Feature", "geometry": {"type": "Point", "coordinates": [-94.1376873, 33.443392]}, "properties": {"addr:city": "Nash", "addr:housenumber": "6500", "addr:postcode": "75569", "addr:state": "TX", "addr:street": "West New Boston Road", "name": "Deerfield Village", "tourism": "caravan_site", "osm_id": 1054094528}}, {"type": "Feature", "geometry": {"type": "Point", "coordinates": [-94.1512958, 33.2520748]}, "properties": {"addr:city": "Queen City", "addr:housenumber": "21700", "addr:postcode": "75572", "addr:state": "TX", "addr:street": "US Highway 59 North", "name": "RV Corral", "tourism": "caravan_site", "osm_id": 1055471182}}, {"type": "Feature", "geometry": {"type": "Point", "coordinates": [-94.1551319, 33.2288564]}, "properties": {"name": "Whispering Woods", "tourism": "caravan_site", "osm_id": 1055471187}}, {"type": "Feature", "geometry": {"type": "Point", "coordinates": [-92.1140308, 35.870216]}, "properties": {"name": "Oak Square RV Park", "tourism": "caravan_site", "osm_id": 1057054924}}, {"type": "Feature", "geometry": {"type": "Point", "coordinates": [-89.781092, 33.8055104]}, "properties": {"tourism": "camp_site", "osm_id": 1080804031}}, {"type": "Feature", "geometry": {"type": "Point", "coordinates": [-89.7775864, 33.8472165]}, "properties": {"name": "North Abutment Campground", "tourism": "camp_site", "osm_id": 1080819411}}, {"type": "Feature", "geometry": {"type": "Point", "coordinates": [-91.2772169, 33.2963626]}, "properties": {"addr:housenumber": "3768", "fee": "yes", "name": "Pecan Grove RV Park", "phone": "+1-870-265-3005", "tourism": "camp_site", "website": "http://www.pecangrove.net/", "osm_id": 1080835716}}, {"type": "Feature", "geometry": {"type": "Point", "coordinates": [-91.672686, 35.2660031]}, "properties": {"name": "Red River RV Park", "tourism": "camp_site", "osm_id": 1082746596}}, {"type": "Feature", "geometry": {"type": "Point", "coordinates": [-92.7573444, 35.9856788]}, "properties": {"capacity": "10", "name": "Tyler Bend Walk-in Campground", "operator": "NPS", "reservation": "yes", "tents": "yes", "tourism": "camp_site", "osm_id": 1095288973}}, {"type": "Feature", "geometry": {"type": "Point", "coordinates": [-92.7595506, 35.9869397]}, "properties": {"capacity": "27", "caravans": "yes", "fee": "yes", "name": "Tyler Bend Drive-in Campground", "operator": "NPS", "reservation": "yes", "tents": "yes", "tourism": "camp_site", "osm_id": 1095288974}}, {"type": "Feature", "geometry": {"type": "Point", "coordinates": [-92.5627314, 36.0782525]}, "properties": {"capacity": "7", "caravans": "yes", "name": "Buffalo Point Campground - Loop E", "operator": "NPS", "reservation": "yes", "tents": "yes", "tourism": "camp_site", "osm_id": 1095291030}}, {"type": "Feature", "geometry": {"type": "Point", "coordinates": [-92.5613098, 36.0772662]}, "properties": {"capacity": "22", "caravans": "yes", "name": "Buffalo Point Campground - Loop D", "operator": "NPS", "reservation": "yes", "tents": "yes", "tourism": "camp_site", "osm_id": 1095291032}}, {"type": "Feature", "geometry": {"type": "Point", "coordinates": [-92.5591814, 36.0762468]}, "properties": {"capacity": "16", "caravans": "yes", "name": "Buffalo Point Campground - Loop C", "operator": "NPS", "reservation": "yes", "tents": "yes", "tourism": "camp_site", "osm_id": 1095291033}}, {"type": "Feature", "geometry": {"type": "Point", "coordinates": [-92.5555364, 36.0715256]}, "properties": {"capacity": "16", "caravans": "yes", "name": "Buffalo Point Campground - Loop B", "operator": "NPS", "reservation": "yes", "tents": "yes", "tourism": "camp_site", "osm_id": 1095291034}}, {"type": "Feature", "geometry": {"type": "Point", "coordinates": [-92.556632, 36.0699549]}, "properties": {"capacity": "22", "caravans": "yes", "name": "Buffalo Point Campground - Loop A", "operator": "NPS", "reservation": "yes", "tents": "yes", "tourism": "camp_site", "osm_id": 1095291035}}, {"type": "Feature", "geometry": {"type": "Point", "coordinates": [-90.6432666, 33.4487241]}, "properties": {"name": "Willie's Last Resort", "tourism": "caravan_site", "osm_id": 1111617507}}, {"type": "Feature", "geometry": {"type": "Point", "coordinates": [-93.1428928, 34.2576844]}, "properties": {"tourism": "caravan_site", "osm_id": 1133842295}}, {"type": "Feature", "geometry": {"type": "Point", "coordinates": [-90.0285769, 35.0485551]}, "properties": {"addr:housenumber": "3691", "addr:street": "Elvis Presley Boulevard", "name": "Graceland RV Park and Campground", "tourism": "caravan_site", "osm_id": 1133927457}}, {"type": "Feature", "geometry": {"type": "Point", "coordinates": [-92.6636584, 33.3085787]}, "properties": {"name": "Norphlet RV Park", "tourism": "caravan_site", "osm_id": 1135593931}}, {"type": "Feature", "geometry": {"type": "Point", "coordinates": [-93.1388996, 35.310879]}, "properties": {"name": "Outdoor Living Center RV Park", "tourism": "caravan_site", "osm_id": 1158573177}}, {"type": "Feature", "geometry": {"type": "Point", "coordinates": [-93.1225511, 34.2016799]}, "properties": {"tourism": "camp_site", "osm_id": 1159140377}}, {"type": "Feature", "geometry": {"type": "Point", "coordinates": [-93.1223355, 34.2017084]}, "properties": {"tourism": "camp_site", "osm_id": 1159140378}}, {"type": "Feature", "geometry": {"type": "Point", "coordinates": [-93.1222594, 34.2018702]}, "properties": {"tourism": "camp_site", "osm_id": 1159140379}}, {"type": "Feature", "geometry": {"type": "Point", "coordinates": [-93.1222165, 34.2019595]}, "properties": {"tourism": "camp_site", "osm_id": 1159140380}}, {"type": "Feature", "geometry": {"type": "Point", "coordinates": [-93.1221258, 34.2022266]}, "properties": {"tourism": "camp_site", "osm_id": 1159140381}}, {"type": "Feature", "geometry": {"type": "Point", "coordinates": [-93.1220333, 34.2022913]}, "properties": {"tourism": "camp_site", "osm_id": 1159140382}}, {"type": "Feature", "geometry": {"type": "Point", "coordinates": [-93.1219895, 34.201782]}, "properties": {"tourism": "camp_site", "osm_id": 1159140383}}, {"type": "Feature", "geometry": {"type": "Point", "coordinates": [-93.1220886, 34.2016152]}, "properties": {"tourism": "camp_site", "osm_id": 1159140384}}, {"type": "Feature", "geometry": {"type": "Point", "coordinates": [-93.122022, 34.2014302]}, "properties": {"tourism": "camp_site", "osm_id": 1159140385}}, {"type": "Feature", "geometry": {"type": "Point", "coordinates": [-93.1223818, 34.2014334]}, "properties": {"tourism": "camp_site", "osm_id": 1159140386}}, {"type": "Feature", "geometry": {"type": "Point", "coordinates": [-93.1218431, 34.2019763]}, "properties": {"tourism": "camp_site", "osm_id": 1159140387}}, {"type": "Feature", "geometry": {"type": "Point", "coordinates": [-93.1606788, 35.548708]}, "properties": {"tourism": "caravan_site", "osm_id": 1176000735}}, {"type": "Feature", "geometry": {"type": "Point", "coordinates": [-93.158748, 35.5494384]}, "properties": {"fee": "yes", "tourism": "camp_site", "osm_id": 1176000736}}, {"type": "Feature", "geometry": {"type": "Point", "coordinates": [-93.1603899, 35.5501642]}, "properties": {"tourism": "camp_site", "osm_id": 1176000737}}, {"type": "Feature", "geometry": {"type": "Point", "coordinates": [-93.0942621, 35.7371486]}, "properties": {"access": "yes", "tourism": "camp_site", "osm_id": 1176003369}}, {"type": "Feature", "geometry": {"type": "Point", "coordinates": [-93.0805718, 35.5546228]}, "properties": {"addr:city": "Dover", "addr:housenumber": "22816", "addr:postcode": "72837", "addr:state": "AR", "addr:street": "State Highway 7 North", "name": "Mack's Pines RV Park", "source": "microsoft/BuildingFootprints;esri/USA_NAD_Addresses", "tourism": "caravan_site", "osm_id": 1191586163}}, {"type": "Feature", "geometry": {"type": "Point", "coordinates": [-92.3490742, 34.8147899]}, "properties": {"tourism": "caravan_site", "osm_id": 1196820748}}, {"type": "Feature", "geometry": {"type": "Point", "coordinates": [-92.9167977, 35.1288571]}, "properties": {"tourism": "camp_site", "osm_id": 1214230797}}, {"type": "Feature", "geometry": {"type": "Point", "coordinates": [-90.0224997, 35.2384049]}, "properties": {"tourism": "caravan_site", "osm_id": 1228280580}}, {"type": "Feature", "geometry": {"type": "Point", "coordinates": [-90.1637372, 35.1291295]}, "properties": {"tourism": "camp_site", "osm_id": 1231133342}}, {"type": "Feature", "geometry": {"type": "Point", "coordinates": [-89.8401597, 33.8623476]}, "properties": {"tourism": "caravan_site", "osm_id": 1261931022}}, {"type": "Feature", "geometry": {"type": "Point", "coordinates": [-91.7489306, 35.2571966]}, "properties": {"backcountry": "yes", "informal": "yes", "tourism": "camp_site", "osm_id": 1272028229}}, {"type": "Feature", "geometry": {"type": "Point", "coordinates": [-91.7424184, 35.2578497]}, "properties": {"backcountry": "yes", "informal": "yes", "tourism": "camp_site", "osm_id": 1279350141}}, {"type": "Feature", "geometry": {"type": "Point", "coordinates": [-91.734403, 35.2573179]}, "properties": {"backcountry": "yes", "informal": "yes", "tourism": "camp_site", "osm_id": 1284887145}}, {"type": "Feature", "geometry": {"type": "Point", "coordinates": [-91.7291719, 35.2571223]}, "properties": {"backcountry": "yes", "informal": "yes", "tourism": "camp_site", "osm_id": 1284887150}}, {"type": "Feature", "geometry": {"type": "Point", "coordinates": [-90.2939855, 34.8443746]}, "properties": {"name": "Mid-South RV Park (Closed)", "tourism": "caravan_site", "osm_id": 1285721140}}, {"type": "Feature", "geometry": {"type": "Point", "coordinates": [-94.1774573, 36.046856]}, "properties": {"name": "Road Hog RV Park", "tourism": "caravan_site", "osm_id": 1286438276}}, {"type": "Feature", "geometry": {"type": "Point", "coordinates": [-94.4212533, 35.4088196]}, "properties": {"addr:city": "Fort Smith", "addr:housenumber": "1701", "addr:postcode": "72904", "addr:state": "AR", "addr:street": "Riverfront Drive", "name": "Fort Smith Riverfront RV Resort", "tourism": "caravan_site", "osm_id": 1286706789}}, {"type": "Feature", "geometry": {"type": "Point", "coordinates": [-94.4711412, 33.2666505]}, "properties": {"ele": "71", "gnis:feature_id": "2030075", "name": "Thomas Lake Park", "tourism": "camp_site", "osm_id": 1300046284}}, {"type": "Feature", "geometry": {"type": "Point", "coordinates": [-92.5502696, 36.1229965]}, "properties": {"camp_site": "standard", "capacity:pitches": "12", "caravans": "no", "charge": "16.00 USD/night", "drinking_water": "seasonal", "fee": "yes", "name": "Rush Campground", "opening_hours": "Mar 15-Nov 14", "operator": "National Park Service", "operator:short": "NPS", "operator:wikidata": "Q308439", "reservation": "no", "static_caravans": "no", "tents": "yes", "tourism": "camp_site", "osm_id": 1307366376}}, {"type": "Feature", "geometry": {"type": "Point", "coordinates": [-92.7618259, 35.9887478]}, "properties": {"caravans": "no", "fee": "yes", "group_only": "yes", "name": "Group Campground", "operator": "Buffalo National River", "static_caravans": "no", "tents": "yes", "tourism": "camp_site", "osm_id": 1311603107}}, {"type": "Feature", "geometry": {"type": "Point", "coordinates": [-94.1686946, 36.0378724]}, "properties": {"addr:city": "Fayetteville", "addr:country": "US", "addr:housenumber": "2331", "addr:postcode": "72701", "addr:state": "AR", "addr:street": "South School Avenue", "capacity": "50", "fee": "yes", "name": "Southgate RV Park", "phone": "+1 479 442 2021", "reservation": "yes", "tourism": "caravan_site", "website": "https://southgatervpark.com/", "osm_id": 1320513197}}, {"type": "Feature", "geometry": {"type": "Point", "coordinates": [-91.6847553, 35.2463799]}, "properties": {"tourism": "caravan_site", "osm_id": 1329395889}}, {"type": "Feature", "geometry": {"type": "Point", "coordinates": [-93.8582357, 36.4300266]}, "properties": {"tourism": "camp_site", "osm_id": 1349369141}}, {"type": "Feature", "geometry": {"type": "Point", "coordinates": [-93.8578773, 36.4299683]}, "properties": {"tourism": "camp_site", "osm_id": 1349369145}}, {"type": "Feature", "geometry": {"type": "Point", "coordinates": [-93.8576402, 36.4299729]}, "properties": {"tourism": "camp_site", "osm_id": 1349369146}}, {"type": "Feature", "geometry": {"type": "Point", "coordinates": [-90.6995242, 35.7773254]}, "properties": {"tourism": "camp_site", "osm_id": 1351697923}}, {"type": "Feature", "geometry": {"type": "Point", "coordinates": [-90.70152, 35.7753918]}, "properties": {"tourism": "camp_site", "osm_id": 1356975413}}, {"type": "Feature", "geometry": {"type": "Point", "coordinates": [-90.6659835, 36.042382]}, "properties": {"tourism": "camp_site", "osm_id": 1360286498}}, {"type": "Feature", "geometry": {"type": "Point", "coordinates": [-90.7181694, 35.9721581]}, "properties": {"tourism": "camp_site", "osm_id": 1360539864}}, {"type": "Feature", "geometry": {"type": "Point", "coordinates": [-91.7155556, 35.2590593]}, "properties": {"addr:city": "Searcy", "addr:housenumber": "1009", "addr:postcode": "72143", "addr:state": "AR", "addr:street": "Davis Drive", "check_date": "2025-04-13", "construction:tourism": "caravan_site", "name": "Hutch's RV Park", "phone": "+1-501-236-7191", "power_supply": "yes", "tourism": "caravan_site", "website": "https://hutchsrv.com", "osm_id": 1369687042}}, {"type": "Feature", "geometry": {"type": "Point", "coordinates": [-93.8310561, 35.6772291]}, "properties": {"addr:city": "Ozark", "addr:housenumber": "20735", "addr:postcode": "72949", "addr:state": "AR", "addr:street": "North Highway 23", "name": "Pig Trail Lodging & RV Park", "tourism": "caravan_site", "osm_id": 1390772369}}, {"type": "Feature", "geometry": {"type": "Point", "coordinates": [-92.7332006, 35.1912511]}, "properties": {"tourism": "caravan_site", "osm_id": 1413119231}}, {"type": "Feature", "geometry": {"type": "Point", "coordinates": [-93.068782, 35.57387]}, "properties": {"access": "yes", "camp_site": "standard", "capacity:caravans": "14", "caravans": "yes", "description": "The campground o\ufb00ers 13 campsites with electricity, picnic tables and a \ufb01re ring for cooking. Five of these campsites are handicapped accessible.  Fees are determined per animal (for equestrians) or per motorized vehicle for day use.", "drinking_water": "yes", "fee": "yes", "name": "Moccasin Gap Campground", "operator": "US Forest Service", "picnic_table": "yes", "power_supply": "yes", "tourism": "camp_site", "osm_id": 1415959178}}, {"type": "Feature", "geometry": {"type": "Point", "coordinates": [-92.9245705, 35.1292073]}, "properties": {"group_only": "yes", "tourism": "camp_site", "osm_id": 1416589365}}, {"type": "Feature", "geometry": {"type": "Point", "coordinates": [-93.2512535, 35.2195472]}, "properties": {"tourism": "camp_site", "osm_id": 1417127970}}, {"type": "Feature", "geometry": {"type": "Point", "coordinates": [-93.5924114, 35.1769526]}, "properties": {"name": "Quarry Horse Camp", "tourism": "camp_site", "osm_id": 1417649640}}, {"type": "Feature", "geometry": {"type": "Point", "coordinates": [-92.9343974, 35.7966332]}, "properties": {"access": "yes", "camp_site": "basic", "caravans": "yes", "fee": "yes", "name": "Richland Creek Recreation Area", "operator": "United States Forest Service", "static_caravans": "no", "tents": "yes", "tourism": "camp_site", "osm_id": 1419024345}}, {"type": "Feature", "geometry": {"type": "Point", "coordinates": [-92.2468355, 36.2479325]}, "properties": {"access": "yes", "caravans": "yes", "fee": "yes", "name": "Quarry Park", "operator": "United State Corps of Engineers", "tents": "yes", "tourism": "camp_site", "osm_id": 1419287980}}, {"type": "Feature", "geometry": {"type": "Point", "coordinates": [-92.2424019, 36.3512058]}, "properties": {"name": "South Robinson Point", "tourism": "camp_site", "osm_id": 1420062737}}, {"type": "Feature", "geometry": {"type": "Point", "coordinates": [-92.2401584, 36.3567882]}, "properties": {"tourism": "camp_site", "osm_id": 1420062738}}, {"type": "Feature", "geometry": {"type": "Point", "coordinates": [-90.6973684, 35.1766437]}, "properties": {"name": "Equestrian Campground (Area C)", "operator": "Arkansas State Parks", "operator:type": "government", "operator:wikidata": "Q109319503", "tourism": "camp_site", "osm_id": 1426526496}}, {"type": "Feature", "geometry": {"type": "Point", "coordinates": [-93.1594632, 35.2438939]}, "properties": {"name": "Old Post Road", "operator": "United States Army Corps of Engineers", "operator:short": "USACE", "operator:type": "military", "operator:wikidata": "Q1049334", "source_ref": "https://www.recreation.gov/camping/campgrounds/232662?tab=info", "tourism": "camp_site", "website": "https://www.swl.usace.army.mil/Missions/Recreation/Arkansas-River/Arkansas-River-Recreation/", "osm_id": 1442811091}}, {"type": "Feature", "geometry": {"type": "Point", "coordinates": [-94.2959468, 35.2977075]}, "properties": {"name": "Fort Chaffee RV Park", "tourism": "caravan_site", "osm_id": 1444735149}}, {"type": "Feature", "geometry": {"type": "Point", "coordinates": [-93.679142, 33.7729517]}, "properties": {"tourism": "caravan_site", "osm_id": 1446025232}}, {"type": "Feature", "geometry": {"type": "Point", "coordinates": [-90.6833265, 35.5329606]}, "properties": {"tourism": "camp_site", "osm_id": 1449284353}}, {"type": "Feature", "geometry": {"type": "Point", "coordinates": [-94.0639868, 35.4868984]}, "properties": {"access": "yes", "name": "Vine Prairie Park Campground", "operator": "City of Mulberry", "tourism": "camp_site", "website": "https://mulberryar.gov/vine-prairie-park/", "osm_id": 1457575035}}, {"type": "Feature", "geometry": {"type": "Point", "coordinates": [-89.6487044, 36.1895769]}, "properties": {"tourism": "caravan_site", "osm_id": 1459902811}}, {"type": "Feature", "geometry": {"type": "Point", "coordinates": [-90.4883035, 35.1341641]}, "properties": {"tourism": "caravan_site", "osm_id": 1459935930}}, {"type": "Feature", "geometry": {"type": "Point", "coordinates": [-90.1239255, 35.0605594]}, "properties": {"camp_site": "basic", "tourism": "camp_site", "osm_id": 1462882025}}, {"type": "Feature", "geometry": {"type": "Point", "coordinates": [-93.9321592, 35.1400431]}, "properties": {"tourism": "caravan_site", "osm_id": 1464898658}}, {"type": "Feature", "geometry": {"type": "Point", "coordinates": [-92.1781441, 35.9721932]}, "properties": {"access": "yes", "caravans": "yes", "fee": "yes", "name": "Upper Campground Loop", "operator": "US Forest Service", "operator:wikidata": "Q1891156", "phone": "+1-870-757-2211", "tents": "yes", "tourism": "camp_site", "website": "https://www.recreation.gov/camping/campgrounds/250010", "osm_id": 1467129701}}, {"type": "Feature", "geometry": {"type": "Point", "coordinates": [-92.1718465, 35.9699873]}, "properties": {"access": "permit", "fee": "yes", "name": "Group Camp 2", "static_caravans": "no", "tents": "yes", "tourism": "camp_site", "osm_id": 1467129702}}, {"type": "Feature", "geometry": {"type": "Point", "coordinates": [-89.8041579, 35.1269005]}, "properties": {"name": "Agricenter Rv Park", "operator": "Agricenter International", "tourism": "caravan_site", "type": "multipolygon", "osm_id": 11815712}}, {"type": "Feature", "geometry": {"type": "Point", "coordinates": [-94.2949184, 35.3436514]}, "properties": {"name": "Springhill Park", "tourism": "camp_site", "type": "multipolygon", "osm_id": 13444709}}, {"type": "Feature", "geometry": {"type": "Point", "coordinates": [-94.2991938, 35.3455285]}, "properties": {"tourism": "camp_site", "type": "multipolygon", "osm_id": 13444710}}, {"type": "Feature", "geometry": {"type": "Point", "coordinates": [-93.5449615, 34.6239991]}, "properties": {"tourism": "camp_site", "type": "multipolygon", "osm_id": 16083811}}]}