{"type": "FeatureCollection", "features": [{"type": "Feature", "geometry": {"type": "Point", "coordinates": [-119.0905565, 37.6824214]}, "properties": {"attribution": "Mono County GIS", "fee": "yes", "name": "Agnew Meadows Campground", "reservation": "no", "tourism": "camp_site", "type": "multipolygon", "website": "https://www.fs.usda.gov/recarea/inyo/recarea/?recid=20508", "osm_id": 288298}}, {"type": "Feature", "geometry": {"type": "Point", "coordinates": [-119.0765509, 37.6530106]}, "properties": {"HostOnSite": "Yes", "addr:street": "203", "attribution": "Mono County GIS", "name": "Soda Springs Campground", "tourism": "camp_site", "type": "multipolygon", "osm_id": 288299}}, {"type": "Feature", "geometry": {"type": "Point", "coordinates": [-122.0144002, 37.0474622]}, "properties": {"backcountry": "no", "capacity": "117", "caravans": "yes", "group_only": "no", "internet_access": "wlan", "internet_access:fee": "yes", "landuse": "commercial", "name": "Santa Cruz Ranch RV Park", "reservation": "yes", "sanitary_dump_station": "customers", "tents": "yes", "tourism": "camp_site", "type": "multipolygon", "osm_id": 312040}}, {"type": "Feature", "geometry": {"type": "Point", "coordinates": [-118.8125125, 36.6345084]}, "properties": {"gnis:feature_id": "259500", "name": "Dorst Creek Campground", "tourism": "camp_site", "type": "multipolygon", "wikidata": "Q63686097", "osm_id": 3169900}}, {"type": "Feature", "geometry": {"type": "Point", "coordinates": [-118.7232051, 36.6051478]}, "properties": {"name": "Lodgepole Campground", "tourism": "camp_site", "type": "multipolygon", "wikidata": "Q63686113", "osm_id": 3170026}}, {"type": "Feature", "geometry": {"type": "Point", "coordinates": [-118.6066148, 34.5052605]}, "properties": {"name": "Castaic Lake Campgrounds", "sanitary_dump_station": "customers", "tourism": "camp_site", "type": "multipolygon", "osm_id": 6167666}}, {"type": "Feature", "geometry": {"type": "Point", "coordinates": [-116.4121995, 33.2693437]}, "properties": {"charge": "10 USD", "fee": "yes", "name": "Borrego Palm Canyon Campground", "tourism": "camp_site", "type": "multipolygon", "osm_id": 6768554}}, {"type": "Feature", "geometry": {"type": "Point", "coordinates": [-118.5499238, 33.4732244]}, "properties": {"ele": "15", "gnis:feature_id": "247282", "name": "Parsons Landing", "natural": "beach", "tourism": "camp_site", "type": "multipolygon", "wikidata": "Q49322467", "osm_id": 7122487}}, {"type": "Feature", "geometry": {"type": "Point", "coordinates": [-120.8949375, 35.7563916]}, "properties": {"name": "Site 4", "tourism": "camp_site", "type": "multipolygon", "osm_id": 9479841}}, {"type": "Feature", "geometry": {"type": "Point", "coordinates": [-120.8944339, 35.7559795]}, "properties": {"name": "Site 5", "tourism": "camp_site", "type": "multipolygon", "osm_id": 9480004}}, {"type": "Feature", "geometry": {"type": "Point", "coordinates": [-122.2082642, 37.1589223]}, "properties": {"Attribution": "Santa Cruz County GIS", "OBJECTID": "3262", "Zoning": "TP", "name": "Little Basin Cabins and Campground", "note": "Formerly owned by Hewlett Packard for employee retreats, Little Basin is now part of Big Basin State Park and is managed by United Camps, Conferences and Retreats for pre-reserved large-group camping only.", "note:2": "Needs adjustment because of import of CPAD boundaries", "operator": "United Camps, Conferences and Retreats", "owner": "Sempervirens Fund", "ownership": "private", "tourism": "camp_site", "type": "multipolygon", "osm_id": 10217573}}, {"type": "Feature", "geometry": {"type": "Point", "coordinates": [-116.9819347, 34.6665579]}, "properties": {"addr:housenumber": "2601", "addr:street": "Barstow Road", "alt_name": "New Jack City Campground", "backcountry": "no", "boundary": "protected_area", "camp_site": "basic", "capacity": "14", "caravans": "yes", "email": "blm_ca_barstow_fo_web@blm.gov", "fee": "no", "internet_access": "no", "name": "Sawtooth Canyon Campground", "note": "Boundary is a guess", "ohv": "no", "old_name": "Traer Agua", "operator": "BLM", "phone": "+1 760-252-6000", "power_supply": "no", "protect_class": "6", "protection_title": "BLM Limited Vehicle Use", "sanitary_dump_station": "no", "tents": "yes", "tourism": "caravan_site", "type": "boundary", "water_point": "no", "website": "https://www.blm.gov/visit/search-details/274437/1", "osm_id": 10337514}}, {"type": "Feature", "geometry": {"type": "Point", "coordinates": [-121.4043468, 39.2266812]}, "properties": {"boundary": "administrative", "name": "Sycamore Ranch Campground", "operator": "Yuba County", "power_supply": "yes", "sanitary_dump_station": "yes", "tents": "yes", "tourism": "caravan_site", "type": "boundary", "website": "https://www.yuba.org/departments/community_development/parks_&_campground.php", "osm_id": 11612464}}, {"type": "Feature", "geometry": {"type": "Point", "coordinates": [-120.4068471, 37.7022126]}, "properties": {"name": "Lake Don Pedro Fleming Meadows Recreation Area Camp Ground", "tourism": "camp_site", "type": "multipolygon", "website": "https://www.donpedrolake.com/recreation/camping", "osm_id": 12219577}}, {"type": "Feature", "geometry": {"type": "Point", "coordinates": [-116.2622612, 33.7030204]}, "properties": {"addr:city": "Indio", "addr:housenumber": "80394", "addr:postcode": "92201", "addr:state": "CA", "addr:street": "Avenue 48", "name": "Outdoor Resort Indio", "phone": "+1-760-775-7255", "tourism": "caravan_site", "type": "multipolygon", "website": "https://orindio.com/", "osm_id": 12697435}}, {"type": "Feature", "geometry": {"type": "Point", "coordinates": [-119.1568083, 37.0707414]}, "properties": {"capacity": "128", "fee": "yes", "name": "Dinkey Creek Campground", "reservation": "recommended", "tourism": "camp_site", "type": "multipolygon", "website": "https://www.fs.usda.gov/recarea/sierra/recarea/?recid=45430", "osm_id": 13100844}}, {"type": "Feature", "geometry": {"type": "Point", "coordinates": [-123.787423, 39.2779144]}, "properties": {"contact:website": "http://www.parks.ca.gov/?page_id=433", "name": "Van Damme State Park Campground", "tourism": "camp_site", "type": "multipolygon", "osm_id": 13803941}}, {"type": "Feature", "geometry": {"type": "Point", "coordinates": [-116.6479406, 33.1996066]}, "properties": {"addr:city": "Santa Ysable", "addr:housenumber": "27955", "addr:postcode": "92070", "addr:state": "CA", "addr:street": "Highway 79", "landuse": "recreation_ground", "name": "Mataguay Scout Ranch", "operator": "San Diego Imperial Council", "phone": "+1 619 298 6121", "tourism": "camp_site", "type": "multipolygon", "website": "https://camping.sdicbsa.org/MSR/", "osm_id": 13899697}}, {"type": "Feature", "geometry": {"type": "Point", "coordinates": [-119.9628992, 39.5142137]}, "properties": {"addr:city": "Verdi", "addr:county": "Washoe", "addr:housenumber": "2100", "addr:postcode": "89439", "addr:state": "NV", "addr:street": "Interstate 80 West", "branch": "Reno", "brand": "KOA", "brand:wikidata": "Q16988635", "capacity:caravans": "203", "email": "reno@koa.com", "emergency:phone": "+1-775-345-8709", "fax": "+1-775-345-2451", "fee": "yes", "internet_access": "wlan", "internet_access:fee": "no", "internet_access:ssid": "KOA-Wifi", "name": "Reno KOA Journey At Boomtown", "operator": "KOA", "phone": "+1-775-345-2444", "power_supply": "yes", "sanitary_dump_station": "yes", "short_name": "KOA", "tents": "no", "tourism": "caravan_site", "type": "multipolygon", "osm_id": 14375719}}, {"type": "Feature", "geometry": {"type": "Point", "coordinates": [-119.0249146, 36.9209762]}, "properties": {"name": "Blackrock Reservoir Campground", "tourism": "camp_site", "type": "multipolygon", "osm_id": 14519799}}, {"type": "Feature", "geometry": {"type": "Point", "coordinates": [-114.5047809, 32.5473129]}, "properties": {"access": "no", "name": "Auxiliary Airfield 2 Bivouac", "operator": "United States Marine Corp", "tourism": "camp_site", "type": "multipolygon", "osm_id": 14707216}}, {"type": "Feature", "geometry": {"type": "Point", "coordinates": [-116.8565648, 32.650247]}, "properties": {"addr:city": "Jamul", "addr:housenumber": "14615", "addr:postcode": "91935", "addr:state": "CA", "addr:street": "Otay Lakes Road", "caravans": "yes", "fee": "yes", "name": "Pio Pico RV Resort & Campground", "phone": "+1-619-421-0104", "tents": "yes", "tourism": "camp_site", "type": "multipolygon", "osm_id": 14873468}}, {"type": "Feature", "geometry": {"type": "Point", "coordinates": [-116.1616977, 34.0176492]}, "properties": {"drinking_water": "no", "name": "Hidden Valley Campground", "tourism": "camp_site", "type": "multipolygon", "wikidata": "Q63635440", "osm_id": 15083139}}, {"type": "Feature", "geometry": {"type": "Point", "coordinates": [-120.0086713, 38.1804138]}, "properties": {"access": "private", "name": "Lair of the Golden Bear", "operator": "University of California, Berkeley", "tourism": "camp_site", "type": "multipolygon", "website": "https://alumni.berkeley.edu/camp-at-the-lair", "osm_id": 15352805}}, {"type": "Feature", "geometry": {"type": "Point", "coordinates": [-121.1125866, 38.7578296]}, "properties": {"name": "Folsom Lake Peninsula Campground", "tourism": "camp_site", "type": "multipolygon", "osm_id": 17487839}}, {"type": "Feature", "geometry": {"type": "Point", "coordinates": [-122.7335544, 38.0202996]}, "properties": {"addr:city": "Lagunitas", "addr:housenumber": "8889", "addr:postcode": "94938", "addr:state": "CA", "addr:street": "Sir Francis Drake Boulevard", "name": "Camp Taylor", "operator": "Samuel P. Taylor State Park", "tourism": "camp_site", "type": "site", "osm_id": 17673400}}, {"type": "Feature", "geometry": {"type": "Point", "coordinates": [-122.7327951, 38.0316388]}, "properties": {"name": "Devil's Gulch Campsite", "operator": "Samuel P. Taylor State Park", "tourism": "camp_site", "type": "multipolygon", "website:booking": "https://www.reservecalifornia.com/Web/#!park/705/654", "osm_id": 17685328}}, {"type": "Feature", "geometry": {"type": "Point", "coordinates": [-121.9868486, 39.2102774]}, "properties": {"addr:city": "Colusa", "addr:housenumber": "3244", "addr:postcode": "95932", "addr:state": "CA", "addr:street": "Butte Slough Road", "contact:email": "office@colusalanding.com", "contact:phone": "+1 530 682 8784", "name": "Colusa Landiing", "tourism": "caravan_site", "type": "multipolygon", "website": "http://www.colusalanding.com/", "osm_id": 18149885}}, {"type": "Feature", "geometry": {"type": "Point", "coordinates": [-118.4923021, 33.4401153]}, "properties": {"fee": "yes", "name": "Two Harbors Campground", "operator": "Catalina Island Conservancy", "tourism": "camp_site", "type": "multipolygon", "website": "https://www.visitcatalinaisland.com/stay/camping", "osm_id": 18592200}}, {"type": "Feature", "geometry": {"type": "Point", "coordinates": [-116.2600214, 33.6980314]}, "properties": {"addr:city": "Indio", "addr:housenumber": "80501", "addr:postcode": "92201", "addr:state": "CA", "addr:street": "Avenue 48", "name": "Motorcoach Country Club", "phone": "+1-760-342-4215", "tourism": "caravan_site", "type": "multipolygon", "website": "https://www.motorcoachcountryclub.com/", "osm_id": 19215984}}, {"type": "Feature", "geometry": {"type": "Point", "coordinates": [-119.1997049, 40.7754181]}, "properties": {"addr:street": "4:00 & E", "capacity:persons": "400", "check_date": "2025-07-24", "contact:facebook": "https://facebook.com/groups/AlternativeEnergyZone", "contact:instagram": "https://instagram.com/explore/tags/alternativeenergyzone", "end_date": "2025-09-04", "full_name": "The Alternative Energy Zone", "name": "Alternative Energy Zone (AEZ)", "short_name": "AEZ", "tourism": "camp_site", "type": "multipolygon", "website": "https://aezone.wixsite.com/ae-zone", "osm_id": 19455286}}, {"type": "Feature", "geometry": {"type": "Point", "coordinates": [-119.3571582, 37.8721532]}, "properties": {"addr:city": "Yosemite Valley", "addr:postcode": "95389", "addr:state": "CA", "addr:street": "Tioga Pass Road", "description": "NPS campground, undergoing rehabilitation. Closed to all traffic, closed to the public. No camping, no through fare.", "fee": "yes", "name": "Tuolumne Meadows Campground", "operator": "National Park Service", "reservation": "required", "tourism": "camp_site", "type": "multipolygon", "wikidata": "Q63707340", "osm_id": 19463112}}, {"type": "Feature", "geometry": {"type": "Point", "coordinates": [-120.1229587, 39.0376248]}, "properties": {"backcountry": "no", "caravans": "yes", "name": "Meeks Bay Campground and Resort", "operator": "U.S. Forest Service", "tents": "yes", "tourism": "camp_site", "type": "multipolygon", "website": "https://www.recreation.gov/camping/campgrounds/10220612", "osm_id": 19592624}}, {"type": "Feature", "geometry": {"type": "Point", "coordinates": [-121.4576864, 39.5339399]}, "properties": {"name": "Bidwell Canyon Campground", "note": "used to be Gold Flat Campground and Big Pine Campground that are now combined into the single Bidwell Canyon Campground for sites 1-39 and 40-75", "owner": "California State Parks", "tourism": "camp_site", "type": "multipolygon", "website": "https://www.reservecalifornia.com/Web/#!park/662", "osm_id": 19679788}}, {"type": "Feature", "geometry": {"type": "Point", "coordinates": [-117.3869819, 34.4299198]}, "properties": {"addr:city": "Hesperia", "addr:country": "US", "addr:housenumber": "12624", "addr:postcode": "92345", "addr:state": "CA", "addr:street": "Main Street", "bbq": "yes", "caravans": "yes", "dog": "yes", "fee": "yes", "internet_access": "wlan", "laundry": "yes", "name": "Desert Willow RV Resort", "shower": "yes", "toilets": "yes", "tourism": "caravan_site", "type": "multipolygon", "website": "https://www.desertwillowrv.com", "osm_id": 20050006}}, {"type": "Feature", "geometry": {"type": "Point", "coordinates": [-120.7236275, 40.7186042]}, "properties": {"name": "American Eagle RV Park", "tourism": "caravan_site", "type": "multipolygon", "osm_id": 20101330}}]}