{"type": "FeatureCollection", "features": [{"type": "Feature", "geometry": {"type": "Point", "coordinates": [-105.970607, 40.5029524]}, "properties": {"name": "Ranger Lakes Campground", "tourism": "caravan_site", "type": "multipolygon", "osm_id": 5830874}}, {"type": "Feature", "geometry": {"type": "Point", "coordinates": [-105.4953845, 39.9323585]}, "properties": {"admin_level": "8", "backcountry": "no", "boundary": "administrative", "capacity": "45", "caravans": "yes", "drinking_water": "yes", "email": "brdvis@fs.fed.us", "fax": "+1-303-541-2515", "fee": "yes", "group_only": "no", "impromptu": "yes", "internet_access": "no", "name": "Kelly Dahl Campground", "openfire": "yes", "operator": "Boulder Ranger District", "phone": "+1-303-541-2500", "tents": "yes", "toilets": "yes", "tourism": "camp_site", "type": "boundary", "website": "https://www.fs.usda.gov/recarea/arp/recreation/recarea/?recid=28288", "osm_id": 10011699}}, {"type": "Feature", "geometry": {"type": "Point", "coordinates": [-105.5498117, 39.8165177]}, "properties": {"admin_level": "8", "boundary": "administrative", "name": "Columbine Campground", "tourism": "camp_site", "type": "boundary", "osm_id": 10012168}}, {"type": "Feature", "geometry": {"type": "Point", "coordinates": [-105.5229521, 39.9426631]}, "properties": {"admin_level": "8", "boundary": "administrative", "name": "West Magnolia Campground", "tourism": "camp_site", "type": "boundary", "osm_id": 10012212}}, {"type": "Feature", "geometry": {"type": "Point", "coordinates": [-105.6161052, 39.9499467]}, "properties": {"admin_level": "8", "backcountry": "yes", "boundary": "administrative", "drinking_water": "no", "fee": "no", "group_only": "no", "impromptu": "yes", "internet_access": "no", "name": "Lost Lake Campground", "openfire": "yes", "picnic_table": "no", "tents": "yes", "toilets": "no", "tourism": "camp_site", "type": "boundary", "website": "https://www.fs.usda.gov/recarea/arp/recreation/recarea/?recid=28294&actid=34", "osm_id": 10012314}}, {"type": "Feature", "geometry": {"type": "Point", "coordinates": [-105.6508452, 39.9937132]}, "properties": {"admin_level": "8", "boundary": "administrative", "name": "Diamond Lake Campground", "tourism": "camp_site", "type": "boundary", "osm_id": 10012344}}, {"type": "Feature", "geometry": {"type": "Point", "coordinates": [-105.524996, 39.8412398]}, "properties": {"admin_level": "8", "boundary": "administrative", "group_only": "yes", "name": "Pickle Gulch Group Campground", "tourism": "camp_site", "type": "boundary", "osm_id": 10012403}}, {"type": "Feature", "geometry": {"type": "Point", "coordinates": [-105.4507974, 39.8762619]}, "properties": {"addr:city": "Black Hawk", "addr:housenumber": "313", "addr:postcode": "80422", "addr:state": "CO", "addr:street": "Gap Road", "backcountry": "no", "capacity": "97", "caravans": "yes", "drinking_water": "yes", "group_only": "no", "impromptu": "yes", "internet_access": "no", "name": "Reverend's Ridge Campground", "operator": "Colorado Parks & Wildlife", "phone": "+1-303-642-3856", "reservation": "yes", "tents": "yes", "toilets": "yes", "tourism": "camp_site", "type": "boundary", "osm_id": 10012433}}, {"type": "Feature", "geometry": {"type": "Point", "coordinates": [-105.6348163, 39.9945085]}, "properties": {"admin_level": "8", "boundary": "administrative", "name": "Buckingham Campground", "tourism": "camp_site", "type": "boundary", "osm_id": 10012487}}, {"type": "Feature", "geometry": {"type": "Point", "coordinates": [-105.4971331, 39.8416105]}, "properties": {"admin_level": "8", "boundary": "administrative", "name": "Cold Springs Campground", "tourism": "camp_site", "type": "boundary", "osm_id": 10012539}}, {"type": "Feature", "geometry": {"type": "Point", "coordinates": [-105.7494852, 39.5279433]}, "properties": {"admin_level": "8", "boundary": "administrative", "name": "Buno Gulch Campground", "tourism": "camp_site", "type": "boundary", "osm_id": 10012540}}, {"type": "Feature", "geometry": {"type": "Point", "coordinates": [-105.6329441, 39.9043703]}, "properties": {"admin_level": "8", "boundary": "administrative", "drinking_water": "no", "loc_name": "Fisherman's Campground", "name": "East Portal Distributed Camping Area", "openfire": "yes", "tourism": "camp_site", "type": "boundary", "osm_id": 10021056}}, {"type": "Feature", "geometry": {"type": "Point", "coordinates": [-105.5050131, 38.9366379]}, "properties": {"name": "North Shore Campground - Loop B", "source": "Mapbox", "tourism": "caravan_site", "type": "multipolygon", "osm_id": 10868601}}, {"type": "Feature", "geometry": {"type": "Point", "coordinates": [-107.2920921, 37.9610299]}, "properties": {"name": "Wupperman Campground", "source": "Bing", "tourism": "camp_site", "type": "multipolygon", "osm_id": 11256998}}, {"type": "Feature", "geometry": {"type": "Point", "coordinates": [-107.2869757, 37.9694618]}, "properties": {"name": "Wupperman Campground", "source": "Bing", "tourism": "camp_site", "type": "multipolygon", "osm_id": 11257000}}, {"type": "Feature", "geometry": {"type": "Point", "coordinates": [-107.2600257, 38.2461423]}, "properties": {"access": "yes", "capacity": "8", "charge": "5 USD", "fee": "yes", "name": "The Gate Campground", "operator": "Bureau of Land Management", "payment:cash": "yes", "tourism": "camp_site", "type": "multipolygon", "osm_id": 11514091}}, {"type": "Feature", "geometry": {"type": "Point", "coordinates": [-107.2269649, 38.3242626]}, "properties": {"name": "Red Bridge Campground", "operator": "BLM", "tourism": "camp_site", "type": "multipolygon", "osm_id": 11543730}}, {"type": "Feature", "geometry": {"type": "Point", "coordinates": [-107.2433057, 38.3843168]}, "properties": {"name": "Gateview Campground", "operator": "NPS", "tourism": "camp_site", "type": "multipolygon", "osm_id": 11561596}}, {"type": "Feature", "geometry": {"type": "Point", "coordinates": [-105.7672415, 40.5151571]}, "properties": {"name": "Long Draw Campground", "tourism": "camp_site", "type": "site", "osm_id": 11610400}}, {"type": "Feature", "geometry": {"type": "Point", "coordinates": [-106.450605, 37.0444225]}, "properties": {"backcountry": "no", "drinking_water": "yes", "fee": "yes", "name": "Trujillo Meadows Campground", "operator": "USFS", "shower": "no", "source": "www.fs.usda.gov", "tents": "yes", "toilets": "yes", "tourism": "camp_site", "type": "multipolygon", "uuid": "sonora_20130605", "website": "https://www.fs.usda.gov/recarea/riogrande/recarea/?recid=29630", "osm_id": 12122194}}]}