{"type": "FeatureCollection", "features": [{"type": "Feature", "geometry": {"type": "Point", "coordinates": [-84.1265034, 33.802498]}, "properties": {"name": "Stone Mountain Campground", "tourism": "caravan_site", "type": "multipolygon", "osm_id": 1454210}}, {"type": "Feature", "geometry": {"type": "Point", "coordinates": [-84.2587915, 34.5351993]}, "properties": {"access": "customers", "addr:city": "Dawsonville", "addr:housenumber": "11336", "addr:postcode": "30534", "addr:state": "GA", "addr:street": "GA 136", "caravans": "no", "contact:facebook": "https://www.facebook.com/Fausetts-Farms-Horse-Trails-and-Sunflowers-172802286228542/", "contact:website": "http://www.fausettfarmshorsetrails.com/", "fee": "yes", "leisure": "horse_riding", "name": "Fausett Farms Horse Trails", "phone": "+1-706-265-8432", "tourism": "camp_site", "type": "multipolygon", "website": "http://www.fausettfarmshorsetrails.com/", "osm_id": 7025156}}, {"type": "Feature", "geometry": {"type": "Point", "coordinates": [-84.5014671, 34.6388166]}, "properties": {"addr:city": "Ellijay", "addr:housenumber": "15828", "addr:state": "GA", "addr:street": "GA 515", "contact:website": "http://www.plumnellycampground.com/", "name": "Plum Nelly Campground", "phone": "+1-706-698-7586", "site": "multipolygon", "tourism": "camp_site", "type": "site", "website": "http://www.plumnellycampground.com/", "osm_id": 8227799}}, {"type": "Feature", "geometry": {"type": "Point", "coordinates": [-83.2794238, 34.7776504]}, "properties": {"addr:city": "Long Creek", "addr:housenumber": "110", "addr:postcode": "29658", "addr:street": "Blalock Place", "fee": "yes", "name": "Chattooga River Lodge and Campground", "shower": "yes", "toilets": "yes", "tourism": "camp_site", "type": "multipolygon", "website": "https://chattoogalodge.com/", "osm_id": 12497273}}, {"type": "Feature", "geometry": {"type": "Point", "coordinates": [-81.7449158, 30.4051951]}, "properties": {"addr:city": "Jacksonville", "addr:state": "FL", "addr:street": "New Kings Road", "email": "reservations@sunnyoakscommunity.com", "internet_access": "wlan", "name": "Sunny Oaks RV Park", "phone": "+1-904-619-6118", "power_supply": "yes", "tourism": "caravan_site", "type": "multipolygon", "website": "https://www.sunnyoakscommunityrv.com/", "osm_id": 13493720}}, {"type": "Feature", "geometry": {"type": "Point", "coordinates": [-81.7317145, 30.4394998]}, "properties": {"addr:city": "Jacksonville", "addr:housenumber": "5221", "addr:postcode": "32218", "addr:state": "FL", "addr:street": "Dunn Avenue", "drinking_water": "yes", "email": "bigtreervpark@gmail.com", "fee": "yes", "name": "Big Tree RV Park", "phone": "+1-904-768-7270", "power_supply": "yes", "sanitary_dump_station": "yes", "tourism": "camp_site", "type": "multipolygon", "website": "https://www.bigtreervpark.com/", "osm_id": 13836474}}, {"type": "Feature", "geometry": {"type": "Point", "coordinates": [-84.034618, 34.2067554]}, "properties": {"access": "customers", "addr:city": "Cumming", "addr:housenumber": "7800", "addr:postcode": "30041", "addr:state": "GA", "addr:street": "Shadburn FerryRoad", "caravans": "yes", "name": "Shady Grove Campground", "shower": "yes", "tents": "yes", "tourism": "camp_site", "type": "multipolygon", "website": "https://parks.forsythco.com/parks-and-facilities/shady-grove-campground", "osm_id": 13937256}}, {"type": "Feature", "geometry": {"type": "Point", "coordinates": [-84.0774569, 34.1750493]}, "properties": {"name": "Sawnee Campground", "tourism": "camp_site", "type": "multipolygon", "osm_id": 13939443}}, {"type": "Feature", "geometry": {"type": "Point", "coordinates": [-83.9843824, 34.3927587]}, "properties": {"addr:city": "Dawsonville", "addr:housenumber": "154", "addr:postcode": "30506", "addr:state": "GA", "addr:street": "Toto Creek Park Road", "backcountry": "no", "cabins": "no", "camp_site": "standard", "caravans": "no", "drinking_water": "yes", "fee": "yes", "name": "Toto Creek Campground", "phone": "+1-770-945-9531", "sanitary_dump_station": "no", "shower": "no", "tents": "yes", "toilets": "yes", "tourism": "camp_site", "type": "multipolygon", "washing_machine": "no", "website": "https://www.recreation.gov/camping/campgrounds/255286?tab=campsites", "osm_id": 13941087}}, {"type": "Feature", "geometry": {"type": "Point", "coordinates": [-83.9507327, 34.3357319]}, "properties": {"name": "Bolding Mill Campground", "tourism": "camp_site", "type": "multipolygon", "website": "https://www.recreation.gov/camping/campgrounds/232531?tab=info", "osm_id": 13941127}}, {"type": "Feature", "geometry": {"type": "Point", "coordinates": [-83.9036142, 34.2891854]}, "properties": {"name": "River Forks", "tourism": "camp_site", "type": "multipolygon", "website": "https://www.hallcounty.org/facilities/facility/details/river-forks-park-11", "osm_id": 13942065}}, {"type": "Feature", "geometry": {"type": "Point", "coordinates": [-83.961453, 34.3310854]}, "properties": {"name": "War Hill Park Campground", "tourism": "camp_site", "type": "multipolygon", "website": "https://www.dawsoncounty.org/parksrec/page/war-hill-park", "osm_id": 13942079}}, {"type": "Feature", "geometry": {"type": "Point", "coordinates": [-84.0861543, 34.207424]}, "properties": {"LandPro08:DE3": "UNDEVELOPABLE", "LandPro08:LC_NAME": "PARKS", "LandPro08:LU_NAME": "PARKS", "LandPro08:reviewed": "no", "addr:housenumber": "4100", "addr:street": "Bald Ridge Road", "name": "Bald Ridge Creek Campground", "source": "LandPro08", "tourism": "camp_site", "type": "multipolygon", "osm_id": 13945234}}, {"type": "Feature", "geometry": {"type": "Point", "coordinates": [-81.7104254, 30.4565324]}, "properties": {"fee": "yes", "name": "Flamingo Lake RV Resort", "tourism": "camp_site", "type": "multipolygon", "website": "https://www.suncommunities.com/community/flamingo-lake-rv-resort/", "osm_id": 13982587}}, {"type": "Feature", "geometry": {"type": "Point", "coordinates": [-82.8685234, 34.5999321]}, "properties": {"fee": "yes", "name": "Oconee Point Campground", "operator": "US Army Corp of Engineers", "tourism": "camp_site", "type": "multipolygon", "osm_id": 14692775}}, {"type": "Feature", "geometry": {"type": "Point", "coordinates": [-82.9701096, 34.7642273]}, "properties": {"name": "Crooked Creek RV Park", "tourism": "caravan_site", "type": "multipolygon", "website": "http://www.crookedcreekrvpark.org/", "osm_id": 14783912}}, {"type": "Feature", "geometry": {"type": "Point", "coordinates": [-81.7656621, 31.2311557]}, "properties": {"fee": "yes", "name": "Georgia Coastal RV Park", "tourism": "camp_site", "type": "multipolygon", "website": "https://gacoastalrvpark.com/", "osm_id": 15409493}}, {"type": "Feature", "geometry": {"type": "Point", "coordinates": [-82.3652819, 33.8797097]}, "properties": {"name": "Baker Creek State Park Campground", "tourism": "camp_site", "type": "multipolygon", "osm_id": 16660476}}, {"type": "Feature", "geometry": {"type": "Point", "coordinates": [-82.4244958, 33.8827534]}, "properties": {"caravans": "yes", "dog": "leashed", "name": "Hickory Knob Campground", "tourism": "camp_site", "type": "multipolygon", "osm_id": 16660510}}, {"type": "Feature", "geometry": {"type": "Point", "coordinates": [-85.1821468, 33.0199547]}, "properties": {"name": "Whitetail Ridge Campground", "tourism": "camp_site", "type": "multipolygon", "osm_id": 17737648}}, {"type": "Feature", "geometry": {"type": "Point", "coordinates": [-84.0927533, 34.9463257]}, "properties": {"name": "Poteete Creek Camp Ground", "tourism": "camp_site", "type": "multipolygon", "osm_id": 18168721}}, {"type": "Feature", "geometry": {"type": "Point", "coordinates": [-82.3860358, 34.7603947]}, "properties": {"name": "Springwood RV park", "tourism": "caravan_site", "type": "multipolygon", "osm_id": 18177113}}, {"type": "Feature", "geometry": {"type": "Point", "coordinates": [-82.8210183, 34.443312]}, "properties": {"name": "Springfield Campground", "tourism": "camp_site", "type": "multipolygon", "website": "https://www.recreation.gov/camping/campgrounds/232711", "osm_id": 18638277}}, {"type": "Feature", "geometry": {"type": "Point", "coordinates": [-82.9509254, 34.9564658]}, "properties": {"backcountry": "no", "caravans": "yes", "drinking_water": "yes", "fee": "yes", "motor_vehicle": "yes", "name": "Devils Fork Campground", "operator": "State of South Carolina", "tents": "yes", "tourism": "camp_site", "type": "multipolygon", "osm_id": 19209077}}, {"type": "Feature", "geometry": {"type": "Point", "coordinates": [-82.6230158, 34.1032273]}, "properties": {"name": "Rustic Tent Camping", "tourism": "camp_site", "type": "multipolygon", "osm_id": 19821654}}, {"type": "Feature", "geometry": {"type": "Point", "coordinates": [-82.623148, 34.0996102]}, "properties": {"name": "Campground #2", "tourism": "camp_site", "type": "multipolygon", "osm_id": 19821655}}, {"type": "Feature", "geometry": {"type": "Point", "coordinates": [-82.6194593, 34.113698]}, "properties": {"name": "Campground #1", "tourism": "camp_site", "type": "multipolygon", "osm_id": 19821656}}]}