{"type": "FeatureCollection", "features": [{"type": "Feature", "geometry": {"type": "Point", "coordinates": [-93.6127539, 41.6762511]}, "properties": {"name": "Camp Sunnyside", "tourism": "camp_site", "type": "multipolygon", "osm_id": 1485252}}, {"type": "Feature", "geometry": {"type": "Point", "coordinates": [-93.7753828, 41.7852023]}, "properties": {"name": "Camping Area #2", "tourism": "camp_site", "type": "multipolygon", "osm_id": 10458221}}, {"type": "Feature", "geometry": {"type": "Point", "coordinates": [-93.7793451, 41.7866346]}, "properties": {"name": "Camping Area #1", "tourism": "camp_site", "type": "multipolygon", "osm_id": 10458222}}, {"type": "Feature", "geometry": {"type": "Point", "coordinates": [-93.7798456, 41.78856]}, "properties": {"name": "Camping Area #4", "tourism": "camp_site", "type": "multipolygon", "osm_id": 10458223}}, {"type": "Feature", "geometry": {"type": "Point", "coordinates": [-93.7887388, 41.7923727]}, "properties": {"name": "Camping Area #6", "tourism": "camp_site", "type": "multipolygon", "osm_id": 10555371}}, {"type": "Feature", "geometry": {"type": "Point", "coordinates": [-93.7714688, 41.781831]}, "properties": {"name": "Camping Area #3", "tourism": "camp_site", "type": "multipolygon", "osm_id": 10580113}}, {"type": "Feature", "geometry": {"type": "Point", "coordinates": [-93.7769445, 41.781208]}, "properties": {"name": "Primitive Walk-in Camping", "tourism": "camp_site", "type": "multipolygon", "osm_id": 10580127}}, {"type": "Feature", "geometry": {"type": "Point", "coordinates": [-93.4959385, 41.6537398]}, "properties": {"internet_access": "wlan", "name": "Adventureland Campground", "operator": "Adventureland Resort", "power_supply": "yes", "sanitary_dump_station": "customers", "tents": "yes", "tourism": "caravan_site", "type": "multipolygon", "osm_id": 10664868}}, {"type": "Feature", "geometry": {"type": "Point", "coordinates": [-91.5352809, 41.7276686]}, "properties": {"name": "West Overlook", "tourism": "camp_site", "type": "multipolygon", "osm_id": 11087436}}, {"type": "Feature", "geometry": {"type": "Point", "coordinates": [-91.1415724, 43.0269289]}, "properties": {"name": "Big River Campground", "tourism": "camp_site", "type": "multipolygon", "osm_id": 11248362}}, {"type": "Feature", "geometry": {"type": "Point", "coordinates": [-91.0266305, 42.9891829]}, "properties": {"addr:city": "Prairie du Chien", "addr:housenumber": "11815", "addr:postcode": "53821", "addr:state": "WI", "addr:street": "Munz Lane", "name": "Wisconsin Badger Camp", "tourism": "camp_site", "type": "multipolygon", "website": "https://www.badgercamp.org/", "osm_id": 11256105}}, {"type": "Feature", "geometry": {"type": "Point", "coordinates": [-96.2336856, 40.9903798]}, "properties": {"name": "Camp Kitaki", "tourism": "camp_site", "type": "multipolygon", "website": "https://www.ymcacampkitaki.org/", "osm_id": 11674763}}, {"type": "Feature", "geometry": {"type": "Point", "coordinates": [-93.9339851, 42.1254148]}, "properties": {"name": "Des Moines YMCA Camp", "operator": "YMCA of Greater Des Moines", "tourism": "camp_site", "type": "multipolygon", "osm_id": 12760376}}, {"type": "Feature", "geometry": {"type": "Point", "coordinates": [-96.554255, 40.8040373]}, "properties": {"access": "customers", "addr:city": "Walton", "addr:housenumber": "800", "addr:postcode": "68520", "addr:state": "NE", "addr:street": "South 120th Street", "caravans": "no", "name": "Outdoor Education Center, Cornhusker Council, Scouting America", "operator": "Cornhusker Council, Scouting America", "scouts": "yes", "source": "bing", "static_caravans": "no", "tents": "yes", "tourism": "camp_site", "type": "multipolygon", "website": "https://www.cornhuskercouncil.org/", "osm_id": 13093525}}, {"type": "Feature", "geometry": {"type": "Point", "coordinates": [-90.1736583, 42.0560972]}, "properties": {"access": "yes", "addr:city": "Sabula", "addr:housenumber": "1516", "addr:postcode": "52070", "addr:state": "IA", "addr:street": "South Avenue", "capacity": "39", "charge": "22 USD", "check_date": "2025-10-04", "ele": "180", "fee": "yes", "gnis:feature_id": "463871", "leisure": "park", "name": "South Sabula Lake Park", "opening_hours": "Mo-Su 06:30-22:00", "operator": "Jackson County Conservation", "operator:type": "public", "operator:wikidata": "Q110064391", "phone": "+1-563-652-3783", "reservation": "yes", "sanitary_dump_station": "yes", "shower": "yes", "toilets": "yes", "tourism": "camp_site", "type": "multipolygon", "website": "https://www.mycountyparks.com/County/Jackson/Park/South-Sabula-Lake-Park", "osm_id": 15916047}}, {"type": "Feature", "geometry": {"type": "Point", "coordinates": [-96.501774, 42.5359773]}, "properties": {"addr:city": "North Sioux City", "addr:housenumber": "675", "addr:postcode": "57049", "addr:state": "SD", "addr:street": "Streeter Drive", "brand": "KOA", "brand:wikidata": "Q16988635", "name": "KOA Holiday Sioux City North", "short_name": "KOA", "tourism": "caravan_site", "type": "multipolygon", "osm_id": 17294628}}]}