{"type": "FeatureCollection", "features": [{"type": "Feature", "geometry": {"type": "Point", "coordinates": [-97.1965606, 38.8733882]}, "properties": {"access": "private", "addr:city": "Abilene", "addr:housenumber": "1047", "addr:postcode": "67410", "addr:state": "KS", "addr:street": "1900 Avenue", "leisure": "summer_camp", "name": "Brown Memorial Camp, Scouting America", "operator": "Coronado Area Council, Scouting America", "scout": "yes", "tourism": "camp_site", "type": "multipolygon", "osm_id": 17672445}}, {"type": "Feature", "geometry": {"type": "Point", "coordinates": [-95.4806825, 39.140195]}, "properties": {"name": "Catfish Alley", "tourism": "camp_site", "type": "multipolygon", "osm_id": 18123583}}, {"type": "Feature", "geometry": {"type": "Point", "coordinates": [-95.4828694, 39.1408184]}, "properties": {"name": "Mulberry Grove", "tourism": "camp_site", "type": "multipolygon", "osm_id": 18123584}}, {"type": "Feature", "geometry": {"type": "Point", "coordinates": [-94.9260215, 38.6591053]}, "properties": {"name": "Crappie Cove Campground", "tourism": "camp_site", "type": "multipolygon", "osm_id": 18207173}}, {"type": "Feature", "geometry": {"type": "Point", "coordinates": [-95.7354553, 38.5154206]}, "properties": {"name": "Sailboat Beach Campground", "tourism": "camp_site", "type": "multipolygon", "osm_id": 19065011}}]}