{"type": "FeatureCollection", "features": [{"type": "Feature", "geometry": {"type": "Point", "coordinates": [-88.1530829, 36.9775542]}, "properties": {"ele": "112", "gnis:feature_id": "490808", "name": "Demumbers Bay Backcountry Area & Boat Ramp at Land Between The Lakes", "operator": "USDA Forest Service", "phone": "+1-270-924-2000", "tourism": "camp_site", "website": "https://www.landbetweenthelakes.us/seendo/camping/backcountry/", "osm_id": 358586865}}, {"type": "Feature", "geometry": {"type": "Point", "coordinates": [-86.1370864, 37.2029287]}, "properties": {"name": "Maple Springs Group Campground", "source": "NPS map", "tourism": "camp_site", "osm_id": 777365466}}, {"type": "Feature", "geometry": {"type": "Point", "coordinates": [-85.9408396, 37.202079]}, "properties": {"name": "KOA", "tourism": "camp_site", "osm_id": 793680387}}, {"type": "Feature", "geometry": {"type": "Point", "coordinates": [-86.4404992, 39.0775342]}, "properties": {"name": "Tent Area C", "tourism": "camp_site", "osm_id": 1663450518}}, {"type": "Feature", "geometry": {"type": "Point", "coordinates": [-86.4337759, 39.0829917]}, "properties": {"name": "Primitive Campground", "tourism": "camp_site", "osm_id": 1663450579}}, {"type": "Feature", "geometry": {"type": "Point", "coordinates": [-86.4410635, 39.0790458]}, "properties": {"name": "Tent Area B", "tourism": "camp_site", "osm_id": 1663450600}}, {"type": "Feature", "geometry": {"type": "Point", "coordinates": [-86.4386865, 39.0768554]}, "properties": {"name": "Tent Area E", "tourism": "camp_site", "osm_id": 1663450604}}, {"type": "Feature", "geometry": {"type": "Point", "coordinates": [-86.4416139, 39.0776591]}, "properties": {"name": "Tent Area D", "tourism": "camp_site", "osm_id": 1663450621}}, {"type": "Feature", "geometry": {"type": "Point", "coordinates": [-86.3836451, 39.0505604]}, "properties": {"backcountry": "yes", "name": "Campsite 24", "tourism": "camp_site", "osm_id": 1663956513}}, {"type": "Feature", "geometry": {"type": "Point", "coordinates": [-86.385433, 39.0572766]}, "properties": {"backcountry": "yes", "name": "Campsite 23", "tourism": "camp_site", "osm_id": 1663956514}}, {"type": "Feature", "geometry": {"type": "Point", "coordinates": [-86.3827684, 39.0621866]}, "properties": {"backcountry": "yes", "name": "Campsite 22", "tourism": "camp_site", "osm_id": 1663956520}}, {"type": "Feature", "geometry": {"type": "Point", "coordinates": [-86.3801766, 39.0644042]}, "properties": {"backcountry": "yes", "name": "Campsite 21", "tourism": "camp_site", "osm_id": 1663956524}}, {"type": "Feature", "geometry": {"type": "Point", "coordinates": [-86.3691189, 39.0731226]}, "properties": {"backcountry": "yes", "name": "Campsite 17", "tourism": "camp_site", "osm_id": 1663956528}}, {"type": "Feature", "geometry": {"type": "Point", "coordinates": [-86.3756645, 39.0760409]}, "properties": {"backcountry": "yes", "name": "Campsite 18", "tourism": "camp_site", "osm_id": 1663956532}}, {"type": "Feature", "geometry": {"type": "Point", "coordinates": [-86.3631766, 39.0474543]}, "properties": {"backcountry": "yes", "horse": "designated", "name": "Campsite 13", "tourism": "camp_site", "osm_id": 1663956541}}, {"type": "Feature", "geometry": {"type": "Point", "coordinates": [-86.3621468, 39.0532725]}, "properties": {"backcountry": "yes", "name": "Campsite 14", "tourism": "camp_site", "osm_id": 1663956544}}, {"type": "Feature", "geometry": {"type": "Point", "coordinates": [-86.3640666, 39.0532217]}, "properties": {"backcountry": "yes", "name": "Campsite 15", "tourism": "camp_site", "osm_id": 1663956549}}, {"type": "Feature", "geometry": {"type": "Point", "coordinates": [-86.3429834, 39.0415885]}, "properties": {"backcountry": "yes", "name": "Campsite 11", "tourism": "camp_site", "osm_id": 1663956551}}, {"type": "Feature", "geometry": {"type": "Point", "coordinates": [-86.3470057, 39.0352848]}, "properties": {"backcountry": "yes", "name": "Campsite 10", "tourism": "camp_site", "osm_id": 1663956557}}, {"type": "Feature", "geometry": {"type": "Point", "coordinates": [-86.369298, 39.0694953]}, "properties": {"backcountry": "yes", "name": "Campsite 16", "tourism": "camp_site", "osm_id": 1663956572}}, {"type": "Feature", "geometry": {"type": "Point", "coordinates": [-86.3025268, 39.038373]}, "properties": {"name": "Campsite 2", "tourism": "camp_site", "osm_id": 1663966838}}, {"type": "Feature", "geometry": {"type": "Point", "coordinates": [-86.3638589, 39.0082406]}, "properties": {"backcountry": "yes", "horse": "designated", "name": "Campsite 25", "tourism": "camp_site", "osm_id": 1663966856}}, {"type": "Feature", "geometry": {"type": "Point", "coordinates": [-86.3229569, 39.0689553]}, "properties": {"name": "Campsite 8", "tourism": "camp_site", "osm_id": 1663966860}}, {"type": "Feature", "geometry": {"type": "Point", "coordinates": [-86.3205746, 39.0670203]}, "properties": {"name": "Campsite 7", "tourism": "camp_site", "osm_id": 1663966868}}, {"type": "Feature", "geometry": {"type": "Point", "coordinates": [-86.2904993, 39.0409538]}, "properties": {"backcountry": "yes", "name": "Campsite 4", "tourism": "camp_site", "osm_id": 1663966883}}, {"type": "Feature", "geometry": {"type": "Point", "coordinates": [-86.2932468, 39.0528378]}, "properties": {"tourism": "camp_site", "osm_id": 1666217760}}, {"type": "Feature", "geometry": {"type": "Point", "coordinates": [-86.4301759, 39.0113939]}, "properties": {"name": "Hardin Ridge", "tourism": "camp_site", "osm_id": 1666457940}}, {"type": "Feature", "geometry": {"type": "Point", "coordinates": [-86.2946372, 38.9771007]}, "properties": {"name": "Hickory Ridge Horse Camp", "tourism": "camp_site", "website": "https://www.fs.usda.gov/r09/hoosier/recreation/trails/hickory-ridge-campground-and-trails", "osm_id": 1666600208}}, {"type": "Feature", "geometry": {"type": "Point", "coordinates": [-86.2944767, 38.193435]}, "properties": {"tourism": "camp_site", "osm_id": 1668280709}}, {"type": "Feature", "geometry": {"type": "Point", "coordinates": [-86.281442, 38.1840757]}, "properties": {"name": "Horsemen's Campground Non-electric", "tourism": "camp_site", "osm_id": 1668284435}}, {"type": "Feature", "geometry": {"type": "Point", "coordinates": [-86.6442291, 38.3787575]}, "properties": {"tourism": "caravan_site", "osm_id": 1670806550}}, {"type": "Feature", "geometry": {"type": "Point", "coordinates": [-86.6535316, 38.4055758]}, "properties": {"name": "Modern Campground", "tourism": "camp_site", "osm_id": 1670912565}}, {"type": "Feature", "geometry": {"type": "Point", "coordinates": [-86.4036016, 38.7329677]}, "properties": {"name": "Campground", "tourism": "camp_site", "osm_id": 1675292380}}, {"type": "Feature", "geometry": {"type": "Point", "coordinates": [-85.8638209, 38.476637]}, "properties": {"name": "Deam Lake Campground", "tourism": "camp_site", "osm_id": 1675481589}}, {"type": "Feature", "geometry": {"type": "Point", "coordinates": [-86.6068627, 38.1967647]}, "properties": {"name": "North Face Camping", "tourism": "camp_site", "osm_id": 1677965503}}, {"type": "Feature", "geometry": {"type": "Point", "coordinates": [-86.6083634, 38.1926342]}, "properties": {"capacity": "27", "fee": "yes", "name": "South Slope Camping", "note": "Drinking water available, frost free hydrant available in winter months Restroom:  Flush toilets, vault toilet available in winter months.", "operator": "Cradle of Forestry Concessionaires", "phone": "+1-812-843-4880", "tourism": "camp_site", "website": "https://www.fs.usda.gov/recarea/hoosier/recarea/?recid=41490", "osm_id": 1677965519}}, {"type": "Feature", "geometry": {"type": "Point", "coordinates": [-86.6823557, 38.4047078]}, "properties": {"name": "Fishermen's Campground", "tourism": "camp_site", "osm_id": 1678134098}}, {"type": "Feature", "geometry": {"type": "Point", "coordinates": [-86.2701775, 38.2168277]}, "properties": {"tourism": "camp_site", "osm_id": 1682454876}}, {"type": "Feature", "geometry": {"type": "Point", "coordinates": [-86.2854553, 38.184924]}, "properties": {"tourism": "camp_site", "osm_id": 1682459812}}, {"type": "Feature", "geometry": {"type": "Point", "coordinates": [-85.692707, 38.7764852]}, "properties": {"name": "Shale Bluff", "tourism": "camp_site", "osm_id": 1685599331}}, {"type": "Feature", "geometry": {"type": "Point", "coordinates": [-86.5217941, 39.0255788]}, "properties": {"name": "Jellystone", "tourism": "caravan_site", "osm_id": 1690223214}}, {"type": "Feature", "geometry": {"type": "Point", "coordinates": [-85.2419099, 39.0765995]}, "properties": {"name": "Group Camp Laughery", "tourism": "camp_site", "osm_id": 1691578371}}, {"type": "Feature", "geometry": {"type": "Point", "coordinates": [-85.2158558, 39.0765005]}, "properties": {"name": "Youth Tent Area", "tourism": "camp_site", "osm_id": 1691579658}}, {"type": "Feature", "geometry": {"type": "Point", "coordinates": [-85.2224729, 39.0775377]}, "properties": {"name": "Campground B", "tourism": "camp_site", "osm_id": 1691579660}}, {"type": "Feature", "geometry": {"type": "Point", "coordinates": [-85.2303952, 39.07852]}, "properties": {"name": "Campground A", "tourism": "camp_site", "osm_id": 1691579665}}, {"type": "Feature", "geometry": {"type": "Point", "coordinates": [-85.2199816, 39.0753252]}, "properties": {"name": "Campground C", "tourism": "camp_site", "osm_id": 1691579666}}, {"type": "Feature", "geometry": {"type": "Point", "coordinates": [-86.9927896, 38.1072238]}, "properties": {"name": "Lincoln State Park campground gatehouse", "tourism": "camp_site", "osm_id": 1699105062}}, {"type": "Feature", "geometry": {"type": "Point", "coordinates": [-86.9921512, 38.1048769]}, "properties": {"name": "Lake Lincoln Campground", "tourism": "camp_site", "osm_id": 1699119131}}, {"type": "Feature", "geometry": {"type": "Point", "coordinates": [-86.9900915, 38.1062908]}, "properties": {"name": "Buckhorn Primitive Campground/ Youth Tent Area", "tourism": "camp_site", "osm_id": 1699119136}}, {"type": "Feature", "geometry": {"type": "Point", "coordinates": [-86.9934068, 38.1094863]}, "properties": {"name": "Gobbler's Run Non-electric Campground", "tourism": "camp_site", "osm_id": 1699119140}}, {"type": "Feature", "geometry": {"type": "Point", "coordinates": [-86.5881556, 37.9515124]}, "properties": {"access": "yes", "capacity:caravans": "20", "name": "German Ridge Campground", "tourism": "camp_site", "osm_id": 1699441200}}, {"type": "Feature", "geometry": {"type": "Point", "coordinates": [-88.6568302, 37.5232118]}, "properties": {"capacity": "21", "charge": "10 USD", "dog": "leashed", "fee": "yes", "horse": "no", "internet_access": "no", "name": "Red Bud Campground", "opening_hours": "Mar 15-Dec 15 open; Dec 16-Mar 14 closed", "reservation": "no;first-come-first-serve", "tourism": "camp_site", "website": "https://www.fs.usda.gov/recarea/shawnee/recreation/recarea/?recid=13020", "osm_id": 1721334781}}, {"type": "Feature", "geometry": {"type": "Point", "coordinates": [-86.3656147, 38.9491614]}, "properties": {"name": "Stone Creek Campground & Trails", "tourism": "camp_site", "osm_id": 1773228451}}, {"type": "Feature", "geometry": {"type": "Point", "coordinates": [-87.4358108, 38.8759248]}, "properties": {"tourism": "caravan_site", "osm_id": 1938160146}}, {"type": "Feature", "geometry": {"type": "Point", "coordinates": [-88.5826521, 37.5256849]}, "properties": {"name": "Bear Branch Horse Resort", "tourism": "camp_site", "osm_id": 2150566260}}, {"type": "Feature", "geometry": {"type": "Point", "coordinates": [-88.584594, 37.5265698]}, "properties": {"name": "Bear Branch Horse Resort", "tourism": "caravan_site", "osm_id": 2150567042}}, {"type": "Feature", "geometry": {"type": "Point", "coordinates": [-85.1512319, 38.6685155]}, "properties": {"name": "General Butler State Park Campground", "tourism": "caravan_site", "osm_id": 2411451369}}, {"type": "Feature", "geometry": {"type": "Point", "coordinates": [-86.2345121, 37.385225]}, "properties": {"name": "Loucon Camping and Retreat Center", "tourism": "camp_site", "website": "https://www.loucon.org/", "osm_id": 2485996338}}, {"type": "Feature", "geometry": {"type": "Point", "coordinates": [-89.4227721, 37.5150349]}, "properties": {"name": "Pine Hills Campground", "operator": "Shawnee National Forest", "toilets": "yes", "tourism": "camp_site", "website": "https://www.fs.usda.gov/recarea/shawnee/recarea/?recid=10677", "osm_id": 2700222734}}, {"type": "Feature", "geometry": {"type": "Point", "coordinates": [-86.1544798, 37.1717783]}, "properties": {"name": "Turnhole Bend CG", "tourism": "camp_site", "osm_id": 2977745077}}, {"type": "Feature", "geometry": {"type": "Point", "coordinates": [-88.1064676, 36.7744837]}, "properties": {"name": "Fenton Campground & Boat Ramp at Land Between The Lakes", "operator": "USDA Forest Service", "phone": "+1-270-924-2000", "tourism": "camp_site", "website": "https://www.landbetweenthelakes.us/seendo/camping/backcountry/", "osm_id": 3007793458}}, {"type": "Feature", "geometry": {"type": "Point", "coordinates": [-88.160395, 36.927518]}, "properties": {"name": "Birmangham Ferry Backcountry Area & Boat Ramp at Land Between The Lakes", "operator": "United States Forest Service", "phone": "+1-270-924-2000", "tourism": "camp_site", "website": "https://www.landbetweenthelakes.us/seendo/camping/backcountry/", "osm_id": 3007812781}}, {"type": "Feature", "geometry": {"type": "Point", "coordinates": [-88.0900505, 37.4668185]}, "properties": {"name": "Riverview Park at Dam 50 Primitive Campsite", "tourism": "camp_site", "osm_id": 3012608065}}, {"type": "Feature", "geometry": {"type": "Point", "coordinates": [-88.0950173, 37.4658233]}, "properties": {"name": "Riverview Park at Dam 50 RV site", "source": "GPS", "tourism": "caravan_site", "osm_id": 3012608066}}, {"type": "Feature", "geometry": {"type": "Point", "coordinates": [-88.1586457, 37.4718256]}, "properties": {"name": "Cave In Rock State Park RV Site", "source": "GPS", "tourism": "caravan_site", "osm_id": 3013643430}}, {"type": "Feature", "geometry": {"type": "Point", "coordinates": [-88.1545597, 37.4704365]}, "properties": {"source": "GPS", "tourism": "camp_site", "osm_id": 3013651503}}, {"type": "Feature", "geometry": {"type": "Point", "coordinates": [-88.1548037, 37.47222]}, "properties": {"tourism": "camp_site", "osm_id": 3013651604}}, {"type": "Feature", "geometry": {"type": "Point", "coordinates": [-88.2334187, 37.4582604]}, "properties": {"name": "Tower Rock Campsite", "tourism": "camp_site", "website": "http://souternmostillinois.com", "osm_id": 3016803034}}, {"type": "Feature", "geometry": {"type": "Point", "coordinates": [-88.200768, 37.4619051]}, "properties": {"tourism": "caravan_site", "osm_id": 3016804365}}, {"type": "Feature", "geometry": {"type": "Point", "coordinates": [-88.1647957, 37.4669293]}, "properties": {"tourism": "caravan_site", "osm_id": 3016805287}}, {"type": "Feature", "geometry": {"type": "Point", "coordinates": [-88.1586877, 37.4727839]}, "properties": {"capacity": "34", "tourism": "camp_site", "osm_id": 3016805608}}, {"type": "Feature", "geometry": {"type": "Point", "coordinates": [-88.0534013, 36.9604942]}, "properties": {"name": "Cravens Bay Campground & Boat Ramp at Land Between The Lakes", "operator": "USDA Forest Service", "phone": "+1-270-924-2000", "tourism": "camp_site", "website": "https://www.landbetweenthelakes.us/seendo/camping/backcountry/", "osm_id": 3073457700}}, {"type": "Feature", "geometry": {"type": "Point", "coordinates": [-88.082253, 38.7610288]}, "properties": {"addr:city": "Olney", "addr:housenumber": "5238", "addr:postcode": "62450", "addr:street": "North Silver Road", "name": "Lakeside R.V. Park & Campground", "tourism": "caravan_site", "osm_id": 3112877280}}, {"type": "Feature", "geometry": {"type": "Point", "coordinates": [-84.4178665, 39.0771453]}, "properties": {"group_only": "yes", "impromptu": "no", "operator": "Cincinnati Parks", "tourism": "camp_site", "osm_id": 3181889161}}, {"type": "Feature", "geometry": {"type": "Point", "coordinates": [-86.29472, 39.0111724]}, "properties": {"tourism": "camp_site", "osm_id": 3292809032}}, {"type": "Feature", "geometry": {"type": "Point", "coordinates": [-86.3123044, 38.9859998]}, "properties": {"tourism": "camp_site", "osm_id": 3292809033}}, {"type": "Feature", "geometry": {"type": "Point", "coordinates": [-86.0762863, 37.1065098]}, "properties": {"tourism": "camp_site", "osm_id": 3416439626}}, {"type": "Feature", "geometry": {"type": "Point", "coordinates": [-84.7445103, 38.8814482]}, "properties": {"addr:city": "Union", "addr:housenumber": "3380", "addr:postcode": "41091", "addr:state": "KY", "addr:street": "Beaver Road", "alt_name": "Big Bone Lick State Park", "name": "Big Bone Lick State Historic Site", "phone": "+1-859-384-3522", "tourism": "camp_site", "osm_id": 3468180187}}, {"type": "Feature", "geometry": {"type": "Point", "coordinates": [-89.4631518, 37.4544389]}, "properties": {"tourism": "camp_site", "osm_id": 3995688953}}, {"type": "Feature", "geometry": {"type": "Point", "coordinates": [-85.1845434, 38.6782737]}, "properties": {"addr:city": "Carrollton", "addr:housenumber": "320", "addr:postcode": "41008", "addr:state": "KY", "addr:street": "2nd Street", "description": "RV Park located adjacent to Point Park on the Kentucky River.", "name": "Two Rivers Campground", "tourism": "caravan_site", "osm_id": 4062125691}}, {"type": "Feature", "geometry": {"type": "Point", "coordinates": [-86.4589695, 39.028014]}, "properties": {"capacity": "40", "description": "Reservations are made by calling 1-877-444-6777 April 15 through September 30. There is a $10 reservation fee and a cancellation fee. Reservation information at: http://www.recreation.gov. Drinking water available Vault and Flush Toilet available", "fee": "yes", "name": "Pine Loop campground", "operator": "Cradle of Forestry Concessionaires", "phone": "+1-877-444-6777", "tourism": "camp_site", "website": "https://www.fs.usda.gov/recarea/hoosier/recarea/?recid=41482", "osm_id": 4735260328}}, {"type": "Feature", "geometry": {"type": "Point", "coordinates": [-84.0729979, 37.3872249]}, "properties": {"fee": "no", "name": "S-Tree Campground FREE", "note": "Vault toilets are available", "operator": "U.S. Forest Service,London Ranger District", "phone": "+1-606-864-4163", "tourism": "camp_site", "website": "https://www.fs.usda.gov/recarea/dbnf/recarea/?recid=39572", "osm_id": 4735265433}}, {"type": "Feature", "geometry": {"type": "Point", "coordinates": [-82.7369649, 36.6973053]}, "properties": {"name": "Primitive Campground", "tourism": "camp_site", "osm_id": 4749963201}}, {"type": "Feature", "geometry": {"type": "Point", "coordinates": [-83.6880561, 37.8183949]}, "properties": {"tourism": "camp_site", "osm_id": 4902981440}}, {"type": "Feature", "geometry": {"type": "Point", "coordinates": [-83.6928197, 37.8213273]}, "properties": {"tourism": "camp_site", "osm_id": 4902981442}}, {"type": "Feature", "geometry": {"type": "Point", "coordinates": [-83.6966767, 37.8199204]}, "properties": {"tourism": "camp_site", "osm_id": 4902981449}}, {"type": "Feature", "geometry": {"type": "Point", "coordinates": [-83.6997505, 37.8225138]}, "properties": {"tourism": "camp_site", "osm_id": 4902981454}}, {"type": "Feature", "geometry": {"type": "Point", "coordinates": [-82.8782967, 37.8439569]}, "properties": {"tourism": "camp_site", "osm_id": 5001134869}}, {"type": "Feature", "geometry": {"type": "Point", "coordinates": [-88.7626541, 37.5419805]}, "properties": {"name": "Camp Ondessonk", "tourism": "camp_site", "osm_id": 5049952266}}, {"type": "Feature", "geometry": {"type": "Point", "coordinates": [-83.4944511, 38.0734025]}, "properties": {"name": "Zilpo Recreation Area", "tourism": "camp_site", "website": "https://www.fs.usda.gov/recarea/dbnf/recarea/?recid=39322", "osm_id": 5139454982}}, {"type": "Feature", "geometry": {"type": "Point", "coordinates": [-86.3757944, 39.0728071]}, "properties": {"alt_name": "Lakeside", "backcountry": "yes", "description": "sometimes submerged due to flooding", "name": "Campsite 19", "tourism": "camp_site", "osm_id": 5266026954}}, {"type": "Feature", "geometry": {"type": "Point", "coordinates": [-86.3609363, 39.0493103]}, "properties": {"backcountry": "yes", "name": "Campsite 12", "tourism": "camp_site", "osm_id": 5266028748}}, {"type": "Feature", "geometry": {"type": "Point", "coordinates": [-86.3752304, 39.0694407]}, "properties": {"backcountry": "yes", "name": "Campsite 20", "tourism": "camp_site", "osm_id": 5266029526}}, {"type": "Feature", "geometry": {"type": "Point", "coordinates": [-89.5583213, 38.9893157]}, "properties": {"addr:city": "Sorento", "addr:housenumber": "1696", "addr:postcode": "62086", "addr:state": "IL", "addr:street": "Lake Road", "name": "Gnaw Bone Campground", "phone": "+1-217-272-4156", "source": "local knowledge", "tourism": "camp_site", "website": "https://www.facebook.com/GnawboneCampground/", "osm_id": 5695516255}}, {"type": "Feature", "geometry": {"type": "Point", "coordinates": [-83.7818329, 37.8365958]}, "properties": {"addr:housenumber": "5515", "addr:postcode": "40380", "addr:street": "Campton Road", "name": "Callies", "name:en": "Callies Lake And Campground In Red River Gorge", "phone": "+1 606-481-4524", "tourism": "camp_site", "website": "http://stantoncampground.com/", "osm_id": 5724389921}}, {"type": "Feature", "geometry": {"type": "Point", "coordinates": [-82.5262143, 36.8694059]}, "properties": {"backcountry": "no", "capacity": "34", "caravans": "yes", "fee": "yes", "group_only": "no", "internet_access": "no", "name": "Bark Camp Recreation Area Campground", "operator": "National Forest Service, Clinch Ranger District: (276) 679-8370", "sanitary_dump_station": "yes", "tents": "yes", "tourism": "camp_site", "website": "https://www.fs.usda.gov/recarea/gwj/recreation/camping-cabins/recarea/?recid=73559&actid=29", "osm_id": 5856747685}}, {"type": "Feature", "geometry": {"type": "Point", "coordinates": [-82.007301, 36.5644042]}, "properties": {"capacity": "27", "description": "Tent camping,Camping trailer,Fee charged for some activities,Picnic tables,Toilets,Drinking water,Parking", "fee": "yes", "internet_access": "no", "name": "Jacobs Creek Campground", "operator": "US Forest Service", "tourism": "camp_site", "osm_id": 5857238904}}, {"type": "Feature", "geometry": {"type": "Point", "coordinates": [-82.0615041, 36.5194732]}, "properties": {"capacity": "70", "description": "Boat ramp,Tent camping,Picnic tables,Toilets,Drinking water,Parking", "fee": "yes", "name": "Little Oak Campground", "tourism": "camp_site", "osm_id": 5857240455}}, {"type": "Feature", "geometry": {"type": "Point", "coordinates": [-89.1948546, 37.5893429]}, "properties": {"name": "Horse Campground", "tourism": "camp_site", "osm_id": 5999202077}}, {"type": "Feature", "geometry": {"type": "Point", "coordinates": [-88.268178, 37.6148412]}, "properties": {"name": "Pine Ridge Campground", "other_name": "Pounds Hollow Recreation Area", "tourism": "camp_site", "osm_id": 6004130755}}, {"type": "Feature", "geometry": {"type": "Point", "coordinates": [-88.3831928, 37.592306]}, "properties": {"backcountry": "yes", "tourism": "camp_site", "osm_id": 6033321402}}, {"type": "Feature", "geometry": {"type": "Point", "coordinates": [-88.6683528, 37.4805017]}, "properties": {"tourism": "camp_site", "osm_id": 6085166763}}, {"type": "Feature", "geometry": {"type": "Point", "coordinates": [-88.6704074, 37.4821551]}, "properties": {"tourism": "camp_site", "osm_id": 6085171245}}, {"type": "Feature", "geometry": {"type": "Point", "coordinates": [-88.6882012, 37.4828515]}, "properties": {"tourism": "camp_site", "osm_id": 6085199002}}, {"type": "Feature", "geometry": {"type": "Point", "coordinates": [-88.8100808, 37.4860867]}, "properties": {"tourism": "camp_site", "osm_id": 6085244283}}, {"type": "Feature", "geometry": {"type": "Point", "coordinates": [-88.8227408, 37.480689]}, "properties": {"tourism": "camp_site", "osm_id": 6085265660}}, {"type": "Feature", "geometry": {"type": "Point", "coordinates": [-88.9163137, 37.4898323]}, "properties": {"tourism": "camp_site", "osm_id": 6085302205}}, {"type": "Feature", "geometry": {"type": "Point", "coordinates": [-88.9827317, 37.5293728]}, "properties": {"name": "Turkey Ridge Tent Campground", "tourism": "camp_site", "website": "https://www.dnr.illinois.gov/Parks/Camp/Pages/FerneClyffe.aspx", "osm_id": 6085311040}}, {"type": "Feature", "geometry": {"type": "Point", "coordinates": [-89.0834056, 37.5935675]}, "properties": {"tourism": "camp_site", "osm_id": 6085372008}}, {"type": "Feature", "geometry": {"type": "Point", "coordinates": [-88.2005197, 36.9886446]}, "properties": {"access": "yes", "name": "Nickell Branch Basic Campground", "operator": "Land Between the Lakes", "tourism": "camp_site", "website": "https://www.landbetweenthelakes.us/seendo/camping/basic/", "osm_id": 6272014509}}, {"type": "Feature", "geometry": {"type": "Point", "coordinates": [-88.5465113, 37.0849419]}, "properties": {"name": "Pearcy Camp", "source": "USGS Topo map", "tourism": "camp_site", "osm_id": 6399746040}}, {"type": "Feature", "geometry": {"type": "Point", "coordinates": [-83.2293614, 38.6750284]}, "properties": {"backcountry": "yes", "name": "Camp 6", "operator": "Shawnee State Park", "tents": "yes", "tourism": "camp_site", "osm_id": 6548696018}}, {"type": "Feature", "geometry": {"type": "Point", "coordinates": [-83.116379, 38.737257]}, "properties": {"access": "yes", "backcountry": "yes", "caravans": "no", "fee": "no", "name": "Camp 2", "operator": "Shawnee State Park", "static_caravans": "no", "tents": "yes", "tourism": "camp_site", "osm_id": 6548706817}}, {"type": "Feature", "geometry": {"type": "Point", "coordinates": [-83.1812822, 38.7003371]}, "properties": {"backcountry": "yes", "caravans": "no", "fee": "no", "name": "Camp 4", "operator": "Shawnee State Park", "static_caravans": "no", "tents": "yes", "tourism": "camp_site", "osm_id": 6548707683}}, {"type": "Feature", "geometry": {"type": "Point", "coordinates": [-83.25195, 38.7241333]}, "properties": {"backcountry": "yes", "name": "Camp 7", "operator": "Shawnee State Park", "tents": "yes", "tourism": "camp_site", "osm_id": 6548709204}}, {"type": "Feature", "geometry": {"type": "Point", "coordinates": [-82.63587, 38.6202596]}, "properties": {"name": "Two Point Group Campground", "operator": "USFS", "tourism": "camp_site", "osm_id": 6708212982}}, {"type": "Feature", "geometry": {"type": "Point", "coordinates": [-86.7872097, 37.907886]}, "properties": {"name": "Vastwood Park", "phone": "+1-270-927-8778", "tourism": "camp_site", "osm_id": 6893859385}}, {"type": "Feature", "geometry": {"type": "Point", "coordinates": [-86.4086152, 39.0648309]}, "properties": {"name": "Monroe Causeway Campground", "tourism": "camp_site", "website": "https://monroecausewaycamp.com", "osm_id": 6909970053}}, {"type": "Feature", "geometry": {"type": "Point", "coordinates": [-89.5194638, 37.8342532]}, "properties": {"access": "yes", "camp_site:reservations": "no", "capacity": "20", "fee": "yes", "horse": "yes", "name": "Johnson Creek Campground", "opening_hours": "closed; Mar 15-Dec 15: open", "tourism": "camp_site", "website": "https://www.fs.usda.gov/recarea/shawnee/recreation/horseriding-camping/recarea/?recid=10672&actid=30", "osm_id": 6927706674}}, {"type": "Feature", "geometry": {"type": "Point", "coordinates": [-88.3792508, 37.6022558]}, "properties": {"access": "yes", "fee": "yes", "name": "Pharaoh Campground", "tourism": "camp_site", "osm_id": 6928911364}}, {"type": "Feature", "geometry": {"type": "Point", "coordinates": [-88.39288, 37.6920231]}, "properties": {"name": "Saline County State Fish & Wildlife Area", "tourism": "camp_site", "osm_id": 6928948099}}, {"type": "Feature", "geometry": {"type": "Point", "coordinates": [-88.6651289, 37.3823356]}, "properties": {"name": "Cedar Grove Camping Area", "tourism": "camp_site", "url:map": "https://www.dnr.illinois.gov/Parks/PublishingImages/DixonSpringsSiteMapFullSize.PNG", "website:reservation": "https://newyorkstateparks.reserveamerica.com/camping/glimmerglass-state-park/r/campgroundDetails.do?contractCode=NY&parkId=78", "osm_id": 6937479898}}, {"type": "Feature", "geometry": {"type": "Point", "coordinates": [-88.665529, 37.3851698]}, "properties": {"name": "Tent", "tourism": "camp_site", "osm_id": 6937509941}}, {"type": "Feature", "geometry": {"type": "Point", "coordinates": [-88.6419969, 37.5414953]}, "properties": {"fee": "no", "name": "Teal Pond Campground", "tourism": "camp_site", "osm_id": 6938494072}}, {"type": "Feature", "geometry": {"type": "Point", "coordinates": [-89.1083564, 37.6453935]}, "properties": {"fee": "yes", "name": "Devil's Kitchen Campground", "phone": "+1-618-998-5933", "tourism": "camp_site", "osm_id": 6947157209}}, {"type": "Feature", "geometry": {"type": "Point", "coordinates": [-84.5683944, 38.4829247]}, "properties": {"name": "Three Springs Campground", "tourism": "camp_site", "osm_id": 7396276398}}, {"type": "Feature", "geometry": {"type": "Point", "coordinates": [-85.994806, 37.1377225]}, "properties": {"addr:city": "Cave City", "addr:housenumber": "950", "addr:postcode": "42127", "addr:state": "KY", "addr:street": "Mammoth Cave Road", "name": "Jellystone Park at Mammoth Cave", "tourism": "camp_site", "website": "https://www.jellystonemammothcave.com/", "osm_id": 7482396186}}, {"type": "Feature", "geometry": {"type": "Point", "coordinates": [-83.5751691, 38.0859998]}, "properties": {"name": "White Sulphur Horse Camp", "tourism": "camp_site", "website": "https://www.fs.usda.gov/recarea/dbnf/recarea/?recid=39340", "osm_id": 7714117803}}, {"type": "Feature", "geometry": {"type": "Point", "coordinates": [-82.7474758, 37.1080153]}, "properties": {"name": "Swindall Campsite", "tourism": "camp_site", "osm_id": 7911525423}}, {"type": "Feature", "geometry": {"type": "Point", "coordinates": [-82.6890439, 37.132865]}, "properties": {"name": "Indian Grave Campsite", "tourism": "camp_site", "osm_id": 7911525640}}, {"type": "Feature", "geometry": {"type": "Point", "coordinates": [-82.6489207, 37.1506925]}, "properties": {"name": "Jack Sutter Campsite", "tourism": "camp_site", "osm_id": 7911525656}}, {"type": "Feature", "geometry": {"type": "Point", "coordinates": [-82.4821034, 37.230134]}, "properties": {"name": "Mullins Pond Campsite", "tourism": "camp_site", "osm_id": 7911526059}}, {"type": "Feature", "geometry": {"type": "Point", "coordinates": [-83.4291565, 37.327056]}, "properties": {"name": "Gays Creek Campground", "tourism": "camp_site", "osm_id": 7917975820}}, {"type": "Feature", "geometry": {"type": "Point", "coordinates": [-88.3336113, 37.6007186]}, "properties": {"addr:city": "Equality", "addr:housenumber": "2245", "addr:postcode": "62934", "addr:state": "IL", "addr:street": "Knob Hill Lane", "contact:facebook": "https://www.facebook.com/groups/144344675580490/", "fee": "yes", "name": "High Knob Campground", "phone": "+1-618-275-4494", "tourism": "camp_site", "website": "https://highknobcampground.net/", "osm_id": 7949205080}}, {"type": "Feature", "geometry": {"type": "Point", "coordinates": [-82.1785217, 37.6186494]}, "properties": {"addr:housenumber": "585", "addr:postcode": "41544", "addr:street": "River Road", "email": "info@hatfieldshideout.com", "internet_access": "wlan", "name": "Hatfield\u2019s Hideout Riverfront Cabins and Campground", "opening_hours": "24/7", "phone": "+1-304-785-6922", "tourism": "camp_site", "website": "https://hatfieldshideout.com/", "osm_id": 8039559485}}, {"type": "Feature", "geometry": {"type": "Point", "coordinates": [-89.4972333, 37.4714833]}, "properties": {"backcountry": "yes", "name": "Trail of Tears State Park Backpacking Campsite", "tourism": "camp_site", "osm_id": 8060547917}}, {"type": "Feature", "geometry": {"type": "Point", "coordinates": [-87.835965, 38.3510984]}, "properties": {"access": "yes", "addr:city": "Mount Carmel", "addr:housenumber": "9285", "addr:postcode": "62863", "addr:state": "IL", "addr:street": "Baell Woods Avenue", "capacity": "16", "electricity": "no", "name": "Camping at Baell Woods", "operator": "State (Illinois DNR)", "shower": "no", "tourism": "camp_site", "osm_id": 8144134548}}, {"type": "Feature", "geometry": {"type": "Point", "coordinates": [-83.9168982, 37.4680947]}, "properties": {"name": "Turkey Foot Campground FREE", "tourism": "camp_site", "osm_id": 8200162460}}, {"type": "Feature", "geometry": {"type": "Point", "coordinates": [-83.1360287, 38.3649028]}, "properties": {"access": "permit", "capacity": "2", "name": "Eagles Nest", "tourism": "camp_site", "osm_id": 8211167585}}, {"type": "Feature", "geometry": {"type": "Point", "coordinates": [-83.1239815, 38.3651899]}, "properties": {"backcountry": "yes", "name": "Johson Homeplace", "tourism": "camp_site", "osm_id": 8211167711}}, {"type": "Feature", "geometry": {"type": "Point", "coordinates": [-85.2348241, 37.5650169]}, "properties": {"capacity": "20", "tourism": "caravan_site", "osm_id": 8404051571}}, {"type": "Feature", "geometry": {"type": "Point", "coordinates": [-84.9372648, 38.6632235]}, "properties": {"name": "Sparta Campground", "tourism": "camp_site", "osm_id": 8467972337}}, {"type": "Feature", "geometry": {"type": "Point", "coordinates": [-86.3073443, 39.0140294]}, "properties": {"tourism": "camp_site", "osm_id": 8642096038}}, {"type": "Feature", "geometry": {"type": "Point", "coordinates": [-86.3091496, 39.0168013]}, "properties": {"fee": "no", "tourism": "camp_site", "osm_id": 8642096055}}, {"type": "Feature", "geometry": {"type": "Point", "coordinates": [-86.3217402, 38.9882033]}, "properties": {"tourism": "camp_site", "osm_id": 8666230548}}, {"type": "Feature", "geometry": {"type": "Point", "coordinates": [-86.3054237, 38.9909237]}, "properties": {"tourism": "camp_site", "osm_id": 8666230577}}, {"type": "Feature", "geometry": {"type": "Point", "coordinates": [-86.3059772, 38.9940143]}, "properties": {"tourism": "camp_site", "osm_id": 8666230580}}, {"type": "Feature", "geometry": {"type": "Point", "coordinates": [-86.3036787, 39.0050637]}, "properties": {"tourism": "camp_site", "osm_id": 8666230582}}, {"type": "Feature", "geometry": {"type": "Point", "coordinates": [-86.3036796, 39.0083911]}, "properties": {"tourism": "camp_site", "osm_id": 8666230584}}, {"type": "Feature", "geometry": {"type": "Point", "coordinates": [-86.2844411, 39.0110788]}, "properties": {"tourism": "camp_site", "osm_id": 8666230590}}, {"type": "Feature", "geometry": {"type": "Point", "coordinates": [-86.2726213, 39.0110317]}, "properties": {"tourism": "camp_site", "osm_id": 8666230595}}, {"type": "Feature", "geometry": {"type": "Point", "coordinates": [-86.2667577, 39.0094648]}, "properties": {"tourism": "camp_site", "osm_id": 8666234278}}, {"type": "Feature", "geometry": {"type": "Point", "coordinates": [-86.2690863, 38.9928648]}, "properties": {"tourism": "camp_site", "osm_id": 8666234283}}, {"type": "Feature", "geometry": {"type": "Point", "coordinates": [-86.2696954, 38.9915749]}, "properties": {"tourism": "camp_site", "osm_id": 8666234285}}, {"type": "Feature", "geometry": {"type": "Point", "coordinates": [-86.2711, 38.9911486]}, "properties": {"tourism": "camp_site", "osm_id": 8666234286}}, {"type": "Feature", "geometry": {"type": "Point", "coordinates": [-86.2832548, 38.9912375]}, "properties": {"tourism": "camp_site", "osm_id": 8666234292}}, {"type": "Feature", "geometry": {"type": "Point", "coordinates": [-86.2845818, 38.990205]}, "properties": {"tourism": "camp_site", "osm_id": 8666234299}}, {"type": "Feature", "geometry": {"type": "Point", "coordinates": [-86.2863752, 38.9915668]}, "properties": {"tourism": "camp_site", "osm_id": 8666234305}}, {"type": "Feature", "geometry": {"type": "Point", "coordinates": [-86.3042213, 38.9885869]}, "properties": {"tourism": "camp_site", "osm_id": 8666234308}}, {"type": "Feature", "geometry": {"type": "Point", "coordinates": [-86.3118822, 39.0239191]}, "properties": {"tourism": "camp_site", "osm_id": 8666267500}}, {"type": "Feature", "geometry": {"type": "Point", "coordinates": [-86.315851, 39.0257964]}, "properties": {"tourism": "camp_site", "osm_id": 8666267507}}, {"type": "Feature", "geometry": {"type": "Point", "coordinates": [-86.3161757, 39.0280363]}, "properties": {"tourism": "camp_site", "osm_id": 8666267509}}, {"type": "Feature", "geometry": {"type": "Point", "coordinates": [-86.3182631, 39.0312203]}, "properties": {"tourism": "camp_site", "osm_id": 8666267512}}, {"type": "Feature", "geometry": {"type": "Point", "coordinates": [-86.3202718, 39.0374976]}, "properties": {"name": "Campsite 1", "tourism": "camp_site", "osm_id": 8666267515}}, {"type": "Feature", "geometry": {"type": "Point", "coordinates": [-86.3177836, 39.0341683]}, "properties": {"tourism": "camp_site", "osm_id": 8666285017}}, {"type": "Feature", "geometry": {"type": "Point", "coordinates": [-86.2969084, 39.0387709]}, "properties": {"backcountry": "yes", "name": "Campsite 3", "tourism": "camp_site", "osm_id": 8686286912}}, {"type": "Feature", "geometry": {"type": "Point", "coordinates": [-86.3386925, 39.0553842]}, "properties": {"backcountry": "yes", "name": "Campsite 9", "tourism": "camp_site", "osm_id": 8686311880}}, {"type": "Feature", "geometry": {"type": "Point", "coordinates": [-86.3182902, 39.0565198]}, "properties": {"name": "Campsite 6", "tourism": "camp_site", "osm_id": 8686311881}}, {"type": "Feature", "geometry": {"type": "Point", "coordinates": [-86.304184, 39.0526617]}, "properties": {"backcountry": "yes", "name": "Campsite 5", "tourism": "camp_site", "osm_id": 8686311908}}, {"type": "Feature", "geometry": {"type": "Point", "coordinates": [-86.2883853, 39.0490405]}, "properties": {"tourism": "camp_site", "osm_id": 8686311926}}, {"type": "Feature", "geometry": {"type": "Point", "coordinates": [-86.2857365, 38.9711119]}, "properties": {"name": "Harden's Horse Camp", "tourism": "camp_site", "osm_id": 8694559069}}, {"type": "Feature", "geometry": {"type": "Point", "coordinates": [-85.9585573, 38.6474718]}, "properties": {"tourism": "camp_site", "osm_id": 8770143410}}, {"type": "Feature", "geometry": {"type": "Point", "coordinates": [-85.9999457, 38.7028144]}, "properties": {"tourism": "camp_site", "osm_id": 8770143411}}, {"type": "Feature", "geometry": {"type": "Point", "coordinates": [-85.9826225, 38.6963694]}, "properties": {"tourism": "camp_site", "osm_id": 8770143412}}, {"type": "Feature", "geometry": {"type": "Point", "coordinates": [-86.3152006, 39.0246893]}, "properties": {"tourism": "camp_site", "osm_id": 8873713870}}, {"type": "Feature", "geometry": {"type": "Point", "coordinates": [-86.3050532, 39.0109665]}, "properties": {"tourism": "camp_site", "osm_id": 8873713885}}, {"type": "Feature", "geometry": {"type": "Point", "coordinates": [-86.3049773, 39.0088176]}, "properties": {"tourism": "camp_site", "osm_id": 8873713894}}, {"type": "Feature", "geometry": {"type": "Point", "coordinates": [-86.3046405, 39.0023971]}, "properties": {"tourism": "camp_site", "osm_id": 8873713897}}, {"type": "Feature", "geometry": {"type": "Point", "coordinates": [-86.3045563, 38.9960391]}, "properties": {"tourism": "camp_site", "osm_id": 8873713901}}, {"type": "Feature", "geometry": {"type": "Point", "coordinates": [-83.5862674, 38.0460394]}, "properties": {"name": "Clear Creek Campground", "tourism": "camp_site", "website": "https://www.fs.usda.gov/recarea/dbnf/recarea/?recid=39332", "osm_id": 8903530222}}, {"type": "Feature", "geometry": {"type": "Point", "coordinates": [-83.4715529, 38.059236]}, "properties": {"name": "Claylick Boat-in Campground", "tourism": "camp_site", "website": "https://www.fs.usda.gov/recarea/dbnf/recarea/?recid=39338", "osm_id": 8903530476}}, {"type": "Feature", "geometry": {"type": "Point", "coordinates": [-83.5074966, 38.0909807]}, "properties": {"name": "Twin Knobs Recreation Area", "tourism": "camp_site", "website": "https://www.fs.usda.gov/recarea/dbnf/recarea/?recid=39324", "osm_id": 8903530893}}, {"type": "Feature", "geometry": {"type": "Point", "coordinates": [-83.5081313, 38.0892513]}, "properties": {"name": "Twin Knobs West Group Use Area", "tourism": "camp_site", "website": "https://www.fs.usda.gov/recarea/dbnf/recarea/?recid=39326", "osm_id": 8903530898}}, {"type": "Feature", "geometry": {"type": "Point", "coordinates": [-83.5021958, 38.0994719]}, "properties": {"name": "Boat Gunnel Group Campground", "phone": "+1-877-444-6777", "tourism": "camp_site", "website": "https://www.fs.usda.gov/recarea/dbnf/recarea/?recid=39344", "osm_id": 8903531678}}, {"type": "Feature", "geometry": {"type": "Point", "coordinates": [-83.1978438, 36.8635462]}, "properties": {"name": "South Evarts RV Park", "tourism": "caravan_site", "osm_id": 8910841360}}, {"type": "Feature", "geometry": {"type": "Point", "coordinates": [-85.2213167, 38.2313451]}, "properties": {"addr:city": "Shelbyville", "addr:housenumber": "1433", "addr:state": "KY", "addr:street": "Burks Branch Road", "leisure": "park", "name": "Lake Shelby Campground", "tourism": "caravan_site", "website": "https://shelbycountyparks.com/our-parks/lake-shelby-campground/", "osm_id": 8947567896}}, {"type": "Feature", "geometry": {"type": "Point", "coordinates": [-89.3585737, 37.4851726]}, "properties": {"fee": "yes", "name": "Trail of Tears Campground", "power_supply": "no", "reservation": "yes", "toilets": "yes", "tourism": "camp_site", "website": "https://camp.exploremoreil.com/location/282", "osm_id": 9008725850}}, {"type": "Feature", "geometry": {"type": "Point", "coordinates": [-86.4353005, 36.9162363]}, "properties": {"addr:city": "Bowling Green", "addr:housenumber": "1960", "addr:postcode": "42104", "addr:state": "KY", "addr:street": "Three Springs Road", "fee": "yes", "name": "Bowling Green KOA Holiday", "phone": "+1-800-562-2458", "tourism": "camp_site", "website": "https://www.koa.co", "osm_id": 9167328519}}, {"type": "Feature", "geometry": {"type": "Point", "coordinates": [-85.6914771, 38.773214]}, "properties": {"backcountry": "yes", "name": "Wooster", "tourism": "camp_site", "osm_id": 9216455202}}, {"type": "Feature", "geometry": {"type": "Point", "coordinates": [-86.6844913, 38.396347]}, "properties": {"backcountry": "yes", "name": "Backcountry Campsite 4", "tourism": "camp_site", "osm_id": 9258019850}}, {"type": "Feature", "geometry": {"type": "Point", "coordinates": [-86.6826096, 38.397662]}, "properties": {"backcountry": "yes", "name": "Backcountry Campsite 5", "tourism": "camp_site", "osm_id": 9258019854}}, {"type": "Feature", "geometry": {"type": "Point", "coordinates": [-86.6809256, 38.3960135]}, "properties": {"backcountry": "yes", "name": "Backcountry Campsite 6", "tourism": "camp_site", "osm_id": 9258019866}}, {"type": "Feature", "geometry": {"type": "Point", "coordinates": [-86.6803563, 38.395774]}, "properties": {"backcountry": "yes", "name": "Backcountry Campsite 7", "tourism": "camp_site", "osm_id": 9258019870}}, {"type": "Feature", "geometry": {"type": "Point", "coordinates": [-86.6863624, 38.3968724]}, "properties": {"backcountry": "yes", "name": "Backcountry Campsite 3", "tourism": "camp_site", "osm_id": 9258019897}}, {"type": "Feature", "geometry": {"type": "Point", "coordinates": [-86.6849837, 38.3986491]}, "properties": {"backcountry": "yes", "name": "Backcountry Campsite 2", "tourism": "camp_site", "osm_id": 9258019911}}, {"type": "Feature", "geometry": {"type": "Point", "coordinates": [-86.6837306, 38.399907]}, "properties": {"backcountry": "yes", "name": "Backcountry Campsite 1", "tourism": "camp_site", "osm_id": 9258019917}}, {"type": "Feature", "geometry": {"type": "Point", "coordinates": [-86.1331958, 37.3206388]}, "properties": {"tourism": "camp_site", "osm_id": 9275165481}}, {"type": "Feature", "geometry": {"type": "Point", "coordinates": [-85.6021134, 39.0222359]}, "properties": {"name": "Deer Creek Campground", "tourism": "camp_site", "osm_id": 9342298960}}, {"type": "Feature", "geometry": {"type": "Point", "coordinates": [-85.6944266, 36.6797533]}, "properties": {"backcountry": "no", "capacity": "5", "fee": "yes", "name": "Tompkinsville City Park", "phone": "+1-270-487-6776", "tourism": "camp_site", "website": "https://www.monroecountykytourism.com/campinglodging.html", "osm_id": 9360562437}}, {"type": "Feature", "geometry": {"type": "Point", "coordinates": [-86.6552475, 38.0608214]}, "properties": {"name": "Saddle Lake CG", "tourism": "camp_site", "osm_id": 9497039550}}, {"type": "Feature", "geometry": {"type": "Point", "coordinates": [-86.8827786, 38.3178223]}, "properties": {"capacity:caravans": "32", "name": "Dubois County Park", "tourism": "camp_site", "osm_id": 9712895553}}, {"type": "Feature", "geometry": {"type": "Point", "coordinates": [-82.9164955, 36.964801]}, "properties": {"name": "Portal 31 RV Park", "tourism": "camp_site", "osm_id": 9943985590}}, {"type": "Feature", "geometry": {"type": "Point", "coordinates": [-82.4902127, 36.9384732]}, "properties": {"name": "Lonesome Pine RV Park & Campground", "tourism": "camp_site", "osm_id": 9960641248}}, {"type": "Feature", "geometry": {"type": "Point", "coordinates": [-89.30068, 38.8776718]}, "properties": {"name": "Bonanza Campground", "tourism": "camp_site", "osm_id": 9987496070}}, {"type": "Feature", "geometry": {"type": "Point", "coordinates": [-89.4163552, 39.0575678]}, "properties": {"name": "Indian Grove Campground", "tourism": "camp_site", "osm_id": 9987524099}}, {"type": "Feature", "geometry": {"type": "Point", "coordinates": [-89.2971912, 38.9071419]}, "properties": {"name": "Bond Christian Service Camp", "tourism": "camp_site", "osm_id": 9987528633}}, {"type": "Feature", "geometry": {"type": "Point", "coordinates": [-89.0963805, 39.0687982]}, "properties": {"tourism": "camp_site", "osm_id": 9987556287}}, {"type": "Feature", "geometry": {"type": "Point", "coordinates": [-89.5192753, 38.7612572]}, "properties": {"name": "Tomahawk Campground", "tourism": "camp_site", "osm_id": 9987563913}}, {"type": "Feature", "geometry": {"type": "Point", "coordinates": [-88.9658375, 38.3125297]}, "properties": {"name": "Archway RV Park", "tourism": "caravan_site", "website": "https://archwayrvpark.com/", "osm_id": 10005209506}}, {"type": "Feature", "geometry": {"type": "Point", "coordinates": [-83.2080433, 38.6602448]}, "properties": {"access": "permit", "backcountry": "yes", "caravans": "no", "fee": "no", "name": "Camp 5", "operator": "Shawnee State Park", "static_caravans": "no", "tents": "yes", "tourism": "camp_site", "osm_id": 10177525008}}, {"type": "Feature", "geometry": {"type": "Point", "coordinates": [-86.1752729, 37.2442968]}, "properties": {"capacity:persons": "8", "caravans": "no", "name": "Ferguson Campsite", "operator": "Mammoth Cave National Park", "static_caravans": "no", "tourism": "camp_site", "website": "https://www.recreation.gov/camping/campsites/10048987", "osm_id": 10723433853}}, {"type": "Feature", "geometry": {"type": "Point", "coordinates": [-86.1881598, 37.2174818]}, "properties": {"name": "Collie Ridge Campsite", "operator": "Mammoth Cave National Park", "tents": "yes", "tourism": "camp_site", "website": "https://www.recreation.gov/camping/campsites/10048993", "osm_id": 10723433854}}, {"type": "Feature", "geometry": {"type": "Point", "coordinates": [-86.1855231, 37.2057635]}, "properties": {"name": "Bluffs Campsite", "operator": "Mammoth Cave National Park", "tourism": "camp_site", "website": "https://www.recreation.gov/camping/campsites/10048994", "osm_id": 10723433855}}, {"type": "Feature", "geometry": {"type": "Point", "coordinates": [-86.1823957, 37.1951088]}, "properties": {"name": "Sal Hollow Campsite", "operator": "Mammoth Cave National Park", "tents": "yes", "tourism": "camp_site", "website": "https://www.recreation.gov/camping/campsites/10048995", "osm_id": 10723433860}}, {"type": "Feature", "geometry": {"type": "Point", "coordinates": [-86.1570948, 37.2120964]}, "properties": {"name": "Homestead Campsite", "operator": "Mammoth Cave National Park", "tents": "yes", "tourism": "camp_site", "website": "https://www.recreation.gov/camping/campsites/10048985", "osm_id": 10723433868}}, {"type": "Feature", "geometry": {"type": "Point", "coordinates": [-86.1414479, 37.2350217]}, "properties": {"access": "permit", "capacity:persons": "8", "caravans": "no", "dog": "yes", "drinking_water": "yes", "fee": "yes", "name": "Raymer Hollow Campsite", "openfire": "yes", "operator": "Mammoth Cave National Park", "static_caravans": "no", "tents": "yes", "tourism": "camp_site", "website": "https://www.recreation.gov/camping/campsites/10048986", "osm_id": 10723433878}}, {"type": "Feature", "geometry": {"type": "Point", "coordinates": [-84.2324561, 36.9927718]}, "properties": {"name": "White Oak Campground", "tourism": "camp_site", "osm_id": 11006503589}}, {"type": "Feature", "geometry": {"type": "Point", "coordinates": [-88.7550025, 37.5177118]}, "properties": {"group_only": "yes", "name": "Camp Ondessonk", "tourism": "camp_site", "osm_id": 11165438727}}, {"type": "Feature", "geometry": {"type": "Point", "coordinates": [-89.3996009, 38.0321632]}, "properties": {"name": "North Campground", "operator": "IDNR", "tourism": "camp_site", "osm_id": 11253896017}}, {"type": "Feature", "geometry": {"type": "Point", "coordinates": [-89.4359261, 38.0078696]}, "properties": {"name": "Youth Group Campground", "operator": "IDNR", "tourism": "camp_site", "osm_id": 11253896018}}, {"type": "Feature", "geometry": {"type": "Point", "coordinates": [-89.4335765, 38.0078358]}, "properties": {"name": "Heron Campground", "operator": "IDNR", "tourism": "camp_site", "osm_id": 11253896019}}, {"type": "Feature", "geometry": {"type": "Point", "coordinates": [-89.4272304, 38.0182731]}, "properties": {"name": "Boulder Campground", "operator": "IDNR", "tourism": "camp_site", "osm_id": 11253896020}}, {"type": "Feature", "geometry": {"type": "Point", "coordinates": [-84.6422046, 36.5831354]}, "properties": {"backcountry": "yes", "caravans": "no", "name": "Big Island Camp", "static_caravans": "no", "tents": "yes", "tourism": "camp_site", "osm_id": 11330398037}}, {"type": "Feature", "geometry": {"type": "Point", "coordinates": [-86.1190095, 37.9905461]}, "properties": {"tourism": "caravan_site", "osm_id": 11356539573}}, {"type": "Feature", "geometry": {"type": "Point", "coordinates": [-84.2686749, 37.9092468]}, "properties": {"tourism": "caravan_site", "osm_id": 11403898552}}, {"type": "Feature", "geometry": {"type": "Point", "coordinates": [-89.5474515, 36.8866673]}, "properties": {"name": "Lambert's RV Park", "tourism": "caravan_site", "osm_id": 11418318888}}, {"type": "Feature", "geometry": {"type": "Point", "coordinates": [-86.2019323, 38.0216683]}, "properties": {"tourism": "caravan_site", "osm_id": 11508577969}}, {"type": "Feature", "geometry": {"type": "Point", "coordinates": [-83.1743149, 36.904043]}, "properties": {"name": "White Trail CG", "tourism": "camp_site", "osm_id": 11691397080}}, {"type": "Feature", "geometry": {"type": "Point", "coordinates": [-83.2401455, 36.8878809]}, "properties": {"name": "Copperhead CG", "tourism": "camp_site", "osm_id": 11691461310}}, {"type": "Feature", "geometry": {"type": "Point", "coordinates": [-84.6766256, 37.0622252]}, "properties": {"tourism": "caravan_site", "osm_id": 11698765165}}, {"type": "Feature", "geometry": {"type": "Point", "coordinates": [-86.1063307, 37.3338481]}, "properties": {"tourism": "caravan_site", "osm_id": 11717208657}}, {"type": "Feature", "geometry": {"type": "Point", "coordinates": [-83.2031488, 36.8927647]}, "properties": {"name": "Ridge Top CG", "tourism": "camp_site", "osm_id": 11731471326}}, {"type": "Feature", "geometry": {"type": "Point", "coordinates": [-83.2075694, 36.8909874]}, "properties": {"name": "Can Opener CG", "tourism": "camp_site", "osm_id": 11731473794}}, {"type": "Feature", "geometry": {"type": "Point", "coordinates": [-83.2156334, 36.8909518]}, "properties": {"name": "Black Bear CG", "tourism": "camp_site", "osm_id": 11731504214}}, {"type": "Feature", "geometry": {"type": "Point", "coordinates": [-83.1845453, 36.8896158]}, "properties": {"name": "Creekside CG", "tourism": "camp_site", "osm_id": 11732317093}}, {"type": "Feature", "geometry": {"type": "Point", "coordinates": [-83.1877971, 36.8857109]}, "properties": {"name": "Sycamore CG", "tourism": "camp_site", "osm_id": 11732357470}}, {"type": "Feature", "geometry": {"type": "Point", "coordinates": [-83.1971207, 36.882734]}, "properties": {"name": "Coyote CG", "tourism": "camp_site", "osm_id": 11755992106}}, {"type": "Feature", "geometry": {"type": "Point", "coordinates": [-85.6488709, 37.8907216]}, "properties": {"name": "Site 1", "tourism": "camp_site", "osm_id": 11776251166}}, {"type": "Feature", "geometry": {"type": "Point", "coordinates": [-85.6490324, 37.8916678]}, "properties": {"name": "Site 2", "tourism": "camp_site", "osm_id": 11776251167}}, {"type": "Feature", "geometry": {"type": "Point", "coordinates": [-85.6490087, 37.8923265]}, "properties": {"name": "Site 3", "tourism": "camp_site", "osm_id": 11776251168}}, {"type": "Feature", "geometry": {"type": "Point", "coordinates": [-85.6474431, 37.8926526]}, "properties": {"name": "Site 4", "tourism": "camp_site", "osm_id": 11776251169}}, {"type": "Feature", "geometry": {"type": "Point", "coordinates": [-85.6436936, 37.8940981]}, "properties": {"name": "Site 7", "tourism": "camp_site", "osm_id": 11776251170}}, {"type": "Feature", "geometry": {"type": "Point", "coordinates": [-85.6428043, 37.8895751]}, "properties": {"name": "Site 11", "tourism": "camp_site", "osm_id": 11776251171}}, {"type": "Feature", "geometry": {"type": "Point", "coordinates": [-85.6427989, 37.8906568]}, "properties": {"name": "Site 10", "tourism": "camp_site", "osm_id": 11776251172}}, {"type": "Feature", "geometry": {"type": "Point", "coordinates": [-85.6417551, 37.8927323]}, "properties": {"name": "Site 8", "tourism": "camp_site", "osm_id": 11776251173}}, {"type": "Feature", "geometry": {"type": "Point", "coordinates": [-85.6447646, 37.894692]}, "properties": {"name": "Site 6", "tourism": "camp_site", "osm_id": 11776251174}}, {"type": "Feature", "geometry": {"type": "Point", "coordinates": [-85.645859, 37.8950574]}, "properties": {"name": "Site 5", "tourism": "camp_site", "osm_id": 11776251175}}, {"type": "Feature", "geometry": {"type": "Point", "coordinates": [-85.6409396, 37.891816]}, "properties": {"name": "Site 9", "tourism": "camp_site", "osm_id": 11776251176}}, {"type": "Feature", "geometry": {"type": "Point", "coordinates": [-85.6542334, 37.8975265]}, "properties": {"name": "Site 1", "tourism": "camp_site", "osm_id": 11776251177}}, {"type": "Feature", "geometry": {"type": "Point", "coordinates": [-85.654136, 37.8970963]}, "properties": {"name": "Site 2", "tourism": "camp_site", "osm_id": 11776251178}}, {"type": "Feature", "geometry": {"type": "Point", "coordinates": [-85.654468, 37.895873]}, "properties": {"name": "Site 3", "tourism": "camp_site", "osm_id": 11776251179}}, {"type": "Feature", "geometry": {"type": "Point", "coordinates": [-85.6543096, 37.8955245]}, "properties": {"name": "Site 4", "tourism": "camp_site", "osm_id": 11776251180}}, {"type": "Feature", "geometry": {"type": "Point", "coordinates": [-85.6523116, 37.8951063]}, "properties": {"name": "Site 6", "tourism": "camp_site", "osm_id": 11776251181}}, {"type": "Feature", "geometry": {"type": "Point", "coordinates": [-85.6526893, 37.8935969]}, "properties": {"name": "Site 7", "tourism": "camp_site", "osm_id": 11776251182}}, {"type": "Feature", "geometry": {"type": "Point", "coordinates": [-85.6537689, 37.8929786]}, "properties": {"name": "Site 8", "tourism": "camp_site", "osm_id": 11776251183}}, {"type": "Feature", "geometry": {"type": "Point", "coordinates": [-85.6537, 37.8925886]}, "properties": {"name": "Site 9", "tourism": "camp_site", "osm_id": 11776251184}}, {"type": "Feature", "geometry": {"type": "Point", "coordinates": [-85.6420288, 37.8886126]}, "properties": {"name": "Site 12", "tourism": "camp_site", "osm_id": 11776251185}}, {"type": "Feature", "geometry": {"type": "Point", "coordinates": [-83.2071524, 36.8902781]}, "properties": {"tourism": "camp_site", "osm_id": 11783387736}}, {"type": "Feature", "geometry": {"type": "Point", "coordinates": [-83.1891308, 36.8826407]}, "properties": {"tourism": "camp_site", "osm_id": 11783452894}}, {"type": "Feature", "geometry": {"type": "Point", "coordinates": [-83.1759124, 36.9052037]}, "properties": {"tourism": "camp_site", "osm_id": 11783461021}}, {"type": "Feature", "geometry": {"type": "Point", "coordinates": [-82.9336879, 39.0480181]}, "properties": {"tourism": "caravan_site", "osm_id": 11809848371}}, {"type": "Feature", "geometry": {"type": "Point", "coordinates": [-84.1156521, 39.0510657]}, "properties": {"access": "permit", "backcountry": "yes", "caravans": "no", "fee": "no", "name": "Camp 4", "static_caravans": "no", "tents": "yes", "tourism": "camp_site", "osm_id": 11812997947}}, {"type": "Feature", "geometry": {"type": "Point", "coordinates": [-84.0949634, 39.0373036]}, "properties": {"access": "yes", "caravans": "yes", "fee": "yes", "name": "East Fork State Park Campground", "operator": "Ohio Department of Natural Resources", "shower": "yes", "static_caravans": "no", "tents": "yes", "toilets": "yes", "tourism": "camp_site", "website": "https://ohiodnr.gov/go-and-do/plan-a-visit/find-a-property/east-fork-state-park-campground", "osm_id": 11822994876}}, {"type": "Feature", "geometry": {"type": "Point", "coordinates": [-81.9756375, 38.4358622]}, "properties": {"Type": "K & A Camp", "group_only": "yes", "tourism": "camp_site", "osm_id": 11916311457}}, {"type": "Feature", "geometry": {"type": "Point", "coordinates": [-81.9746684, 38.4368231]}, "properties": {"Type": "Mae Camp", "group_only": "yes", "tourism": "camp_site", "osm_id": 11916311458}}, {"type": "Feature", "geometry": {"type": "Point", "coordinates": [-83.153637, 38.7671802]}, "properties": {"access": "yes", "backcountry": "yes", "caravans": "no", "fee": "no", "name": "Camp 1", "operator": "Shawnee State Park", "static_caravans": "no", "tents": "yes", "tourism": "camp_site", "osm_id": 11934930559}}, {"type": "Feature", "geometry": {"type": "Point", "coordinates": [-83.159568, 38.72943]}, "properties": {"backcountry": "yes", "caravans": "no", "fee": "no", "name": "Camp 3", "operator": "Shawnee State Park", "static_caravans": "no", "tents": "yes", "tourism": "camp_site", "osm_id": 11937376152}}, {"type": "Feature", "geometry": {"type": "Point", "coordinates": [-83.576864, 37.8242239]}, "properties": {"tourism": "camp_site", "osm_id": 11953787962}}, {"type": "Feature", "geometry": {"type": "Point", "coordinates": [-84.4376257, 39.082587]}, "properties": {"tourism": "caravan_site", "osm_id": 12046186092}}, {"type": "Feature", "geometry": {"type": "Point", "coordinates": [-82.2487944, 36.5279425]}, "properties": {"tourism": "caravan_site", "osm_id": 12070794826}}, {"type": "Feature", "geometry": {"type": "Point", "coordinates": [-89.1559891, 37.6415625]}, "properties": {"name": "Wesley Area Little Grassy United Methodist Camp", "tourism": "camp_site", "osm_id": 12113194418}}, {"type": "Feature", "geometry": {"type": "Point", "coordinates": [-89.1502521, 37.6407617]}, "properties": {"name": "Camp Carew", "tourism": "camp_site", "osm_id": 12113194419}}, {"type": "Feature", "geometry": {"type": "Point", "coordinates": [-84.7886964, 38.8439613]}, "properties": {"name": "Campsite 7", "tourism": "camp_site", "osm_id": 12149838068}}, {"type": "Feature", "geometry": {"type": "Point", "coordinates": [-84.7897094, 38.8448639]}, "properties": {"name": "Campsite 6", "tourism": "camp_site", "osm_id": 12149928016}}, {"type": "Feature", "geometry": {"type": "Point", "coordinates": [-84.7878858, 38.8469789]}, "properties": {"name": "Campsite 9", "tourism": "camp_site", "osm_id": 12149942333}}, {"type": "Feature", "geometry": {"type": "Point", "coordinates": [-84.2581843, 36.9898483]}, "properties": {"name": "Craigs Creek Campground", "tourism": "camp_site", "osm_id": 12233561090}}, {"type": "Feature", "geometry": {"type": "Point", "coordinates": [-89.4071111, 38.0166587]}, "properties": {"tourism": "camp_site", "osm_id": 12238580881}}, {"type": "Feature", "geometry": {"type": "Point", "coordinates": [-89.4237193, 38.010431]}, "properties": {"tents": "yes", "tourism": "camp_site", "osm_id": 12238581067}}, {"type": "Feature", "geometry": {"type": "Point", "coordinates": [-84.7287227, 36.5352512]}, "properties": {"tourism": "camp_site", "osm_id": 12269316707}}, {"type": "Feature", "geometry": {"type": "Point", "coordinates": [-84.2531271, 36.6032653]}, "properties": {"access": "yes", "drinking_water": "no", "fee": "no", "internet_access": "no", "name": "Jellico#1 Dispersed Camping", "operator": "National Forest sterns ranger district", "shower": "no", "static_caravans": "no", "tents": "yes", "tourism": "camp_site", "osm_id": 12408091008}}, {"type": "Feature", "geometry": {"type": "Point", "coordinates": [-83.1809312, 37.4335478]}, "properties": {"access": "yes", "name": "Paul Van Booven WildLife Management Area", "operator": "wma", "static_caravans": "no", "tents": "yes", "tourism": "camp_site", "osm_id": 12410228965}}, {"type": "Feature", "geometry": {"type": "Point", "coordinates": [-83.4566626, 37.0760776]}, "properties": {"tourism": "caravan_site", "osm_id": 12465446176}}, {"type": "Feature", "geometry": {"type": "Point", "coordinates": [-89.1807461, 37.5978328]}, "properties": {"name": "Youth Campground", "tourism": "camp_site", "osm_id": 12560414542}}, {"type": "Feature", "geometry": {"type": "Point", "coordinates": [-86.050035, 36.8489556]}, "properties": {"tourism": "caravan_site", "osm_id": 12610825780}}, {"type": "Feature", "geometry": {"type": "Point", "coordinates": [-88.6570245, 37.4092174]}, "properties": {"name": "Group", "tourism": "camp_site", "osm_id": 12610893862}}, {"type": "Feature", "geometry": {"type": "Point", "coordinates": [-89.3831779, 37.7794933]}, "properties": {"name": "Big Oak Campground", "tourism": "camp_site", "osm_id": 12618313237}}, {"type": "Feature", "geometry": {"type": "Point", "coordinates": [-89.3898296, 37.7856303]}, "properties": {"name": "Water Lily Campground", "tourism": "camp_site", "osm_id": 12618335319}}, {"type": "Feature", "geometry": {"type": "Point", "coordinates": [-89.3778116, 37.7851903]}, "properties": {"name": "Overflow", "tourism": "camp_site", "osm_id": 12618369536}}, {"type": "Feature", "geometry": {"type": "Point", "coordinates": [-87.1451345, 37.4860828]}, "properties": {"name": "Livermore RV Park", "tourism": "caravan_site", "osm_id": 12621544120}}, {"type": "Feature", "geometry": {"type": "Point", "coordinates": [-87.3341258, 37.3003451]}, "properties": {"tourism": "caravan_site", "osm_id": 12621556112}}, {"type": "Feature", "geometry": {"type": "Point", "coordinates": [-89.3164774, 37.1375243]}, "properties": {"tourism": "camp_site", "osm_id": 12621611005}}, {"type": "Feature", "geometry": {"type": "Point", "coordinates": [-88.751419, 37.5164045]}, "properties": {"group_only": "yes", "name": "Lakeside", "tourism": "camp_site", "osm_id": 12628952986}}, {"type": "Feature", "geometry": {"type": "Point", "coordinates": [-88.7502989, 37.5161697]}, "properties": {"group_only": "yes", "name": "Lalamont", "tourism": "camp_site", "osm_id": 12628952987}}, {"type": "Feature", "geometry": {"type": "Point", "coordinates": [-88.7501867, 37.5176299]}, "properties": {"group_only": "yes", "name": "Chabnel", "tourism": "camp_site", "osm_id": 12628952989}}, {"type": "Feature", "geometry": {"type": "Point", "coordinates": [-88.7517179, 37.5183522]}, "properties": {"group_only": "yes", "name": "Goupil", "tourism": "camp_site", "osm_id": 12628952994}}, {"type": "Feature", "geometry": {"type": "Point", "coordinates": [-88.7528777, 37.5184433]}, "properties": {"group_only": "yes", "name": "Lalandale", "tourism": "camp_site", "osm_id": 12628952997}}, {"type": "Feature", "geometry": {"type": "Point", "coordinates": [-88.7564395, 37.5141637]}, "properties": {"group_only": "yes", "name": "Tekakwitha", "tourism": "camp_site", "osm_id": 12628962228}}, {"type": "Feature", "geometry": {"type": "Point", "coordinates": [-88.7540793, 37.513245]}, "properties": {"group_only": "yes", "name": "Brebeuf", "tourism": "camp_site", "osm_id": 12628962248}}, {"type": "Feature", "geometry": {"type": "Point", "coordinates": [-88.7522437, 37.5131972]}, "properties": {"group_only": "yes", "name": "Garnier", "tourism": "camp_site", "osm_id": 12628962254}}, {"type": "Feature", "geometry": {"type": "Point", "coordinates": [-88.754981, 37.5124296]}, "properties": {"group_only": "yes", "name": "Amantacha", "tourism": "camp_site", "osm_id": 12628999897}}, {"type": "Feature", "geometry": {"type": "Point", "coordinates": [-88.7546251, 37.5141528]}, "properties": {"group_only": "yes", "name": "Brebeuf Flats-tents", "tourism": "camp_site", "osm_id": 12629231810}}, {"type": "Feature", "geometry": {"type": "Point", "coordinates": [-85.6485187, 37.8937258]}, "properties": {"name": "Staff Area", "tourism": "camp_site", "osm_id": 12632079530}}, {"type": "Feature", "geometry": {"type": "Point", "coordinates": [-88.3796437, 37.6950415]}, "properties": {"name": "Horse Campground", "tourism": "camp_site", "osm_id": 12641909356}}, {"type": "Feature", "geometry": {"type": "Point", "coordinates": [-89.3529279, 38.2816462]}, "properties": {"name": "Lonely Oak", "tourism": "camp_site", "osm_id": 12648370743}}, {"type": "Feature", "geometry": {"type": "Point", "coordinates": [-89.3563648, 38.2849047]}, "properties": {"name": "Shady Rest", "tourism": "camp_site", "osm_id": 12648370744}}, {"type": "Feature", "geometry": {"type": "Point", "coordinates": [-88.9411061, 38.109496]}, "properties": {"name": "Shady Rest", "tourism": "camp_site", "osm_id": 12648491877}}, {"type": "Feature", "geometry": {"type": "Point", "coordinates": [-88.940495, 38.1126949]}, "properties": {"name": "Lakeview", "tourism": "camp_site", "osm_id": 12648491890}}, {"type": "Feature", "geometry": {"type": "Point", "coordinates": [-88.9391056, 38.1144536]}, "properties": {"name": "Hickman's Point", "tourism": "camp_site", "osm_id": 12648491894}}, {"type": "Feature", "geometry": {"type": "Point", "coordinates": [-88.9378561, 38.1138354]}, "properties": {"name": "Bay Area", "tourism": "camp_site", "osm_id": 12648491900}}, {"type": "Feature", "geometry": {"type": "Point", "coordinates": [-88.9284161, 38.1221343]}, "properties": {"name": "Youth", "tourism": "camp_site", "osm_id": 12648506215}}, {"type": "Feature", "geometry": {"type": "Point", "coordinates": [-88.9299846, 38.0826013]}, "properties": {"name": "Nighthawk", "tourism": "camp_site", "osm_id": 12648672692}}, {"type": "Feature", "geometry": {"type": "Point", "coordinates": [-88.9307505, 38.0826013]}, "properties": {"name": "Bluejay", "tourism": "camp_site", "osm_id": 12648672693}}, {"type": "Feature", "geometry": {"type": "Point", "coordinates": [-88.9308708, 38.0800405]}, "properties": {"name": "Eagle", "tourism": "camp_site", "osm_id": 12648692713}}, {"type": "Feature", "geometry": {"type": "Point", "coordinates": [-88.9306538, 38.0785977]}, "properties": {"name": "Gun Creek Campground", "tourism": "camp_site", "osm_id": 12648692737}}, {"type": "Feature", "geometry": {"type": "Point", "coordinates": [-88.9139593, 38.0706431]}, "properties": {"name": "Whittington Woods Campground", "tourism": "camp_site", "osm_id": 12650730708}}, {"type": "Feature", "geometry": {"type": "Point", "coordinates": [-88.9368832, 38.0370251]}, "properties": {"name": "Covery Point", "tourism": "camp_site", "osm_id": 12650816858}}, {"type": "Feature", "geometry": {"type": "Point", "coordinates": [-88.9361296, 38.0377074]}, "properties": {"name": "Buck Ridge", "tourism": "camp_site", "osm_id": 12650816862}}, {"type": "Feature", "geometry": {"type": "Point", "coordinates": [-88.9343333, 38.036859]}, "properties": {"name": "Beaver's Lodge", "tourism": "camp_site", "osm_id": 12650816864}}, {"type": "Feature", "geometry": {"type": "Point", "coordinates": [-88.9343192, 38.0353207]}, "properties": {"name": "Owl's Roost", "tourism": "camp_site", "osm_id": 12650816870}}, {"type": "Feature", "geometry": {"type": "Point", "coordinates": [-88.9422022, 38.0332046]}, "properties": {"name": "South Macom Campground", "tourism": "camp_site", "osm_id": 12650816898}}, {"type": "Feature", "geometry": {"type": "Point", "coordinates": [-89.0001813, 38.0553235]}, "properties": {"name": "Sycamore", "tourism": "camp_site", "osm_id": 12650913218}}, {"type": "Feature", "geometry": {"type": "Point", "coordinates": [-89.002622, 38.0603322]}, "properties": {"name": "Pine Tree", "tourism": "camp_site", "osm_id": 12650913230}}, {"type": "Feature", "geometry": {"type": "Point", "coordinates": [-89.0068317, 38.0592092]}, "properties": {"name": "Redbud", "tourism": "camp_site", "osm_id": 12650913233}}, {"type": "Feature", "geometry": {"type": "Point", "coordinates": [-89.0084233, 38.058239]}, "properties": {"name": "Dogwood", "tourism": "camp_site", "osm_id": 12650913237}}, {"type": "Feature", "geometry": {"type": "Point", "coordinates": [-89.0096376, 38.0573325]}, "properties": {"name": "South Sandusky Campground", "tourism": "camp_site", "osm_id": 12650913245}}, {"type": "Feature", "geometry": {"type": "Point", "coordinates": [-89.0115754, 38.0661677]}, "properties": {"name": "Maple", "tourism": "camp_site", "osm_id": 12650913253}}, {"type": "Feature", "geometry": {"type": "Point", "coordinates": [-89.0102022, 38.0663042]}, "properties": {"name": "Sweet Gum", "tourism": "camp_site", "osm_id": 12650913256}}, {"type": "Feature", "geometry": {"type": "Point", "coordinates": [-89.0073939, 38.0669332]}, "properties": {"name": "Hickory", "tourism": "camp_site", "osm_id": 12650913258}}, {"type": "Feature", "geometry": {"type": "Point", "coordinates": [-89.0071004, 38.0673328]}, "properties": {"name": "White Oak", "tourism": "camp_site", "osm_id": 12650913263}}, {"type": "Feature", "geometry": {"type": "Point", "coordinates": [-89.0111401, 38.0693932]}, "properties": {"group_only": "yes", "name": "Shagbark Group", "tourism": "camp_site", "osm_id": 12650913264}}, {"type": "Feature", "geometry": {"type": "Point", "coordinates": [-89.0009819, 38.0686981]}, "properties": {"name": "Wood Duck", "tourism": "camp_site", "osm_id": 12650913266}}, {"type": "Feature", "geometry": {"type": "Point", "coordinates": [-89.0001608, 38.0680596]}, "properties": {"name": "Ringneck", "tourism": "camp_site", "osm_id": 12650913270}}, {"type": "Feature", "geometry": {"type": "Point", "coordinates": [-88.9990891, 38.0674278]}, "properties": {"name": "Pintail", "tourism": "camp_site", "osm_id": 12650913271}}, {"type": "Feature", "geometry": {"type": "Point", "coordinates": [-88.996284, 38.0673916]}, "properties": {"name": "North Sandy Court", "tourism": "camp_site", "osm_id": 12650913280}}, {"type": "Feature", "geometry": {"type": "Point", "coordinates": [-88.9971838, 38.0748739]}, "properties": {"name": "Private", "tourism": "camp_site", "osm_id": 12650927121}}, {"type": "Feature", "geometry": {"type": "Point", "coordinates": [-86.4657742, 38.5036686]}, "properties": {"name": "Youngs Creek Horsecamp", "tourism": "camp_site", "osm_id": 12674346918}}, {"type": "Feature", "geometry": {"type": "Point", "coordinates": [-85.7115009, 38.0743473]}, "properties": {"name": "Brooks RV Park", "tourism": "caravan_site", "osm_id": 12731999477}}, {"type": "Feature", "geometry": {"type": "Point", "coordinates": [-84.2936831, 38.9717011]}, "properties": {"access": "customers", "addr:city": "New Richmond", "addr:housenumber": "1081", "addr:postcode": "45157", "addr:state": "OH", "addr:street": "Cobra Road", "camp_site": "rv_park", "capacity:caravans": "76", "capacity:tents": "5", "caravans": "yes", "fee": "yes", "mobile": "+1-513-545-9485", "name": "River Days Campground", "operator": "Nancy Herron", "payment:credit_cards": "yes", "static_caravans": "no", "tents": "yes", "tourism": "camp_site", "website": "https://riverdayscampground.com/", "osm_id": 12786677276}}, {"type": "Feature", "geometry": {"type": "Point", "coordinates": [-83.0243875, 39.0016295]}, "properties": {"access": "unknown", "addr:housenumber": "3290", "addr:postcode": "45661", "addr:state": "Ohio", "addr:street": "US-23", "camp_site": "serviced", "caravans": "yes", "name": "Rockwater Campground", "tourism": "camp_site", "website": "https://rockwatercampground.com", "osm_id": 12872474597}}, {"type": "Feature", "geometry": {"type": "Point", "coordinates": [-86.3898113, 39.0174241]}, "properties": {"fee": "no", "horse": "designated", "name": "Blackwell Horse Camp", "reservation": "no", "tourism": "camp_site", "website": "https://www.fs.usda.gov/r09/hoosier/recreation/blackwell-campground", "osm_id": 12877299301}}, {"type": "Feature", "geometry": {"type": "Point", "coordinates": [-81.9800697, 38.9977838]}, "properties": {"tourism": "caravan_site", "osm_id": 12961391511}}, {"type": "Feature", "geometry": {"type": "Point", "coordinates": [-88.7544219, 37.5156748]}, "properties": {"group_only": "yes", "name": "Daniel", "tourism": "camp_site", "osm_id": 13111018372}}, {"type": "Feature", "geometry": {"type": "Point", "coordinates": [-88.7553753, 37.5146433]}, "properties": {"group_only": "yes", "name": "Aonnetta", "tourism": "camp_site", "osm_id": 13111208350}}, {"type": "Feature", "geometry": {"type": "Point", "coordinates": [-88.7555632, 37.5144062]}, "properties": {"group_only": "yes", "name": "Chiwaenhwa", "tourism": "camp_site", "osm_id": 13111208351}}, {"type": "Feature", "geometry": {"type": "Point", "coordinates": [-88.75893, 37.5137539]}, "properties": {"group_only": "yes", "name": "Raganeau", "tourism": "camp_site", "osm_id": 13111208354}}, {"type": "Feature", "geometry": {"type": "Point", "coordinates": [-86.2376018, 37.2016343]}, "properties": {"name": "Houchins Ferry", "operator": "National Park Service", "tourism": "camp_site", "website": "https://www.nps.gov/maca/planyourvisit/houchinferrycg.htm", "osm_id": 13121478818}}, {"type": "Feature", "geometry": {"type": "Point", "coordinates": [-88.5698381, 38.5422245]}, "properties": {"name": "Horse Camp Site", "tourism": "camp_site", "osm_id": 13138436807}}, {"type": "Feature", "geometry": {"type": "Point", "coordinates": [-83.7750534, 37.6156893]}, "properties": {"addr:housenumber": "950", "addr:street": "Blacks Ridge Rd, Beattyville, KY 41311", "description": "Cabins, RV sites, and Campground are near Kentucky's breathtaking Red River Gorge", "name": "Lago Linda Hideaway", "phone": "+1-606-464-2876", "tourism": "camp_site", "website": "https://lagolinda.com/", "osm_id": 13175916226}}, {"type": "Feature", "geometry": {"type": "Point", "coordinates": [-83.8724901, 37.6672233]}, "properties": {"name": "Miller's Creek Camping Area", "tourism": "camp_site", "osm_id": 13196894251}}, {"type": "Feature", "geometry": {"type": "Point", "coordinates": [-88.9742776, 37.2961094]}, "properties": {"charge": "Tent 21 RV 25", "fee": "yes", "name": "Main Brothers Campground", "note": "www.villageofkarnak.com/mainbrotherscampground", "tourism": "camp_site", "osm_id": 13233812645}}, {"type": "Feature", "geometry": {"type": "Point", "coordinates": [-84.1985918, 37.2335433]}, "properties": {"tourism": "camp_site", "osm_id": 13241470107}}, {"type": "Feature", "geometry": {"type": "Point", "coordinates": [-89.4109505, 37.6846305]}, "properties": {"access": "yes", "charge": "Free", "name": "Turkey Bayou Campground", "note": "The campground does not have water. The site frequently floods during heavy rain periods.", "operator": "Forest Service/Friends of Turkey Bayou", "tourism": "camp_site", "osm_id": 13241636613}}, {"type": "Feature", "geometry": {"type": "Point", "coordinates": [-86.6369742, 38.1355269]}, "properties": {"tourism": "caravan_site", "osm_id": 13293835672}}, {"type": "Feature", "geometry": {"type": "Point", "coordinates": [-86.6342655, 38.1339489]}, "properties": {"tourism": "camp_site", "osm_id": 13293835673}}, {"type": "Feature", "geometry": {"type": "Point", "coordinates": [-86.6362721, 38.1341159]}, "properties": {"tourism": "camp_site", "osm_id": 13293835674}}, {"type": "Feature", "geometry": {"type": "Point", "coordinates": [-86.6426195, 38.1353058]}, "properties": {"tourism": "camp_site", "osm_id": 13293835675}}, {"type": "Feature", "geometry": {"type": "Point", "coordinates": [-86.6427806, 38.1336021]}, "properties": {"tourism": "camp_site", "osm_id": 13293835680}}, {"type": "Feature", "geometry": {"type": "Point", "coordinates": [-86.4447689, 39.0216372]}, "properties": {"tourism": "camp_site", "osm_id": 13293845947}}, {"type": "Feature", "geometry": {"type": "Point", "coordinates": [-86.4451444, 39.0141141]}, "properties": {"tourism": "camp_site", "osm_id": 13293845948}}, {"type": "Feature", "geometry": {"type": "Point", "coordinates": [-86.4311781, 39.0152695]}, "properties": {"tourism": "camp_site", "osm_id": 13293845949}}, {"type": "Feature", "geometry": {"type": "Point", "coordinates": [-85.040577, 38.8531003]}, "properties": {"ele": "266", "gnis:feature_id": "445965", "name": "White Water Camp", "tourism": "camp_site", "osm_id": 103900048}}, {"type": "Feature", "geometry": {"type": "Point", "coordinates": [-88.2821885, 37.0145228]}, "properties": {"tourism": "caravan_site", "osm_id": 182723889}}, {"type": "Feature", "geometry": {"type": "Point", "coordinates": [-85.2922545, 37.2943056]}, "properties": {"name": "Smith Ridge Campgrounds", "tourism": "camp_site", "osm_id": 209263416}}, {"type": "Feature", "geometry": {"type": "Point", "coordinates": [-87.3851044, 39.0979769]}, "properties": {"tourism": "caravan_site", "osm_id": 218172437}}, {"type": "Feature", "geometry": {"type": "Point", "coordinates": [-86.0230891, 37.1336548]}, "properties": {"addr:city": "Cave City", "addr:housenumber": "4110", "addr:postcode": "42127", "addr:state": "KY", "addr:street": "Mammoth Cave Road", "name": "Singing Hills RV Park & Campground", "phone": "+1-270-773-3789", "tourism": "camp_site", "osm_id": 255222477}}, {"type": "Feature", "geometry": {"type": "Point", "coordinates": [-85.9688529, 37.1348581]}, "properties": {"addr:city": "Cave City", "addr:country": "US", "addr:housenumber": "216", "addr:postcode": "42127", "addr:state": "KY", "addr:street": "Gaunce Drive", "name": "Cave Country RV Campground", "tourism": "camp_site", "osm_id": 255264110}}, {"type": "Feature", "geometry": {"type": "Point", "coordinates": [-85.9926503, 37.1386554]}, "properties": {"tourism": "camp_site", "osm_id": 255268325}}, {"type": "Feature", "geometry": {"type": "Point", "coordinates": [-83.6819917, 37.7834409]}, "properties": {"addr:city": "Slade", "addr:housenumber": "1890", "addr:postcode": "40376", "addr:state": "KY", "addr:street": "Natural Bridge Road", "camp_site": "standard", "charge": "4 USD / Night for 1 tent", "description": "Miguel's is a classic place in Red River Gorge for tourists and climbers which offers a large field for campers and has a shower house and toilets. Wifi can be spotty at times. If camping make sure to park in the separate lot for campers.", "fee": "yes", "internet_access": "wlan", "name": "Miguel's Campsite", "reservation": "required", "shower": "yes", "tents": "yes", "toilets": "yes", "tourism": "camp_site", "website": "https://redrivergorgeretreats.com/camping-gallery", "osm_id": 268444194}}, {"type": "Feature", "geometry": {"type": "Point", "coordinates": [-83.6739436, 37.7803176]}, "properties": {"name": "Whittleton Campground", "tourism": "camp_site", "osm_id": 275832928}}, {"type": "Feature", "geometry": {"type": "Point", "coordinates": [-84.2680175, 37.9002005]}, "properties": {"addr:housenumber": "4395", "addr:street": "Boonesboro Road", "capacity": "166", "caravans": "yes", "name": "Fort Boonesborough State Park", "operator": "Kentucky Department of Parks", "phone": "+1 859-527-3131", "reservation": "yes", "tents": "yes", "tourism": "camp_site", "website": "https://parks.ky.gov/richmond/parks/historic/fort-boonesborough-state-park", "osm_id": 285286455}}, {"type": "Feature", "geometry": {"type": "Point", "coordinates": [-83.6664026, 37.7067557]}, "properties": {"area": "yes", "fee": "yes", "name": "Land of the Arches", "tourism": "camp_site", "osm_id": 286453024}}, {"type": "Feature", "geometry": {"type": "Point", "coordinates": [-89.1693192, 37.60245]}, "properties": {"internet_access": "no", "name": "Giant City Campground (tent)", "tourism": "camp_site", "osm_id": 292137573}}, {"type": "Feature", "geometry": {"type": "Point", "coordinates": [-89.1682213, 37.6048208]}, "properties": {"description": "Giant City Campround (class A)", "fee": "yes", "internet_access": "no", "name": "Giant City Campground", "power_supply": "yes", "tourism": "caravan_site", "osm_id": 292137576}}, {"type": "Feature", "geometry": {"type": "Point", "coordinates": [-84.6592466, 38.7902249]}, "properties": {"tourism": "camp_site", "osm_id": 294825847}}, {"type": "Feature", "geometry": {"type": "Point", "coordinates": [-84.6594261, 38.7900599]}, "properties": {"tourism": "camp_site", "osm_id": 294825848}}, {"type": "Feature", "geometry": {"type": "Point", "coordinates": [-84.6589039, 38.7902699]}, "properties": {"tourism": "camp_site", "osm_id": 294825849}}, {"type": "Feature", "geometry": {"type": "Point", "coordinates": [-84.658472, 38.7902234]}, "properties": {"tourism": "camp_site", "osm_id": 294825850}}, {"type": "Feature", "geometry": {"type": "Point", "coordinates": [-84.6580477, 38.7899769]}, "properties": {"tourism": "camp_site", "osm_id": 294825851}}, {"type": "Feature", "geometry": {"type": "Point", "coordinates": [-84.6591521, 38.7897958]}, "properties": {"tourism": "camp_site", "osm_id": 294825852}}, {"type": "Feature", "geometry": {"type": "Point", "coordinates": [-84.6588541, 38.7897762]}, "properties": {"tourism": "camp_site", "osm_id": 294825853}}, {"type": "Feature", "geometry": {"type": "Point", "coordinates": [-84.6582575, 38.7897318]}, "properties": {"tourism": "camp_site", "osm_id": 294825854}}, {"type": "Feature", "geometry": {"type": "Point", "coordinates": [-84.6585901, 38.7897509]}, "properties": {"tourism": "camp_site", "osm_id": 294825855}}, {"type": "Feature", "geometry": {"type": "Point", "coordinates": [-84.6590577, 38.7900355]}, "properties": {"tourism": "camp_site", "osm_id": 294825856}}, {"type": "Feature", "geometry": {"type": "Point", "coordinates": [-84.6586253, 38.7900317]}, "properties": {"tourism": "camp_site", "osm_id": 294825857}}, {"type": "Feature", "geometry": {"type": "Point", "coordinates": [-84.6580271, 38.7898703]}, "properties": {"tourism": "camp_site", "osm_id": 294825858}}, {"type": "Feature", "geometry": {"type": "Point", "coordinates": [-84.6583582, 38.79002]}, "properties": {"tourism": "camp_site", "osm_id": 294825859}}, {"type": "Feature", "geometry": {"type": "Point", "coordinates": [-84.6579127, 38.7896307]}, "properties": {"tourism": "camp_site", "osm_id": 294825860}}, {"type": "Feature", "geometry": {"type": "Point", "coordinates": [-88.0938905, 37.4656583]}, "properties": {"capacity": "7", "name": "Riverview Park at Dam 50 RV Campsite", "source": "GPS", "tourism": "caravan_site", "osm_id": 297391808}}, {"type": "Feature", "geometry": {"type": "Point", "coordinates": [-88.6825874, 37.5096315]}, "properties": {"name": "Primitive Campsite Jackson Falls", "tourism": "camp_site", "osm_id": 305570370}}, {"type": "Feature", "geometry": {"type": "Point", "coordinates": [-84.8027275, 38.2102289]}, "properties": {"name": "Elkhorn Campground", "tourism": "caravan_site", "osm_id": 311524719}}, {"type": "Feature", "geometry": {"type": "Point", "coordinates": [-85.6758018, 38.0028813]}, "properties": {"addr:city": "Shepherdsville", "addr:housenumber": "2433", "addr:postcode": "40165", "addr:state": "KY", "addr:street": "Highway 44 East", "name": "Louisville South KOA", "operator": "KOA", "tourism": "camp_site", "website": "https://koa.com/campgrounds/louisville-south/", "osm_id": 340208577}}, {"type": "Feature", "geometry": {"type": "Point", "coordinates": [-84.3231134, 37.5674414]}, "properties": {"name": "OH Kentucky RV Park", "tourism": "caravan_site", "osm_id": 373251934}}, {"type": "Feature", "geometry": {"type": "Point", "coordinates": [-84.3229319, 37.5639209]}, "properties": {"name": "Walnut Meadows RV Park", "tourism": "caravan_site", "osm_id": 373251935}}, {"type": "Feature", "geometry": {"type": "Point", "coordinates": [-88.1800403, 36.9454203]}, "properties": {"addr:city": "Grand Rivers", "addr:housenumber": "820", "addr:postcode": "42045", "addr:street": "Hillman Ferry Road", "capacity": "374", "caravans": "yes", "drinking_water": "yes", "fee": "yes", "name": "Hillman Ferry Campground at Land Between The Lakes", "operator": "United States Forest Service", "phone": "+1-270-362-8230", "power_supply": "yes", "tourism": "camp_site", "website": "https://www.landbetweenthelakes.us/seendo/camping/hillman-ferry-campground/", "osm_id": 377660633}}, {"type": "Feature", "geometry": {"type": "Point", "coordinates": [-84.5067562, 38.1479478]}, "properties": {"area": "yes", "name": "Kentucky Horse Park Campground", "tourism": "camp_site", "osm_id": 386423319}}, {"type": "Feature", "geometry": {"type": "Point", "coordinates": [-88.6815954, 37.5112426]}, "properties": {"capacity": "Unknown", "fee": "no", "name": "Jackson Falls primitive camping", "operator": "Shawnee National Forest", "tourism": "camp_site", "osm_id": 388331152}}, {"type": "Feature", "geometry": {"type": "Point", "coordinates": [-86.5283641, 36.7135717]}, "properties": {"name": "Dad's Bluegrass Campground", "power_supply": "yes", "tourism": "caravan_site", "website": "http://dadsbluegrasscampground.com/", "osm_id": 394698921}}, {"type": "Feature", "geometry": {"type": "Point", "coordinates": [-82.3490541, 38.307173]}, "properties": {"name": "Beech Fork Campgrounds", "tourism": "caravan_site", "osm_id": 395477091}}, {"type": "Feature", "geometry": {"type": "Point", "coordinates": [-82.296836, 38.071825]}, "properties": {"tourism": "camp_site", "osm_id": 428661850}}, {"type": "Feature", "geometry": {"type": "Point", "coordinates": [-82.3140111, 38.0759985]}, "properties": {"tourism": "camp_site", "osm_id": 428662305}}, {"type": "Feature", "geometry": {"type": "Point", "coordinates": [-89.2369089, 38.6935778]}, "properties": {"tourism": "caravan_site", "osm_id": 441796781}}, {"type": "Feature", "geometry": {"type": "Point", "coordinates": [-86.277062, 38.9671905]}, "properties": {"name": "Hoosier Horse Camp", "tourism": "camp_site", "osm_id": 456864910}}, {"type": "Feature", "geometry": {"type": "Point", "coordinates": [-89.2971286, 38.722079]}, "properties": {"name": "Hickory Shores Resort", "tourism": "camp_site", "osm_id": 468970239}}, {"type": "Feature", "geometry": {"type": "Point", "coordinates": [-85.3795706, 38.7259059]}, "properties": {"tourism": "camp_site", "osm_id": 475416223}}, {"type": "Feature", "geometry": {"type": "Point", "coordinates": [-86.0635367, 36.851726]}, "properties": {"area": "yes", "name": "Barren River Lake State Resort Park Campground", "operator": "Barren River Lake State Resort Park- Ky State Parks", "tourism": "caravan_site", "osm_id": 479386713}}, {"type": "Feature", "geometry": {"type": "Point", "coordinates": [-82.1692423, 38.4338769]}, "properties": {"alt_name": "KOA Campground", "brand": "KOA", "name": "KOA Kampground", "not:brand:wikidata": "Q16988635", "short_name": "KOA", "tourism": "camp_site", "osm_id": 482053134}}, {"type": "Feature", "geometry": {"type": "Point", "coordinates": [-82.1512001, 38.4313729]}, "properties": {"addr:floor": "G", "addr:housenumber": "1794", "addr:street": "Midland Trail", "check_date": "2025-01-08", "internet_access": "wlan", "internet_access:fee": "customers", "name": "Jim's Campground", "opening_hours": "24/7", "payment:cash": "yes", "payment:credit_cards": "yes", "payment:debit_cards": "yes", "phone": "+1 304-743-4560", "tourism": "camp_site", "website": "http://myjimscamping.com", "wheelchair": "limited", "osm_id": 482239977}}, {"type": "Feature", "geometry": {"type": "Point", "coordinates": [-83.8880136, 36.8600455]}, "properties": {"leisure": "park", "name": "Thompson Park", "tourism": "caravan_site", "website": "https://www.barbourvilletourism.com/adventure/thompson-r-v-park", "osm_id": 487494700}}, {"type": "Feature", "geometry": {"type": "Point", "coordinates": [-84.6430352, 37.0146043]}, "properties": {"tourism": "camp_site", "osm_id": 491417410}}, {"type": "Feature", "geometry": {"type": "Point", "coordinates": [-84.6856996, 37.0724067]}, "properties": {"tourism": "camp_site", "osm_id": 493228810}}, {"type": "Feature", "geometry": {"type": "Point", "coordinates": [-88.5428814, 39.0150345]}, "properties": {"landuse": "recreation_ground", "name": "Persival Springs RV Park", "tourism": "caravan_site", "osm_id": 494236575}}, {"type": "Feature", "geometry": {"type": "Point", "coordinates": [-83.630725, 36.6023401]}, "properties": {"name": "Wilderness Road Campground", "tourism": "camp_site", "osm_id": 495052583}}, {"type": "Feature", "geometry": {"type": "Point", "coordinates": [-88.0028552, 36.7349679]}, "properties": {"addr:city": "Golden Pond", "addr:housenumber": "5100", "addr:postcode": "42211", "addr:street": "Laura Furnace Road", "alt_name": "Wranglers Campground at Land Between The Lakes", "capacity": "232", "horse": "designated", "name": "Wranglers Campground", "operator": "United States Forest Service", "phone": "+1-270-924-2201", "tourism": "caravan_site", "website": "https://www.landbetweenthelakes.us/seendo/camping/wranglers-campground/", "osm_id": 505960434}}, {"type": "Feature", "geometry": {"type": "Point", "coordinates": [-88.021047, 36.855658]}, "properties": {"addr:city": "Golden Pond", "addr:housenumber": "5501", "addr:postcode": "42211", "addr:state": "KY", "addr:street": "Energy Lake Drive", "alt_name": "Energy Lake Campground at Land Between The Lakes", "fee": "yes", "name": "Energy Lake Campground", "opening_hours": "Mar 1-Nov 30 open", "phone": "+1-270-924-2270", "tourism": "camp_site", "website": "https://www.landbetweenthelakes.us/seendo/camping/energy-lake-campground/", "osm_id": 505968704}}, {"type": "Feature", "geometry": {"type": "Point", "coordinates": [-82.8773942, 37.8447574]}, "properties": {"internet_access": "yes", "internet_access:fee": "yes", "name": "Paintsville Lake Camping Grounds", "tourism": "camp_site", "osm_id": 511203152}}, {"type": "Feature", "geometry": {"type": "Point", "coordinates": [-84.7983476, 36.5535501]}, "properties": {"caravans": "yes", "drinking_water": "yes", "fee": "yes", "name": "Pickett State Park Campground", "official_name": "Pickett CCC Memorial State Park Campground", "power_supply": "yes", "tents": "yes", "tourism": "camp_site", "website": "https://tnstateparks.com/parks/campground/pickett", "osm_id": 517708076}}, {"type": "Feature", "geometry": {"type": "Point", "coordinates": [-85.1481271, 36.873752]}, "properties": {"tourism": "camp_site", "osm_id": 529304702}}, {"type": "Feature", "geometry": {"type": "Point", "coordinates": [-86.0970439, 38.409713]}, "properties": {"tourism": "camp_site", "osm_id": 544051067}}, {"type": "Feature", "geometry": {"type": "Point", "coordinates": [-84.1397022, 36.5894839]}, "properties": {"tourism": "camp_site", "osm_id": 547149820}}, {"type": "Feature", "geometry": {"type": "Point", "coordinates": [-86.1249634, 38.2087109]}, "properties": {"name": "Grand Trails RV Park", "tourism": "caravan_site", "osm_id": 548422950}}, {"type": "Feature", "geometry": {"type": "Point", "coordinates": [-87.6487808, 37.9454365]}, "properties": {"tourism": "caravan_site", "osm_id": 573772166}}, {"type": "Feature", "geometry": {"type": "Point", "coordinates": [-83.8171298, 38.7200242]}, "properties": {"name": "Logan\u2019s Gap Camping Resort", "tourism": "camp_site", "website": "http://logansgap.com/", "osm_id": 575479580}}, {"type": "Feature", "geometry": {"type": "Point", "coordinates": [-83.7677551, 38.6578323]}, "properties": {"name": "Lively Lady", "tourism": "caravan_site", "osm_id": 575533299}}, {"type": "Feature", "geometry": {"type": "Point", "coordinates": [-87.9045047, 36.5577168]}, "properties": {"name": "Gatlin Point Campground at Land Between The Lakes", "operator": "USDA Forest Service", "phone": "+1-270-924-2000", "tourism": "camp_site", "website": "https://www.landbetweenthelakes.us/seendo/camping/backcountry/", "osm_id": 589564650}}, {"type": "Feature", "geometry": {"type": "Point", "coordinates": [-87.9159686, 36.6143958]}, "properties": {"tourism": "camp_site", "osm_id": 589567523}}, {"type": "Feature", "geometry": {"type": "Point", "coordinates": [-85.1858633, 38.6777147]}, "properties": {"name": "Two Rivers Campground", "tourism": "camp_site", "osm_id": 590517526}}, {"type": "Feature", "geometry": {"type": "Point", "coordinates": [-84.635453, 36.5464482]}, "properties": {"name": "Station Camp Horse Camp", "tourism": "caravan_site", "osm_id": 593549634}}, {"type": "Feature", "geometry": {"type": "Point", "coordinates": [-84.8681511, 38.2858701]}, "properties": {"addr:city": "Frankfort", "addr:housenumber": "1489", "addr:postcode": "40601", "addr:state": "KY", "addr:street": "Port Collins Road", "name": "Ky River Campground", "tourism": "camp_site", "website": "kyrivercampground.com", "osm_id": 597046921}}, {"type": "Feature", "geometry": {"type": "Point", "coordinates": [-87.4769306, 36.5875326]}, "properties": {"capacity": "0", "internet_access": "no", "name": "Destiny Parks and Pavillions", "power_supply": "yes", "sanitary_dump_station": "yes", "source": "local knowledge", "tourism": "caravan_site", "osm_id": 600494316}}, {"type": "Feature", "geometry": {"type": "Point", "coordinates": [-89.3577409, 38.2772205]}, "properties": {"description": "Playground, shop, camping areas, and boat launch.", "leisure": "park", "name": "Washington County Lake Campgrounds", "tourism": "caravan_site", "website": "https://www.dnr.illinois.gov/Parks/Camp/Pages/WashingtonCounty.aspx", "osm_id": 601461086}}, {"type": "Feature", "geometry": {"type": "Point", "coordinates": [-83.0662286, 38.9269498]}, "properties": {"leisure": "summer_camp", "name": "Camp Molly Lauman", "operator": "Girls Scouts of Ohio's Heartland", "tourism": "camp_site", "website": "https://www.gsoh.org/en/camp/camps---properties/camp-molly-lauman.html", "osm_id": 605091817}}, {"type": "Feature", "geometry": {"type": "Point", "coordinates": [-85.6240334, 38.9842093]}, "properties": {"access": "customers", "fee": "yes", "internet_access": "no", "operator": "Muscatatuck County Park", "tourism": "camp_site", "osm_id": 620649120}}, {"type": "Feature", "geometry": {"type": "Point", "coordinates": [-88.9115269, 37.829413]}, "properties": {"addr:city": "Johnston City", "addr:housenumber": "1600", "addr:state": "IL", "addr:street": "Peterson Street", "fee": "yes", "internet_access:fee": "no", "name": "Arrowhead Lake Campground", "phone": "+1 618 983 3535", "tourism": "camp_site", "website": "https://www.facebook.com/Arrowhead-Lake-Campground-203387279793590/", "osm_id": 621236875}}, {"type": "Feature", "geometry": {"type": "Point", "coordinates": [-88.9835482, 37.5324021]}, "properties": {"access": "customers", "internet_access": "no", "internet_access:fee": "no", "name": "Happy Hollow Primative Camping", "operator": "Illinois Department of Natural Resources", "tourism": "camp_site", "osm_id": 621288672}}, {"type": "Feature", "geometry": {"type": "Point", "coordinates": [-88.9829527, 37.5335465]}, "properties": {"internet_access": "no", "internet_access:fee": "yes", "tourism": "camp_site", "osm_id": 621288679}}, {"type": "Feature", "geometry": {"type": "Point", "coordinates": [-88.9775349, 37.5384187]}, "properties": {"name": "Deer Ridge Campground", "operator": "Illinois Department of Natural Resources", "tourism": "camp_site", "website": "https://www.dnr.illinois.gov/Parks/Camp/Pages/FerneClyffe.aspx", "osm_id": 621288688}}, {"type": "Feature", "geometry": {"type": "Point", "coordinates": [-83.8456502, 38.742869]}, "properties": {"name": "Ripley Boat Club", "tourism": "camp_site", "osm_id": 633785208}}, {"type": "Feature", "geometry": {"type": "Point", "coordinates": [-85.1513749, 38.9704672]}, "properties": {"access": "private", "name": "Old Mill Campground", "tourism": "camp_site", "osm_id": 633948488}}, {"type": "Feature", "geometry": {"type": "Point", "coordinates": [-83.3372448, 39.0918865]}, "properties": {"name": "Cave Lake Park", "tourism": "camp_site", "osm_id": 634986693}}, {"type": "Feature", "geometry": {"type": "Point", "coordinates": [-86.4355046, 37.6289989]}, "properties": {"name": "North Fork State Park", "tourism": "camp_site", "osm_id": 643916385}}, {"type": "Feature", "geometry": {"type": "Point", "coordinates": [-86.4375645, 37.6318919]}, "properties": {"tourism": "camp_site", "osm_id": 643916390}}, {"type": "Feature", "geometry": {"type": "Point", "coordinates": [-86.494698, 37.5727964]}, "properties": {"tourism": "camp_site", "osm_id": 643939642}}, {"type": "Feature", "geometry": {"type": "Point", "coordinates": [-88.3450797, 36.9316988]}, "properties": {"name": "Stagecoach Station Campground", "tourism": "camp_site", "osm_id": 645144196}}, {"type": "Feature", "geometry": {"type": "Point", "coordinates": [-84.6042938, 38.7492296]}, "properties": {"disused:brand": "KOA", "disused:brand:wikidata": "Q16988635", "disused:brand:wikipedia": "en:Kampgrounds of America", "disused:short_name": "KOA", "disused:tourism": "caravan_site", "name": "Northern Kentucky RV Park", "old_name": "Cincinnati South Campground", "tourism": "camp_site", "osm_id": 645335562}}, {"type": "Feature", "geometry": {"type": "Point", "coordinates": [-87.2650421, 36.6128876]}, "properties": {"addr:city": "Clarksville", "addr:housenumber": "3040", "addr:postcode": "37040", "addr:state": "TN", "addr:street": "Spring Creek Village Road", "name": "Spring Creek Campground", "tourism": "camp_site", "osm_id": 649755153}}, {"type": "Feature", "geometry": {"type": "Point", "coordinates": [-84.7261456, 36.6288802]}, "properties": {"internet_access": "no", "name": "Great Meadows Campground Raccoon Loop", "operator": "Daniel Boone National Forest", "tourism": "camp_site", "osm_id": 662469519}}, {"type": "Feature", "geometry": {"type": "Point", "coordinates": [-84.5243423, 36.6418907]}, "properties": {"name": "Bear Creek Horse Camp", "tourism": "camp_site", "osm_id": 668170767}}, {"type": "Feature", "geometry": {"type": "Point", "coordinates": [-84.5463884, 36.7637339]}, "properties": {"tourism": "camp_site", "osm_id": 669454766}}, {"type": "Feature", "geometry": {"type": "Point", "coordinates": [-84.5183983, 36.6779077]}, "properties": {"tourism": "camp_site", "osm_id": 669625431}}, {"type": "Feature", "geometry": {"type": "Point", "coordinates": [-84.7382472, 36.6120934]}, "properties": {"tourism": "camp_site", "osm_id": 670624280}}, {"type": "Feature", "geometry": {"type": "Point", "coordinates": [-84.7277497, 36.6322673]}, "properties": {"name": "Great Meadows Campground Deer Loop", "tourism": "camp_site", "osm_id": 670624288}}, {"type": "Feature", "geometry": {"type": "Point", "coordinates": [-84.7220678, 36.6306991]}, "properties": {"tourism": "camp_site", "osm_id": 670625369}}, {"type": "Feature", "geometry": {"type": "Point", "coordinates": [-84.7069338, 36.6485094]}, "properties": {"tourism": "camp_site", "osm_id": 670625373}}, {"type": "Feature", "geometry": {"type": "Point", "coordinates": [-84.6673411, 36.668808]}, "properties": {"name": "Bell Farm Horse Camp", "tourism": "camp_site", "osm_id": 670629346}}, {"type": "Feature", "geometry": {"type": "Point", "coordinates": [-84.466649, 36.7733202]}, "properties": {"name": "Barren Fork Horse Camp", "tourism": "camp_site", "osm_id": 672376250}}, {"type": "Feature", "geometry": {"type": "Point", "coordinates": [-83.1523489, 38.726118]}, "properties": {"leisure": "summer_camp", "name": "Camp Oyo", "operator": "Simon Kenton Council, Boy Scouts of America", "tourism": "camp_site", "website": "https://campoyo.org/", "osm_id": 697419516}}, {"type": "Feature", "geometry": {"type": "Point", "coordinates": [-82.6212333, 38.6128924]}, "properties": {"addr:state": "OH", "fee": "yes", "name": "Iron Ridge Campground", "operator": "USFS", "tourism": "camp_site", "website": "https://www.fs.usda.gov/r09/wayne/recreation/iron-ridge-campground", "osm_id": 713499579}}, {"type": "Feature", "geometry": {"type": "Point", "coordinates": [-87.5182056, 38.7170284]}, "properties": {"tourism": "camp_site", "osm_id": 723888015}}, {"type": "Feature", "geometry": {"type": "Point", "coordinates": [-87.4961456, 38.7288763]}, "properties": {"tourism": "camp_site", "osm_id": 723900993}}, {"type": "Feature", "geometry": {"type": "Point", "coordinates": [-85.6357943, 38.4336648]}, "properties": {"tourism": "camp_site", "osm_id": 751182295}}, {"type": "Feature", "geometry": {"type": "Point", "coordinates": [-88.269502, 37.0370949]}, "properties": {"tourism": "caravan_site", "osm_id": 754393660}}, {"type": "Feature", "geometry": {"type": "Point", "coordinates": [-89.0309283, 37.5541509]}, "properties": {"tourism": "caravan_site", "osm_id": 759861935}}, {"type": "Feature", "geometry": {"type": "Point", "coordinates": [-88.9548359, 37.732409]}, "properties": {"tourism": "caravan_site", "osm_id": 759874050}}, {"type": "Feature", "geometry": {"type": "Point", "coordinates": [-88.9290032, 38.0133536]}, "properties": {"tourism": "caravan_site", "osm_id": 759883372}}, {"type": "Feature", "geometry": {"type": "Point", "coordinates": [-88.9164186, 38.0699231]}, "properties": {"name": "Whittington Woods Campground", "tourism": "camp_site", "osm_id": 759883374}}, {"type": "Feature", "geometry": {"type": "Point", "coordinates": [-82.9553806, 38.3445859]}, "properties": {"leisure": "summer_camp", "name": "Valley Breeze Campground", "tourism": "camp_site", "osm_id": 763512143}}, {"type": "Feature", "geometry": {"type": "Point", "coordinates": [-82.8925602, 38.4849954]}, "properties": {"tourism": "camp_site", "osm_id": 766600547}}, {"type": "Feature", "geometry": {"type": "Point", "coordinates": [-83.9352411, 37.936303]}, "properties": {"name": "Camp McKee", "tourism": "camp_site", "osm_id": 767399326}}, {"type": "Feature", "geometry": {"type": "Point", "coordinates": [-82.2352901, 38.4413094]}, "properties": {"access": "private", "name": "Camp Arrowhead", "operator": "Boy Scouts of America", "tourism": "camp_site", "osm_id": 767701049}}, {"type": "Feature", "geometry": {"type": "Point", "coordinates": [-82.943776, 38.321974]}, "properties": {"leisure": "recreation_ground", "name": "Cabin Creek Campground", "tourism": "camp_site", "osm_id": 769783975}}, {"type": "Feature", "geometry": {"type": "Point", "coordinates": [-84.8136368, 36.5224512]}, "properties": {"addr:city": "Jamestown", "addr:housenumber": "4020", "addr:postcode": "38556", "addr:state": "TN", "addr:street": "Pickett Park Highway", "name": "Black House Mountain ATV Campground", "tourism": "camp_site", "osm_id": 781555982}}, {"type": "Feature", "geometry": {"type": "Point", "coordinates": [-82.1663752, 37.2438733]}, "properties": {"tourism": "camp_site", "osm_id": 795035111}}, {"type": "Feature", "geometry": {"type": "Point", "coordinates": [-82.043286, 37.1839887]}, "properties": {"name": "Church of Christ Youth Camp", "tourism": "camp_site", "osm_id": 795035223}}, {"type": "Feature", "geometry": {"type": "Point", "coordinates": [-82.2976345, 37.2970874]}, "properties": {"tourism": "camp_site", "osm_id": 796236042}}, {"type": "Feature", "geometry": {"type": "Point", "coordinates": [-82.3123974, 36.914138]}, "properties": {"tourism": "camp_site", "osm_id": 798872894}}, {"type": "Feature", "geometry": {"type": "Point", "coordinates": [-82.1492427, 36.9457353]}, "properties": {"tourism": "camp_site", "osm_id": 798872929}}, {"type": "Feature", "geometry": {"type": "Point", "coordinates": [-82.7377743, 36.702322]}, "properties": {"name": "Lovers Leap Campground", "tourism": "camp_site", "osm_id": 800043890}}, {"type": "Feature", "geometry": {"type": "Point", "coordinates": [-82.7382423, 36.704173]}, "properties": {"name": "Cove View Campground", "tourism": "camp_site", "osm_id": 800043891}}, {"type": "Feature", "geometry": {"type": "Point", "coordinates": [-82.9230639, 36.8008253]}, "properties": {"capacity": "37", "description": "The campground here has 37 campsites including 19 sites with electric hookups.", "fee": "yes", "name": "Cave Springs campground", "operator": "National Forest Service Clinch Ranger District: (276) 679-8370", "tourism": "camp_site", "osm_id": 801475590}}, {"type": "Feature", "geometry": {"type": "Point", "coordinates": [-82.6767809, 37.1004042]}, "properties": {"backcountry": "no", "capacity": "35", "caravans": "yes", "drinking_water": "yes", "fee": "yes", "group_only": "no", "name": "Cane Patch Campground", "operator": "United States Department of Agriculture", "shower": "yes", "tents": "yes", "toilets": "yes", "tourism": "camp_site", "website": "https://www.fs.usda.gov/recarea/gwj/recarea/?recid=73637", "osm_id": 801475598}}, {"type": "Feature", "geometry": {"type": "Point", "coordinates": [-82.6328784, 36.9172648]}, "properties": {"name": "Flag Rock Recreation Area Lower Campground", "tourism": "camp_site", "osm_id": 802700838}}, {"type": "Feature", "geometry": {"type": "Point", "coordinates": [-82.6232118, 36.8906991]}, "properties": {"capacity": "13", "fee": "yes", "name": "High Knob Campground", "tourism": "camp_site", "osm_id": 802700932}}, {"type": "Feature", "geometry": {"type": "Point", "coordinates": [-82.0235422, 36.6058713]}, "properties": {"tourism": "caravan_site", "osm_id": 808088700}}, {"type": "Feature", "geometry": {"type": "Point", "coordinates": [-82.0782814, 36.8484499]}, "properties": {"internet_access": "no", "name": "Hidden Valley Campground", "tourism": "camp_site", "osm_id": 808088907}}, {"type": "Feature", "geometry": {"type": "Point", "coordinates": [-82.033453, 36.785044]}, "properties": {"tourism": "caravan_site", "osm_id": 808088920}}, {"type": "Feature", "geometry": {"type": "Point", "coordinates": [-85.4578449, 37.7981068]}, "properties": {"leisure": "park", "tourism": "camp_site", "osm_id": 810231794}}, {"type": "Feature", "geometry": {"type": "Point", "coordinates": [-84.2587775, 36.8414731]}, "properties": {"name": "Sheltowee Trace RV Park", "tourism": "caravan_site", "osm_id": 812988348}}, {"type": "Feature", "geometry": {"type": "Point", "coordinates": [-87.0886182, 36.5878173]}, "properties": {"tourism": "camp_site", "osm_id": 826312918}}, {"type": "Feature", "geometry": {"type": "Point", "coordinates": [-87.2817232, 37.6914353]}, "properties": {"addr:city": "Owensboro", "addr:housenumber": "7301", "addr:street": "Hobbs Road", "name": "Diamond Lake Resort", "tourism": "caravan_site", "website": "https://www.diamondlakeresort.net/", "osm_id": 843983365}}, {"type": "Feature", "geometry": {"type": "Point", "coordinates": [-82.6328677, 36.9154602]}, "properties": {"name": "Flag Rock Recreation Area Upper Campground", "tourism": "camp_site", "osm_id": 847801784}}, {"type": "Feature", "geometry": {"type": "Point", "coordinates": [-82.947523, 37.2363633]}, "properties": {"tourism": "camp_site", "osm_id": 848531303}}, {"type": "Feature", "geometry": {"type": "Point", "coordinates": [-84.3307811, 36.8413697]}, "properties": {"name": "Ridgeline Campground", "tourism": "camp_site", "osm_id": 848639247}}, {"type": "Feature", "geometry": {"type": "Point", "coordinates": [-84.3399515, 36.8416026]}, "properties": {"name": "Clifty Campground", "tourism": "camp_site", "osm_id": 848639248}}, {"type": "Feature", "geometry": {"type": "Point", "coordinates": [-87.0834818, 36.5862627]}, "properties": {"tourism": "caravan_site", "osm_id": 848643776}}, {"type": "Feature", "geometry": {"type": "Point", "coordinates": [-85.2838397, 36.6536846]}, "properties": {"tourism": "camp_site", "osm_id": 848647969}}, {"type": "Feature", "geometry": {"type": "Point", "coordinates": [-88.1350087, 36.7730856]}, "properties": {"tourism": "camp_site", "osm_id": 848656194}}, {"type": "Feature", "geometry": {"type": "Point", "coordinates": [-87.6559721, 37.0704933]}, "properties": {"tourism": "camp_site", "osm_id": 848661626}}, {"type": "Feature", "geometry": {"type": "Point", "coordinates": [-86.2102126, 37.2950776]}, "properties": {"tourism": "caravan_site", "osm_id": 848668230}}, {"type": "Feature", "geometry": {"type": "Point", "coordinates": [-86.2150998, 37.2926961]}, "properties": {"name": "Nolin Lake State Park Campsite", "tourism": "camp_site", "osm_id": 848668231}}, {"type": "Feature", "geometry": {"type": "Point", "coordinates": [-85.2591205, 38.0306631]}, "properties": {"tourism": "camp_site", "osm_id": 848669430}}, {"type": "Feature", "geometry": {"type": "Point", "coordinates": [-82.6858252, 38.0975552]}, "properties": {"tourism": "camp_site", "osm_id": 848670063}}, {"type": "Feature", "geometry": {"type": "Point", "coordinates": [-89.2636576, 38.6543918]}, "properties": {"tourism": "caravan_site", "osm_id": 849623191}}, {"type": "Feature", "geometry": {"type": "Point", "coordinates": [-89.2135432, 38.7676183]}, "properties": {"tourism": "camp_site", "osm_id": 849623209}}, {"type": "Feature", "geometry": {"type": "Point", "coordinates": [-89.2775971, 38.7345402]}, "properties": {"tourism": "camp_site", "osm_id": 849623217}}, {"type": "Feature", "geometry": {"type": "Point", "coordinates": [-88.6603459, 37.4090334]}, "properties": {"fee": "yes", "name": "Oak Point Campground", "payment:cash": "yes", "reservation": "no", "shower": "yes", "toilets": "yes", "tourism": "camp_site", "website": "https://www.fs.usda.gov/recarea/shawnee/recarea/?recid=10688", "osm_id": 850328087}}, {"type": "Feature", "geometry": {"type": "Point", "coordinates": [-83.0020363, 37.2333673]}, "properties": {"name": "Carr Creek State Park Campground", "tourism": "camp_site", "osm_id": 856115763}}, {"type": "Feature", "geometry": {"type": "Point", "coordinates": [-83.3693876, 37.272997]}, "properties": {"tourism": "camp_site", "osm_id": 856145276}}, {"type": "Feature", "geometry": {"type": "Point", "coordinates": [-88.2739161, 37.6282466]}, "properties": {"addr:city": "Junction", "addr:housenumber": "5320", "addr:postcode": "62954", "addr:state": "IL", "addr:street": "Thacker Hollow Road", "name": "Double M Campground", "phone": "+1-618-275-4440", "tourism": "camp_site", "website": "http://doublemcampground.com/", "osm_id": 874059390}}, {"type": "Feature", "geometry": {"type": "Point", "coordinates": [-88.2446683, 37.578293]}, "properties": {"access": "yes", "camp_site:reservations": "no", "capacity": "8", "fee": "yes", "name": "Camp Cadiz Campground", "phone:ranger": "+1-618-253-7114", "tourism": "camp_site", "website": "https://www.fs.usda.gov/recarea/shawnee/recreation/horseriding-camping/recarea/?recid=10682&actid=30", "osm_id": 874059400}}, {"type": "Feature", "geometry": {"type": "Point", "coordinates": [-85.2554626, 37.2866426]}, "properties": {"fee": "no", "name": "Wilson Creek Recreation Area -FREE", "tourism": "camp_site", "osm_id": 881694714}}, {"type": "Feature", "geometry": {"type": "Point", "coordinates": [-87.855149, 37.6170738]}, "properties": {"name": "Lake Mauzy East FREE", "tourism": "camp_site", "osm_id": 881761209}}, {"type": "Feature", "geometry": {"type": "Point", "coordinates": [-87.8583649, 37.6218885]}, "properties": {"name": "Lake Mauzy West - FREE", "tourism": "camp_site", "osm_id": 882161765}}, {"type": "Feature", "geometry": {"type": "Point", "coordinates": [-88.0605572, 36.7713291]}, "properties": {"name": "Golden Pond Visitor Center FREE", "tourism": "camp_site", "osm_id": 882164050}}, {"type": "Feature", "geometry": {"type": "Point", "coordinates": [-83.1297362, 38.3748054]}, "properties": {"charge": "22 USD", "fee": "yes", "name": "Carter Caves Campground", "operator": "Kentucky State Parks", "tourism": "camp_site", "osm_id": 882182383}}, {"type": "Feature", "geometry": {"type": "Point", "coordinates": [-83.1346097, 38.3778241]}, "properties": {"horse": "yes", "name": "Horse Campground", "tourism": "camp_site", "osm_id": 882455330}}, {"type": "Feature", "geometry": {"type": "Point", "coordinates": [-89.1079869, 36.7616582]}, "properties": {"name": "Columbus-Belmont State Park Campground", "tourism": "camp_site", "osm_id": 895111242}}, {"type": "Feature", "geometry": {"type": "Point", "coordinates": [-82.6748971, 38.1779609]}, "properties": {"name": "Falls Campground", "tourism": "camp_site", "osm_id": 895288800}}, {"type": "Feature", "geometry": {"type": "Point", "coordinates": [-83.5603689, 39.0986835]}, "properties": {"addr:city": "Hillsboro", "addr:housenumber": "8881", "addr:postcode": "45133", "addr:state": "OH", "addr:street": "West Deadfall Road", "alt_name": "Woodland Lake Leisure Resort", "caravans": "yes", "fixme": "is this open/operational? what is it called now?", "name": "Woodland Lake Campground", "official_name": "KM Retreat LLC", "tourism": "camp_site", "osm_id": 905205049}}, {"type": "Feature", "geometry": {"type": "Point", "coordinates": [-82.1252348, 38.8821834]}, "properties": {"name": "K & K Mobile Home Parks", "tourism": "caravan_site", "osm_id": 906007310}}, {"type": "Feature", "geometry": {"type": "Point", "coordinates": [-82.1680617, 38.6137211]}, "properties": {"caravans": "yes", "name": "River's Edge Campground", "phone": "+13045763005", "residential": "rural", "tents": "no", "tourism": "camp_site", "website": "https://www.riversedgecampwv.com/", "osm_id": 921157767}}, {"type": "Feature", "geometry": {"type": "Point", "coordinates": [-86.3670226, 38.981548]}, "properties": {"name": "Midwest Trail Ride RV Horse Campground", "tourism": "camp_site", "osm_id": 933108570}}, {"type": "Feature", "geometry": {"type": "Point", "coordinates": [-84.2755182, 38.7211305]}, "properties": {"tourism": "camp_site", "osm_id": 944036965}}, {"type": "Feature", "geometry": {"type": "Point", "coordinates": [-84.2791392, 38.7207684]}, "properties": {"tourism": "camp_site", "osm_id": 944036966}}, {"type": "Feature", "geometry": {"type": "Point", "coordinates": [-84.3240897, 38.6771189]}, "properties": {"tourism": "caravan_site", "osm_id": 954369127}}, {"type": "Feature", "geometry": {"type": "Point", "coordinates": [-85.5052842, 37.2590795]}, "properties": {"access": "yes", "addr:city": "Greensburg", "addr:housenumber": "112", "addr:postcode": "42743", "addr:state": "KY", "addr:street": "Paddle Trail Lane", "name": "Green River Paddle Trail", "operator": "City of Greensburg", "tourism": "camp_site", "osm_id": 955844807}}, {"type": "Feature", "geometry": {"type": "Point", "coordinates": [-85.4609144, 36.539022]}, "properties": {"tourism": "camp_site", "osm_id": 972269386}}, {"type": "Feature", "geometry": {"type": "Point", "coordinates": [-83.6619557, 37.8044623]}, "properties": {"backcountry": "yes", "tourism": "camp_site", "osm_id": 987009812}}, {"type": "Feature", "geometry": {"type": "Point", "coordinates": [-83.662107, 37.8036499]}, "properties": {"backcountry": "yes", "tourism": "camp_site", "osm_id": 987010523}}, {"type": "Feature", "geometry": {"type": "Point", "coordinates": [-83.6621282, 37.8050059]}, "properties": {"backcountry": "yes", "tourism": "camp_site", "osm_id": 987018700}}, {"type": "Feature", "geometry": {"type": "Point", "coordinates": [-83.699742, 37.8224974]}, "properties": {"backcountry": "yes", "tourism": "camp_site", "osm_id": 987228863}}, {"type": "Feature", "geometry": {"type": "Point", "coordinates": [-83.6966757, 37.8199005]}, "properties": {"backcountry": "yes", "tourism": "camp_site", "osm_id": 987228864}}, {"type": "Feature", "geometry": {"type": "Point", "coordinates": [-83.6880502, 37.8183644]}, "properties": {"backcountry": "yes", "tourism": "camp_site", "osm_id": 987228865}}, {"type": "Feature", "geometry": {"type": "Point", "coordinates": [-83.692821, 37.821312]}, "properties": {"backcountry": "yes", "tourism": "camp_site", "osm_id": 987228866}}, {"type": "Feature", "geometry": {"type": "Point", "coordinates": [-86.4347502, 36.9151375]}, "properties": {"tourism": "camp_site", "osm_id": 992345348}}, {"type": "Feature", "geometry": {"type": "Point", "coordinates": [-86.2361631, 37.3162171]}, "properties": {"name": "Moutardier Campground", "tourism": "camp_site", "osm_id": 1005283847}}, {"type": "Feature", "geometry": {"type": "Point", "coordinates": [-86.1319723, 37.3217238]}, "properties": {"name": "Dog Creek Campground", "tourism": "camp_site", "osm_id": 1005283848}}, {"type": "Feature", "geometry": {"type": "Point", "coordinates": [-86.128909, 37.3431133]}, "properties": {"name": "Wax Campground", "tourism": "camp_site", "osm_id": 1005288065}}, {"type": "Feature", "geometry": {"type": "Point", "coordinates": [-85.6088038, 36.9757643]}, "properties": {"tourism": "caravan_site", "osm_id": 1016859015}}, {"type": "Feature", "geometry": {"type": "Point", "coordinates": [-85.6407362, 36.9861249]}, "properties": {"tourism": "caravan_site", "osm_id": 1016922098}}, {"type": "Feature", "geometry": {"type": "Point", "coordinates": [-85.3400956, 36.6704159]}, "properties": {"name": "Sulphur Creek Resort Campground", "tourism": "camp_site", "website": "http://www.sulphurcreek.com/camping-info/", "osm_id": 1017419855}}, {"type": "Feature", "geometry": {"type": "Point", "coordinates": [-88.3443139, 37.4178367]}, "properties": {"access": "yes", "addr:city": "Rosiclare", "addr:postcode": "62982", "addr:state": "IL", "addr:street": "1st Street", "capacity:caravans": "8", "name": "Rosiclare Camp ground", "operator": "City of Rosiclare", "tourism": "camp_site", "osm_id": 1026508678}}, {"type": "Feature", "geometry": {"type": "Point", "coordinates": [-86.4925726, 39.052297]}, "properties": {"name": "Lake Monroe Village", "tourism": "caravan_site", "osm_id": 1035159380}}, {"type": "Feature", "geometry": {"type": "Point", "coordinates": [-82.9911697, 38.7285522]}, "properties": {"tourism": "caravan_site", "osm_id": 1042652549}}, {"type": "Feature", "geometry": {"type": "Point", "coordinates": [-83.530934, 38.8126475]}, "properties": {"tourism": "caravan_site", "osm_id": 1043805896}}, {"type": "Feature", "geometry": {"type": "Point", "coordinates": [-83.5310909, 38.8126637]}, "properties": {"tourism": "caravan_site", "osm_id": 1043805897}}, {"type": "Feature", "geometry": {"type": "Point", "coordinates": [-83.5312605, 38.8125945]}, "properties": {"tourism": "caravan_site", "osm_id": 1043805898}}, {"type": "Feature", "geometry": {"type": "Point", "coordinates": [-83.5313164, 38.8124889]}, "properties": {"tourism": "caravan_site", "osm_id": 1043805899}}, {"type": "Feature", "geometry": {"type": "Point", "coordinates": [-83.5312723, 38.8123936]}, "properties": {"tourism": "caravan_site", "osm_id": 1043805900}}, {"type": "Feature", "geometry": {"type": "Point", "coordinates": [-82.2339488, 36.5147377]}, "properties": {"addr:city": "Bristol", "addr:housenumber": "100", "addr:postcode": "37620", "addr:state": "TN", "addr:street": "Sportsway Drive", "caravans": "yes", "facebook": "https://www.facebook.com/groups/184166429428/", "name": "Bristol Campground & Event Parking", "phone": "+1 4233413022", "tents": "yes", "tourism": "camp_site", "website": "https://www.bristolcampground.com/", "osm_id": 1050735139}}, {"type": "Feature", "geometry": {"type": "Point", "coordinates": [-86.294952, 38.870711]}, "properties": {"name": "Camp Challenge", "tourism": "camp_site", "osm_id": 1055737318}}, {"type": "Feature", "geometry": {"type": "Point", "coordinates": [-87.3225381, 36.6338363]}, "properties": {"tourism": "caravan_site", "osm_id": 1056645579}}, {"type": "Feature", "geometry": {"type": "Point", "coordinates": [-88.297122, 36.9796091]}, "properties": {"name": "Kentucky Lake Resort and RV Park", "tourism": "camp_site", "osm_id": 1062795266}}, {"type": "Feature", "geometry": {"type": "Point", "coordinates": [-84.3493694, 37.4035715]}, "properties": {"tourism": "caravan_site", "osm_id": 1066991554}}, {"type": "Feature", "geometry": {"type": "Point", "coordinates": [-88.8573016, 37.2840664]}, "properties": {"internet_access": "wlan", "power_supply": "yes", "sanitary_dump_station": "no", "tourism": "caravan_site", "website": "https://www.mermetsprings.com/camping-accommodations", "osm_id": 1072110590}}, {"type": "Feature", "geometry": {"type": "Point", "coordinates": [-84.1744045, 36.726744]}, "properties": {"name": "Kentucky Splash Campground", "tourism": "camp_site", "osm_id": 1080591595}}, {"type": "Feature", "geometry": {"type": "Point", "coordinates": [-85.7023386, 37.9801831]}, "properties": {"name": "Grandma's RV Camping", "tourism": "caravan_site", "osm_id": 1089809247}}, {"type": "Feature", "geometry": {"type": "Point", "coordinates": [-89.2890647, 38.9258466]}, "properties": {"email": "TIMBERTRAILSCAMPGROUND@OUTLOOK.COM", "fee": "yes", "name": "Timber Trails Campground", "phone": "+1-618-326-8264", "tourism": "camp_site", "website": "http://www.timbertrails.itgo.com/", "osm_id": 1090390176}}, {"type": "Feature", "geometry": {"type": "Point", "coordinates": [-89.2791272, 38.9029561]}, "properties": {"name": "Cedarbrook RV Park & Campground", "tourism": "camp_site", "osm_id": 1090392357}}, {"type": "Feature", "geometry": {"type": "Point", "coordinates": [-89.0042, 38.977636]}, "properties": {"addr:housenumber": "1351", "addr:street": "East 1650 Avenue", "fee": "yes", "name": "Okaw Valley Kampground", "phone": "+1-618-427-5140", "tourism": "camp_site", "website": "http://okawvalley.com/", "osm_id": 1090396178}}, {"type": "Feature", "geometry": {"type": "Point", "coordinates": [-89.3610803, 38.9465926]}, "properties": {"addr:city": "Greenville", "addr:housenumber": "1391", "addr:postcode": "62246", "addr:state": "IL", "addr:street": "Woburn Road", "internet_access": "no", "internet_access:fee": "no", "name": "Durley Camp and retreat center", "source": "Campground Map;Survey", "tourism": "camp_site", "website": "https://www.durleycamp.org/", "osm_id": 1090397579}}, {"type": "Feature", "geometry": {"type": "Point", "coordinates": [-89.4018486, 38.9268685]}, "properties": {"tourism": "camp_site", "osm_id": 1090404904}}, {"type": "Feature", "geometry": {"type": "Point", "coordinates": [-88.0031062, 38.2431646]}, "properties": {"brand": "KOA", "brand:wikidata": "Q16988635", "name": "Grayville KOA Holiday", "short_name": "KOA", "tourism": "caravan_site", "osm_id": 1092484338}}, {"type": "Feature", "geometry": {"type": "Point", "coordinates": [-87.519508, 38.1693525]}, "properties": {"addr:city": "Haubstatd", "addr:housenumber": "12848", "addr:state": "IN", "addr:street": "South Weather Rock Drive", "email": "HillbillyR@aol.com", "fee": "yes", "name": "Weather Rock Campground", "phone": "+1-812-867-3401", "tourism": "camp_site", "website": "http://www.weatherrockcampground.com/", "osm_id": 1092487621}}, {"type": "Feature", "geometry": {"type": "Point", "coordinates": [-87.325238, 38.1951215]}, "properties": {"tourism": "caravan_site", "osm_id": 1092490070}}, {"type": "Feature", "geometry": {"type": "Point", "coordinates": [-82.5567152, 38.6285487]}, "properties": {"access": "customers", "name": "Elkins Creek Horse Camp & Tack", "tourism": "camp_site", "website": "https://www.elkinscreekhorsecamp.com/", "osm_id": 1095467023}}, {"type": "Feature", "geometry": {"type": "Point", "coordinates": [-89.3589735, 38.6309569]}, "properties": {"cabins": "no", "capacity": "109", "caravans": "yes", "contact:phone": "+1-618-594-4410", "contact:website": "https://www.recreation.gov/camping/campgrounds/233483", "fee": "yes", "internet_access": "wlan", "name": "Dam West Campground", "operator": "US Army Corps of Engineers", "permanent_camping": "no", "power_supply": "yes", "sanitary_dump_station": "yes", "tents": "yes", "tourism": "caravan_site", "water_point": "yes", "osm_id": 1108044726}}, {"type": "Feature", "geometry": {"type": "Point", "coordinates": [-89.3570841, 38.6353173]}, "properties": {"cabins": "no", "caravans": "yes", "fee": "yes", "name": "Carlyle Village Campground", "permanent_camping": "yes", "power_supply": "yes", "sanitary_dump_station": "yes", "tourism": "caravan_site", "water_point": "yes", "osm_id": 1108392225}}, {"type": "Feature", "geometry": {"type": "Point", "coordinates": [-89.1197198, 38.9736784]}, "properties": {"capacity:caravans": "12", "fee": "yes", "internet_access": "wlan", "internet_access:fee": "customers", "name": "Kaskaskia Dragon RV Park", "tents": "no", "tourism": "caravan_site", "osm_id": 1111217769}}, {"type": "Feature", "geometry": {"type": "Point", "coordinates": [-85.9445417, 37.9978929]}, "properties": {"addr:street": "west point", "name": "Salt River Recreation Park", "tourism": "camp_site", "osm_id": 1131866111}}, {"type": "Feature", "geometry": {"type": "Point", "coordinates": [-86.1642561, 37.9927799]}, "properties": {"tourism": "caravan_site", "osm_id": 1137084210}}, {"type": "Feature", "geometry": {"type": "Point", "coordinates": [-86.0805274, 38.8175444]}, "properties": {"tourism": "camp_site", "osm_id": 1138120273}}, {"type": "Feature", "geometry": {"type": "Point", "coordinates": [-86.0758082, 38.8176204]}, "properties": {"tourism": "camp_site", "osm_id": 1138120288}}, {"type": "Feature", "geometry": {"type": "Point", "coordinates": [-86.07647, 38.815711]}, "properties": {"tourism": "camp_site", "osm_id": 1138120289}}, {"type": "Feature", "geometry": {"type": "Point", "coordinates": [-86.5975166, 38.6496055]}, "properties": {"name": "Shirley Creek Horse Camp", "tourism": "camp_site", "osm_id": 1138134236}}, {"type": "Feature", "geometry": {"type": "Point", "coordinates": [-85.5160279, 37.810281]}, "properties": {"addr:city": "Bardstown", "addr:housenumber": "3022", "addr:postcode": "40004", "addr:street": "Boston Road", "name": "White Acres Campground", "tourism": "camp_site", "website": "https://whiteacrescampground.com/", "osm_id": 1147227452}}, {"type": "Feature", "geometry": {"type": "Point", "coordinates": [-85.4897201, 37.8368357]}, "properties": {"addr:city": "Bardstown", "addr:housenumber": "2289", "addr:postcode": "40004", "addr:street": "Templin Avenue", "name": "Lil patch of Heaven Campground", "tourism": "camp_site", "osm_id": 1147227459}}, {"type": "Feature", "geometry": {"type": "Point", "coordinates": [-83.0104066, 39.0631711]}, "properties": {"tourism": "caravan_site", "osm_id": 1154045431}}, {"type": "Feature", "geometry": {"type": "Point", "coordinates": [-83.6610732, 37.8037524]}, "properties": {"backcountry": "yes", "tourism": "camp_site", "osm_id": 1160255481}}, {"type": "Feature", "geometry": {"type": "Point", "coordinates": [-83.6691572, 37.8023908]}, "properties": {"backcountry": "yes", "tourism": "camp_site", "osm_id": 1160568062}}, {"type": "Feature", "geometry": {"type": "Point", "coordinates": [-83.6694844, 37.8008189]}, "properties": {"backcountry": "yes", "tourism": "camp_site", "osm_id": 1160568063}}, {"type": "Feature", "geometry": {"type": "Point", "coordinates": [-83.6705541, 37.8046067]}, "properties": {"backcountry": "yes", "tourism": "camp_site", "osm_id": 1160568064}}, {"type": "Feature", "geometry": {"type": "Point", "coordinates": [-83.6695895, 37.8039196]}, "properties": {"backcountry": "yes", "tourism": "camp_site", "osm_id": 1160568066}}, {"type": "Feature", "geometry": {"type": "Point", "coordinates": [-88.1552578, 37.471328]}, "properties": {"tourism": "camp_site", "osm_id": 1164573469}}, {"type": "Feature", "geometry": {"type": "Point", "coordinates": [-88.1585038, 37.471593]}, "properties": {"tourism": "caravan_site", "osm_id": 1164573473}}, {"type": "Feature", "geometry": {"type": "Point", "coordinates": [-85.0548436, 38.7396269]}, "properties": {"name": "Ghent RV Park", "tourism": "camp_site", "osm_id": 1174695046}}, {"type": "Feature", "geometry": {"type": "Point", "coordinates": [-82.0289066, 37.8852778]}, "properties": {"name": "Chief Logan State Park Campground", "tourism": "caravan_site", "osm_id": 1174898181}}, {"type": "Feature", "geometry": {"type": "Point", "coordinates": [-87.1034626, 37.280951]}, "properties": {"addr:city": "Central City", "addr:housenumber": "700", "addr:postcode": "42330", "addr:state": "KY", "addr:street": "Youngstown Road", "fee": "yes", "internet_access": "wlan", "name": "Western KY RV Park", "phone": "+1-270-757-0345", "tourism": "camp_site", "website": "https://wkyrvpark.com", "osm_id": 1177422802}}, {"type": "Feature", "geometry": {"type": "Point", "coordinates": [-85.4232358, 38.7572199]}, "properties": {"tourism": "camp_site", "osm_id": 1180237598}}, {"type": "Feature", "geometry": {"type": "Point", "coordinates": [-85.4189335, 38.7588036]}, "properties": {"name": "Youth Tent Area", "tourism": "camp_site", "osm_id": 1180477829}}, {"type": "Feature", "geometry": {"type": "Point", "coordinates": [-84.0319253, 38.3428412]}, "properties": {"leisure": "summer_camp", "name": "North Central 4-H Camp", "operator": "4-H", "operator:wikidata": "Q238139", "tourism": "camp_site", "website": "https://4-h.ca.uky.edu/north-central-camp", "osm_id": 1191312384}}, {"type": "Feature", "geometry": {"type": "Point", "coordinates": [-84.8337322, 38.9763125]}, "properties": {"brand": "Beyonder", "name": "Beyonder Getaway Rising Sun", "old_name": "Little Farm on the River", "tourism": "caravan_site", "website": "https://beyondercamp.com/rising-sun-rising-sun-in/", "osm_id": 1194863347}}, {"type": "Feature", "geometry": {"type": "Point", "coordinates": [-89.4053784, 37.7995641]}, "properties": {"caravans": "yes", "fee": "yes", "name": "Ed Bottom Memorial Campground", "operator": "Kinkaid Lake Marina", "tents": "yes", "tourism": "camp_site", "osm_id": 1205582404}}, {"type": "Feature", "geometry": {"type": "Point", "coordinates": [-89.4117999, 37.8021327]}, "properties": {"name": "Kinkaid Lake Campsites (Annual Lease)", "power_supply": "yes", "sanitary_dump_station": "yes", "tourism": "caravan_site", "water_point": "yes", "osm_id": 1205582406}}, {"type": "Feature", "geometry": {"type": "Point", "coordinates": [-89.4075459, 37.8019645]}, "properties": {"caravans": "yes", "power_supply": "no", "sanitary_dump_station": "no", "tents": "yes", "tourism": "camp_site", "water_point": "no", "osm_id": 1205582407}}, {"type": "Feature", "geometry": {"type": "Point", "coordinates": [-89.4162932, 37.8019991]}, "properties": {"caravans": "no", "fee": "yes", "name": "The Point", "operator": "Kinkaid Lake Marina", "power_supply": "no", "sanitary_dump_station": "no", "static_caravans": "no", "tents": "yes", "tourism": "camp_site", "water_point": "no", "osm_id": 1205582408}}, {"type": "Feature", "geometry": {"type": "Point", "coordinates": [-89.4101629, 37.7843556]}, "properties": {"addr:city": "Murphysboro", "addr:housenumber": "2360", "addr:postcode": "62966", "addr:state": "IL", "addr:street": "Mount Joy Road", "name": "Hilltop Campground", "power_supply": "yes", "sanitary_dump_station": "yes", "tourism": "caravan_site", "osm_id": 1206935915}}, {"type": "Feature", "geometry": {"type": "Point", "coordinates": [-89.4118108, 37.7940657]}, "properties": {"addr:city": "Murphysboro", "addr:housenumber": "1761", "addr:postcode": "62966", "addr:state": "IL", "addr:street": "Marina Road", "name": "Kinkaid Cabins & RVs", "power_supply": "yes", "sanitary_dump_station": "yes", "tourism": "caravan_site", "osm_id": 1206999987}}, {"type": "Feature", "geometry": {"type": "Point", "coordinates": [-89.4221015, 37.7822314]}, "properties": {"power_supply": "yes", "sanitary_dump_station": "yes", "tourism": "caravan_site", "osm_id": 1207016785}}, {"type": "Feature", "geometry": {"type": "Point", "coordinates": [-82.8954417, 38.4857968]}, "properties": {"caravans": "yes", "name": "Greenbo Lake State Park Campground", "phone": "+1-606-473-7324", "static_caravans": "no", "tourism": "camp_site", "website": "https://parks.ky.gov/", "osm_id": 1207293718}}, {"type": "Feature", "geometry": {"type": "Point", "coordinates": [-84.2623039, 37.2267913]}, "properties": {"name": "Rockcastle Riverside", "tourism": "camp_site", "website": "https://www.rockcastleriverside.com/", "osm_id": 1213966579}}, {"type": "Feature", "geometry": {"type": "Point", "coordinates": [-82.2320498, 38.4388297]}, "properties": {"tourism": "camp_site", "osm_id": 1216373409}}, {"type": "Feature", "geometry": {"type": "Point", "coordinates": [-82.231388, 38.4398992]}, "properties": {"tourism": "camp_site", "osm_id": 1216373410}}, {"type": "Feature", "geometry": {"type": "Point", "coordinates": [-82.2308786, 38.4405099]}, "properties": {"tourism": "camp_site", "osm_id": 1216373411}}, {"type": "Feature", "geometry": {"type": "Point", "coordinates": [-82.2349939, 38.4351544]}, "properties": {"tourism": "camp_site", "osm_id": 1216373413}}, {"type": "Feature", "geometry": {"type": "Point", "coordinates": [-86.007357, 38.8587659]}, "properties": {"group_only": "yes", "tourism": "camp_site", "osm_id": 1219422400}}, {"type": "Feature", "geometry": {"type": "Point", "coordinates": [-89.5415172, 37.563346]}, "properties": {"access": "yes", "name": "Boat Ramp Camping", "operator": "Missouri Department of Conservation", "tents": "yes", "tourism": "camp_site", "osm_id": 1225551171}}, {"type": "Feature", "geometry": {"type": "Point", "coordinates": [-83.6932465, 37.8276483]}, "properties": {"backcountry": "yes", "tourism": "camp_site", "osm_id": 1226629312}}, {"type": "Feature", "geometry": {"type": "Point", "coordinates": [-83.6922225, 37.8249838]}, "properties": {"backcountry": "yes", "tourism": "camp_site", "osm_id": 1226629315}}, {"type": "Feature", "geometry": {"type": "Point", "coordinates": [-83.694842, 37.8315396]}, "properties": {"backcountry": "yes", "tourism": "camp_site", "osm_id": 1226629316}}, {"type": "Feature", "geometry": {"type": "Point", "coordinates": [-83.6979555, 37.8364731]}, "properties": {"backcountry": "yes", "tourism": "camp_site", "osm_id": 1226629317}}, {"type": "Feature", "geometry": {"type": "Point", "coordinates": [-84.1153743, 36.9715686]}, "properties": {"brand": "KOA", "brand:wikidata": "Q16988635", "name": "KOA Journey", "short_name": "KOA", "tourism": "caravan_site", "osm_id": 1229084047}}, {"type": "Feature", "geometry": {"type": "Point", "coordinates": [-83.71276, 37.170998]}, "properties": {"name": "Governor's Campground", "tourism": "camp_site", "osm_id": 1229154297}}, {"type": "Feature", "geometry": {"type": "Point", "coordinates": [-84.4138876, 36.7639526]}, "properties": {"name": "Sandhill RV Park", "tourism": "camp_site", "osm_id": 1253636560}}, {"type": "Feature", "geometry": {"type": "Point", "coordinates": [-84.2567371, 36.9226566]}, "properties": {"name": "Laurel Lake Camping Resort", "tourism": "camp_site", "osm_id": 1255734979}}, {"type": "Feature", "geometry": {"type": "Point", "coordinates": [-84.2536924, 36.9139896]}, "properties": {"tourism": "camp_site", "osm_id": 1255735339}}, {"type": "Feature", "geometry": {"type": "Point", "coordinates": [-88.4981341, 37.6128889]}, "properties": {"access": "customers", "addr:city": "Harrisburg", "addr:housenumber": "1935", "addr:postcode": "62946", "addr:state": "IL", "addr:street": "Peak Road", "caravans": "yes", "name": "Williams Pass & OHV Park", "phone": "+1-618-252-6978", "tents": "yes", "tourism": "camp_site", "website": "https://williamshillpass.org", "osm_id": 1257620840}}, {"type": "Feature", "geometry": {"type": "Point", "coordinates": [-84.6402351, 37.0307902]}, "properties": {"name": "Somerset KY RV Park", "tourism": "caravan_site", "osm_id": 1258409292}}, {"type": "Feature", "geometry": {"type": "Point", "coordinates": [-86.2706242, 37.3110218]}, "properties": {"tourism": "camp_site", "osm_id": 1260595829}}, {"type": "Feature", "geometry": {"type": "Point", "coordinates": [-86.12566, 37.3540921]}, "properties": {"tourism": "camp_site", "osm_id": 1260631860}}, {"type": "Feature", "geometry": {"type": "Point", "coordinates": [-86.7386636, 37.4499717]}, "properties": {"name": "Everette Park Caampground", "tourism": "caravan_site", "osm_id": 1261928462}}, {"type": "Feature", "geometry": {"type": "Point", "coordinates": [-86.0293817, 37.554905]}, "properties": {"landuse": "religious", "leisure": "summer_camp", "name": "White Mills Christian Camp", "religion": "christian", "tourism": "camp_site", "osm_id": 1262292642}}, {"type": "Feature", "geometry": {"type": "Point", "coordinates": [-83.1987152, 36.9117905]}, "properties": {"tourism": "camp_site", "osm_id": 1262717510}}, {"type": "Feature", "geometry": {"type": "Point", "coordinates": [-85.9135505, 37.776611]}, "properties": {"tourism": "caravan_site", "osm_id": 1262925529}}, {"type": "Feature", "geometry": {"type": "Point", "coordinates": [-84.9711989, 36.8588221]}, "properties": {"tourism": "camp_site", "osm_id": 1264906763}}, {"type": "Feature", "geometry": {"type": "Point", "coordinates": [-83.6361691, 37.7846733]}, "properties": {"tourism": "camp_site", "osm_id": 1266318491}}, {"type": "Feature", "geometry": {"type": "Point", "coordinates": [-83.631455, 37.7850386]}, "properties": {"tourism": "camp_site", "osm_id": 1266318492}}, {"type": "Feature", "geometry": {"type": "Point", "coordinates": [-89.2298675, 37.6999559]}, "properties": {"group_only": "yes", "tourism": "camp_site", "osm_id": 1271072586}}, {"type": "Feature", "geometry": {"type": "Point", "coordinates": [-89.2307607, 37.700421]}, "properties": {"group_only": "yes", "tourism": "camp_site", "osm_id": 1271072589}}, {"type": "Feature", "geometry": {"type": "Point", "coordinates": [-89.2321799, 37.6987424]}, "properties": {"group_only": "yes", "tourism": "camp_site", "osm_id": 1271072590}}, {"type": "Feature", "geometry": {"type": "Point", "coordinates": [-89.232601, 37.6984466]}, "properties": {"group_only": "yes", "tourism": "camp_site", "osm_id": 1271072591}}, {"type": "Feature", "geometry": {"type": "Point", "coordinates": [-84.1623618, 39.0204236]}, "properties": {"access": "permit", "backcountry": "yes", "caravans": "no", "fee": "no", "name": "Camp 5", "operator": "East Fork State Park", "static_caravans": "no", "tents": "yes", "tourism": "camp_site", "osm_id": 1273873402}}, {"type": "Feature", "geometry": {"type": "Point", "coordinates": [-83.1905705, 36.8694067]}, "properties": {"tourism": "caravan_site", "osm_id": 1273892844}}, {"type": "Feature", "geometry": {"type": "Point", "coordinates": [-84.0744273, 38.9979971]}, "properties": {"access": "permit", "backcountry": "yes", "caravans": "no", "fee": "no", "name": "Camp 3", "operator": "East Fork State Park", "static_caravans": "no", "tents": "yes", "tourism": "camp_site", "osm_id": 1273971358}}, {"type": "Feature", "geometry": {"type": "Point", "coordinates": [-86.123335, 38.2087632]}, "properties": {"tourism": "caravan_site", "osm_id": 1275452808}}, {"type": "Feature", "geometry": {"type": "Point", "coordinates": [-86.3957109, 37.0231991]}, "properties": {"tourism": "camp_site", "osm_id": 1277353995}}, {"type": "Feature", "geometry": {"type": "Point", "coordinates": [-83.4729721, 38.7341552]}, "properties": {"name": "Waterfront on the Edge", "operator": "Moondoggie Liveree", "tourism": "camp_site", "osm_id": 1284986710}}, {"type": "Feature", "geometry": {"type": "Point", "coordinates": [-83.7929299, 38.9455497]}, "properties": {"name": "Lake Waynoka Campground", "tourism": "camp_site", "osm_id": 1292468349}}, {"type": "Feature", "geometry": {"type": "Point", "coordinates": [-84.5509821, 38.3000227]}, "properties": {"name": "Whispering Hills RV Park", "tourism": "caravan_site", "osm_id": 1292616314}}, {"type": "Feature", "geometry": {"type": "Point", "coordinates": [-85.7634293, 38.0742617]}, "properties": {"access": "permit", "drinking_water": "yes", "fee": "yes", "name": "Horine Reservation Campground", "operator": "Louisville Parks and Recreation", "tents": "yes", "toilets": "yes", "tourism": "camp_site", "osm_id": 1293785058}}, {"type": "Feature", "geometry": {"type": "Point", "coordinates": [-86.9168222, 38.1243842]}, "properties": {"addr:city": "Santa Claus", "addr:housenumber": "78", "addr:postcode": "47579", "addr:state": "IN", "addr:street": "Holiday Blvd", "caravans": "yes", "fee": "yes", "name": "Sun Outdoors Lake Rudolph", "operator": "Sun Outdoors", "static_caravans": "no", "tents": "yes", "tourism": "camp_site", "osm_id": 1299608355}}, {"type": "Feature", "geometry": {"type": "Point", "coordinates": [-84.1060761, 38.9925262]}, "properties": {"access": "permit", "backcountry": "yes", "caravans": "no", "fee": "no", "name": "Camp 2", "operator": "=East Fork State Park", "static_caravans": "no", "tents": "yes", "tourism": "camp_site", "osm_id": 1300949585}}, {"type": "Feature", "geometry": {"type": "Point", "coordinates": [-84.1347777, 39.0068156]}, "properties": {"access": "permit", "backcountry": "yes", "caravans": "no", "fee": "no", "name": "Camp 1", "static_caravans": "no", "tents": "yes", "tourism": "camp_site", "osm_id": 1300949586}}, {"type": "Feature", "geometry": {"type": "Point", "coordinates": [-89.0099463, 38.0698575]}, "properties": {"group_only": "yes", "name": "Shagbark Group Campground", "tourism": "camp_site", "osm_id": 1307519499}}, {"type": "Feature", "geometry": {"type": "Point", "coordinates": [-88.9966202, 38.0766474]}, "properties": {"tourism": "camp_site", "osm_id": 1307519525}}, {"type": "Feature", "geometry": {"type": "Point", "coordinates": [-89.0561414, 38.0513972]}, "properties": {"name": "Old Bates Campground", "tourism": "camp_site", "osm_id": 1307737149}}, {"type": "Feature", "geometry": {"type": "Point", "coordinates": [-89.016025, 37.8198017]}, "properties": {"tourism": "caravan_site", "osm_id": 1307768119}}, {"type": "Feature", "geometry": {"type": "Point", "coordinates": [-84.3186765, 37.0279457]}, "properties": {"name": "Bee Rock Campground", "tourism": "camp_site", "osm_id": 1308819387}}, {"type": "Feature", "geometry": {"type": "Point", "coordinates": [-88.8619333, 37.4120639]}, "properties": {"name": "Shawnee Forest Campground", "tourism": "camp_site", "website": "https://www.shawneeforestcampground.com", "osm_id": 1309046593}}, {"type": "Feature", "geometry": {"type": "Point", "coordinates": [-83.7923624, 37.6537945]}, "properties": {"name": "Cathedral Domain", "tourism": "camp_site", "osm_id": 1312003277}}, {"type": "Feature", "geometry": {"type": "Point", "coordinates": [-84.1931936, 38.8022896]}, "properties": {"access": "customers", "addr:city": "Felicity", "addr:housenumber": "2276", "addr:postcode": "45120", "addr:state": "OH", "addr:street": "US 52", "caravans": "yes", "fee": "yes", "name": "Indian Mound Campground", "static_caravans": "yes", "tourism": "caravan_site", "osm_id": 1312830199}}, {"type": "Feature", "geometry": {"type": "Point", "coordinates": [-84.556617, 36.571399]}, "properties": {"name": "Puncheon Camp Knob Horse Camp", "tourism": "camp_site", "osm_id": 1313088542}}, {"type": "Feature", "geometry": {"type": "Point", "coordinates": [-87.7520356, 38.4067552]}, "properties": {"tourism": "caravan_site", "osm_id": 1314391819}}, {"type": "Feature", "geometry": {"type": "Point", "coordinates": [-86.8669235, 37.4582399]}, "properties": {"addr:city": "Hartford", "addr:postcode": "42347", "addr:state": "KY", "fee": "yes", "name": "Ohio County Campground", "phone": "+1-270-298-4466", "tourism": "camp_site", "website": "https://ohiocounty.ky.gov/departments-and-services/Pages/Park-and-Campground.aspx", "osm_id": 1318919368}}, {"type": "Feature", "geometry": {"type": "Point", "coordinates": [-86.7113892, 37.755489]}, "properties": {"access": "yes", "addr:city": "Reynolds Station", "addr:housenumber": "2195", "addr:postcode": "42368", "addr:state": "KY", "addr:street": "Yeakel Road", "caravans": "yes", "drinking_water": "yes", "fee": "yes", "name": "Lake View Camping", "power_supply": "yes", "sanitary_dump_station": "yes", "shower": "no", "tents": "yes", "toilets": "yes", "tourism": "camp_site", "website": "https://www.hipcamp.com/en-US/land/kentucky-lake-view-camping-ozxhvedo", "osm_id": 1318920191}}, {"type": "Feature", "geometry": {"type": "Point", "coordinates": [-84.2908912, 38.9676465]}, "properties": {"addr:city": "New Richmond", "addr:housenumber": "1035", "addr:postcode": "45157", "addr:state": "OH", "addr:street": "Cobra Road", "name": "River Pines", "reservation": "required", "tourism": "caravan_site", "website": "https://riverpinesrvresort.com/", "osm_id": 1321423561}}, {"type": "Feature", "geometry": {"type": "Point", "coordinates": [-84.2910892, 38.9636459]}, "properties": {"addr:city": "New Richmond", "addr:housenumber": "1020", "addr:postcode": "45157", "addr:state": "OH", "addr:street": "Front Street", "name": "Riverfront RV Park", "tourism": "caravan_site", "website": "https://riverfront-rv.com/", "osm_id": 1321424949}}, {"type": "Feature", "geometry": {"type": "Point", "coordinates": [-84.2928682, 38.9719758]}, "properties": {"addr:city": "New Richmond", "addr:housenumber": "1080", "addr:postcode": "45157", "addr:state": "OH", "addr:street": "Cobra Road", "name": "River Days Campground", "tourism": "caravan_site", "website": "https://riverdayscampground.com/", "osm_id": 1321424950}}, {"type": "Feature", "geometry": {"type": "Point", "coordinates": [-84.3243553, 37.0278432]}, "properties": {"name": "Bee Rock Campground", "tourism": "camp_site", "osm_id": 1323726972}}, {"type": "Feature", "geometry": {"type": "Point", "coordinates": [-84.2616415, 38.9294024]}, "properties": {"tourism": "caravan_site", "osm_id": 1323742321}}, {"type": "Feature", "geometry": {"type": "Point", "coordinates": [-86.6839179, 38.4040804]}, "properties": {"tourism": "caravan_site", "osm_id": 1332741281}}, {"type": "Feature", "geometry": {"type": "Point", "coordinates": [-86.6535205, 38.4099976]}, "properties": {"tourism": "caravan_site", "osm_id": 1332750862}}, {"type": "Feature", "geometry": {"type": "Point", "coordinates": [-86.648082, 38.4058543]}, "properties": {"tourism": "caravan_site", "osm_id": 1332750863}}, {"type": "Feature", "geometry": {"type": "Point", "coordinates": [-86.0964937, 37.1816873]}, "properties": {"name": "Mammoth Cave Campground", "tourism": "camp_site", "osm_id": 1333743247}}, {"type": "Feature", "geometry": {"type": "Point", "coordinates": [-87.6236253, 37.9358099]}, "properties": {"tourism": "caravan_site", "osm_id": 1336204413}}, {"type": "Feature", "geometry": {"type": "Point", "coordinates": [-88.5581224, 36.9727911]}, "properties": {"name": "Paducah RV Park & Campground", "tourism": "caravan_site", "osm_id": 1337988786}}, {"type": "Feature", "geometry": {"type": "Point", "coordinates": [-82.582, 38.6303159]}, "properties": {"access": "yes", "caravans": "yes", "description": "Large level field with ample area for trailers and horses. Some hitching rails are provided. This camping area is open year-round and is kept mowed and has a capacity for approximately 100 people and horses to camp. Vault toilet.", "drinking_water": "no", "fee": "no", "name": "Paddle Creek Horse Camp", "openfire": "yes", "operator": "USDA Forest Service", "power_supply": "no", "reservation": "no", "shower": "no", "static_caravans": "yes", "tents": "yes", "toilets": "yes", "tourism": "camp_site", "website": "https://www.fs.usda.gov/recarea/wayne/recreation/recarea/?recid=81056&actid=34", "osm_id": 1340384882}}, {"type": "Feature", "geometry": {"type": "Point", "coordinates": [-83.1785149, 38.7825005]}, "properties": {"access": "yes", "caravans": "yes", "description": "Horse camp in state forest has 58 campsites with tie rails,\nlatrines, and water for horses. Forest has 70+ miles of bridle trails, most directly accessible from camp. Campsites available on a first-come, first-served basis.", "fee": "no", "name": "Bear Lake Horse Camp", "operator": "OH DNR", "reservation": "no", "static_caravans": "yes", "tents": "yes", "tourism": "camp_site", "website": "https://ohiodnr.gov/go-and-do/plan-a-visit/find-a-property/shawnee-state-forest", "osm_id": 1340808383}}, {"type": "Feature", "geometry": {"type": "Point", "coordinates": [-83.4343315, 36.6456608]}, "properties": {"access": "customers", "addr:city": "Ewing", "addr:housenumber": "375", "addr:postcode": "24248", "addr:state": "VA", "addr:street": "Cherokee Hills Lane", "capacity:caravans": "8", "capacity:persons": "40", "caravans": "yes", "charge": "30 usd", "fee": "yes", "name": "Rock Bottom Horse Camp", "payment:cash": "yes", "payment:credit_cards": "yes", "payment:debit_cards": "yes", "tents": "yes", "tourism": "camp_site", "osm_id": 1343903537}}, {"type": "Feature", "geometry": {"type": "Point", "coordinates": [-85.4833369, 37.2452142]}, "properties": {"name": "Green County RV Park", "tourism": "caravan_site", "osm_id": 1344753765}}, {"type": "Feature", "geometry": {"type": "Point", "coordinates": [-86.6504327, 38.3748905]}, "properties": {"tourism": "caravan_site", "osm_id": 1345179744}}, {"type": "Feature", "geometry": {"type": "Point", "coordinates": [-84.1694619, 38.9982684]}, "properties": {"access": "private", "addr:city": "Amelia", "addr:housenumber": "3054", "addr:postcode": "45102", "addr:state": "OH", "addr:street": "Lindale Mount Holly Road", "camp_site": "deluxe", "caravans": "no", "fee": "yes", "name": "Woodland Lakes Christian Camp & Retreat Center", "static_caravans": "no", "tourism": "camp_site", "website": "https://www.woodlandlakes.com/", "osm_id": 1359652342}}, {"type": "Feature", "geometry": {"type": "Point", "coordinates": [-84.2487838, 38.912833]}, "properties": {"addr:city": "New Richmond", "addr:housenumber": "1351", "addr:postcode": "45157", "addr:state": "OH", "addr:street": "US 52", "tourism": "caravan_site", "osm_id": 1361522954}}, {"type": "Feature", "geometry": {"type": "Point", "coordinates": [-83.7129873, 37.6407342]}, "properties": {"fee": "yes", "tourism": "caravan_site", "osm_id": 1379455948}}, {"type": "Feature", "geometry": {"type": "Point", "coordinates": [-89.1544708, 37.6359807]}, "properties": {"name": "Office", "tourism": "camp_site", "osm_id": 1391974375}}, {"type": "Feature", "geometry": {"type": "Point", "coordinates": [-83.6203206, 38.7429866]}, "properties": {"addr:city": "Manchester", "addr:housenumber": "7085", "addr:postcode": "45144", "addr:state": "Ohio", "addr:street": "SR 41", "camp_site": "standard", "fee": "yes", "name": "Burning Heart Campground", "tourism": "camp_site", "osm_id": 1393736244}}, {"type": "Feature", "geometry": {"type": "Point", "coordinates": [-82.5936306, 38.4135446]}, "properties": {"access": "customers", "caravans": "yes", "name": "Virginia Point Campground", "operator": "City of Kenova", "tents": "no", "tourism": "camp_site", "osm_id": 1409232017}}, {"type": "Feature", "geometry": {"type": "Point", "coordinates": [-84.2203181, 36.9528429]}, "properties": {"name": "Grove Boat-in Campground", "tourism": "camp_site", "osm_id": 1414640761}}, {"type": "Feature", "geometry": {"type": "Point", "coordinates": [-82.5459551, 39.0759771]}, "properties": {"addr:state": "OH", "addr:street": "McGiffins Road", "name": "Lazy Dog Resort", "tourism": "caravan_site", "osm_id": 1415269127}}, {"type": "Feature", "geometry": {"type": "Point", "coordinates": [-86.026111, 37.9033138]}, "properties": {"name": "Camp Carlson Army Recreational Area", "tourism": "caravan_site", "osm_id": 1418164537}}, {"type": "Feature", "geometry": {"type": "Point", "coordinates": [-84.6151464, 37.5861612]}, "properties": {"tourism": "caravan_site", "osm_id": 1421150464}}, {"type": "Feature", "geometry": {"type": "Point", "coordinates": [-84.7696311, 37.8896531]}, "properties": {"name": "Cummins Ferry RV Park, Campground", "tourism": "caravan_site", "website": "https://cumminsferry.com/", "osm_id": 1423709584}}, {"type": "Feature", "geometry": {"type": "Point", "coordinates": [-84.7812038, 37.893828]}, "properties": {"addr:city": "Versailles", "addr:housenumber": "5486", "addr:postcode": "40383", "addr:state": "KY", "addr:street": "Cummins Ferry Road", "name": "Camp on the Kentucky", "phone": "+1-859-879-6402", "tourism": "caravan_site", "website": "https://www.camponthekentucky.com/", "osm_id": 1423709587}}, {"type": "Feature", "geometry": {"type": "Point", "coordinates": [-86.4292343, 39.0510601]}, "properties": {"access": "private", "addr:city": "Bloomington", "addr:housenumber": "7599", "addr:postcode": "47401", "addr:state": "IN", "addr:street": "Waldrip Creek Road", "fixme": "Boundaries could be cleaned up", "name": "Ransburg Scout Reservation", "operator": "Boy Scouts of America - Crossroads of America", "phone": "+1 812-837-9423", "tourism": "camp_site", "website": "https://www.ransburgbsa.org/", "osm_id": 1424845470}}, {"type": "Feature", "geometry": {"type": "Point", "coordinates": [-88.8351531, 37.5474217]}, "properties": {"name": "Clad & Cordon Vineyard", "tourism": "caravan_site", "osm_id": 1426307631}}, {"type": "Feature", "geometry": {"type": "Point", "coordinates": [-83.1819991, 38.7291635]}, "properties": {"access": "yes", "addr:city": "West Portsmouth", "addr:housenumber": "4404", "addr:postcode": "45663", "addr:state": "OH", "addr:street": "State Route 125", "camp_site": "serviced", "caravans": "yes", "fee": "yes", "name": "Shawnee State Park Turkey Creek Campground", "phone": "+1 740 858-4561", "static_caravans": "no", "tents": "yes", "tourism": "camp_site", "website": "https://ohiodnr.gov/go-and-do/plan-a-visit/find-a-property/shawnee-state-park-campground", "osm_id": 1430771858}}, {"type": "Feature", "geometry": {"type": "Point", "coordinates": [-83.7933561, 37.6584903]}, "properties": {"tourism": "camp_site", "osm_id": 1435752663}}, {"type": "Feature", "geometry": {"type": "Point", "coordinates": [-82.770018, 36.8666794]}, "properties": {"tourism": "caravan_site", "osm_id": 1436267419}}, {"type": "Feature", "geometry": {"type": "Point", "coordinates": [-86.2932028, 38.1906126]}, "properties": {"name": "Horsemen's Campground Electric", "tourism": "camp_site", "osm_id": 1443843230}}, {"type": "Feature", "geometry": {"type": "Point", "coordinates": [-85.8470962, 37.6546337]}, "properties": {"addr:city": "Elizabethtown", "addr:housenumber": "131", "addr:postcode": "42701", "addr:state": "KY", "addr:street": "Camping Circle", "email": "annie@etownrvpark.com", "name": "Etown RV Park", "phone": "+1-270-734-4700", "tourism": "caravan_site", "website": "https://etownrvpark.com/", "osm_id": 1449616249}}, {"type": "Feature", "geometry": {"type": "Point", "coordinates": [-86.9071614, 36.8384828]}, "properties": {"tourism": "caravan_site", "osm_id": 1453912869}}, {"type": "Feature", "geometry": {"type": "Point", "coordinates": [-83.675628, 37.7688428]}, "properties": {"name": "Middle Fork Campground", "tourism": "camp_site", "osm_id": 1455857156}}, {"type": "Feature", "geometry": {"type": "Point", "coordinates": [-87.1423226, 39.0540957]}, "properties": {"name": "Sunset Park Campground", "operator": "City of Linton", "tourism": "camp_site", "website": "https://www.cityoflinton.in.gov/department/division.php?structureid=39", "osm_id": 1456943491}}, {"type": "Feature", "geometry": {"type": "Point", "coordinates": [-89.5653742, 36.9054153]}, "properties": {"tourism": "caravan_site", "osm_id": 1456990103}}, {"type": "Feature", "geometry": {"type": "Point", "coordinates": [-87.0424113, 38.5493401]}, "properties": {"tourism": "camp_site", "osm_id": 1457218554}}, {"type": "Feature", "geometry": {"type": "Point", "coordinates": [-85.2261884, 39.0721273]}, "properties": {"name": "Horseman's Campground", "tourism": "camp_site", "osm_id": 1457226068}}, {"type": "Feature", "geometry": {"type": "Point", "coordinates": [-88.708356, 37.1464716]}, "properties": {"tourism": "camp_site", "osm_id": 1465639068}}, {"type": "Feature", "geometry": {"type": "Point", "coordinates": [-85.0118307, 38.3228193]}, "properties": {"leisure": "summer_camp", "tourism": "camp_site", "osm_id": 1467890591}}, {"type": "Feature", "geometry": {"type": "Point", "coordinates": [-83.0510461, 38.9222872]}, "properties": {"name": "Bear Creek Campground", "tourism": "camp_site", "type": "multipolygon", "osm_id": 8428282}}, {"type": "Feature", "geometry": {"type": "Point", "coordinates": [-82.3512623, 38.3054923]}, "properties": {"tourism": "caravan_site", "type": "multipolygon", "osm_id": 8887572}}, {"type": "Feature", "geometry": {"type": "Point", "coordinates": [-82.3555755, 38.3128841]}, "properties": {"tourism": "caravan_site", "type": "multipolygon", "osm_id": 8887600}}, {"type": "Feature", "geometry": {"type": "Point", "coordinates": [-82.3565282, 38.3083499]}, "properties": {"tourism": "caravan_site", "type": "multipolygon", "osm_id": 8887601}}, {"type": "Feature", "geometry": {"type": "Point", "coordinates": [-82.633108, 38.6157109]}, "properties": {"addr:state": "OH", "fee": "yes", "name": "Oak Hill Campground", "operator": "USFS", "tourism": "camp_site", "type": "multipolygon", "website": "https://www.fs.usda.gov/r09/wayne/recreation/oak-hill-campground", "osm_id": 9921749}}, {"type": "Feature", "geometry": {"type": "Point", "coordinates": [-87.4021022, 36.6304996]}, "properties": {"name": "Tiny Town RV Park", "tourism": "caravan_site", "type": "multipolygon", "osm_id": 12226653}}, {"type": "Feature", "geometry": {"type": "Point", "coordinates": [-89.3264786, 38.6548779]}, "properties": {"cabins": "yes", "capacity": "328", "caravans": "yes", "fee": "yes", "name": "Illini Campground", "permanent_camping": "no", "power_supply": "yes", "sanitary_dump_station": "yes", "tents": "yes", "tourism": "caravan_site", "type": "multipolygon", "water_point": "yes", "osm_id": 14756730}}, {"type": "Feature", "geometry": {"type": "Point", "coordinates": [-88.9366915, 38.0370341]}, "properties": {"name": "South Marcum Campground", "tourism": "camp_site", "type": "multipolygon", "osm_id": 17932615}}, {"type": "Feature", "geometry": {"type": "Point", "coordinates": [-88.9307136, 38.0807353]}, "properties": {"name": "Gun Creek Campground", "tourism": "camp_site", "type": "multipolygon", "osm_id": 17932631}}, {"type": "Feature", "geometry": {"type": "Point", "coordinates": [-89.0038526, 38.0581967]}, "properties": {"name": "South Sandusky Camp Ground", "tourism": "camp_site", "type": "multipolygon", "osm_id": 17932653}}, {"type": "Feature", "geometry": {"type": "Point", "coordinates": [-89.0042102, 38.0670557]}, "properties": {"name": "North Sandusky Campground", "tourism": "camp_site", "type": "multipolygon", "osm_id": 17932659}}, {"type": "Feature", "geometry": {"type": "Point", "coordinates": [-88.9439434, 38.1128444]}, "properties": {"tourism": "camp_site", "type": "multipolygon", "osm_id": 17932727}}, {"type": "Feature", "geometry": {"type": "Point", "coordinates": [-89.1196496, 37.7384536]}, "properties": {"access": "yes", "caravans": "yes", "fee": "yes", "name": "Crab Orchard Campground", "static_caravans": "no", "tents": "yes", "tourism": "camp_site", "type": "multipolygon", "website": "https://www.recreation.gov/camping/campgrounds/10238027", "osm_id": 17935779}}, {"type": "Feature", "geometry": {"type": "Point", "coordinates": [-89.1451022, 37.6421572]}, "properties": {"access": "yes", "addr:city": "Makanda", "addr:housenumber": "788", "addr:postcode": "62958", "addr:state": "IL", "addr:street": "Hidden Bay Lane", "fee": "yes", "name": "Little Grassy Campground & Marina", "phone": "+1-618-457-6655", "tourism": "camp_site", "type": "multipolygon", "url:map": "http://www.littlegrassylakecampground.com/Campground_20map_final.pdf", "website": "http://www.littlegrassylakecampground.com", "osm_id": 17936291}}, {"type": "Feature", "geometry": {"type": "Point", "coordinates": [-89.1375074, 37.6378033]}, "properties": {"caravans": "no", "fee": "yes", "leisure": "summer_camp", "name": "Pine Ridge Scout Camp", "operator": "Boy Scouts of America", "scout": "yes", "static_caravans": "no", "tents": "yes", "tourism": "camp_site", "type": "multipolygon", "website": "https://stlbsa.org/properties/all-properties/camp-pine-ridge/", "osm_id": 17942939}}, {"type": "Feature", "geometry": {"type": "Point", "coordinates": [-84.2645399, 36.9814438]}, "properties": {"name": "Holly Bay Campground", "tourism": "camp_site", "type": "multipolygon", "osm_id": 18445011}}, {"type": "Feature", "geometry": {"type": "Point", "coordinates": [-84.1005219, 38.7805124]}, "properties": {"addr:city": "Felicity", "addr:housenumber": "3287", "addr:postcode": "45120", "addr:state": "OH", "addr:street": "US 52", "name": "Flatboat Landing", "tourism": "caravan_site", "type": "multipolygon", "osm_id": 18570410}}, {"type": "Feature", "geometry": {"type": "Point", "coordinates": [-84.092134, 38.7796546]}, "properties": {"addr:housenumber": "3333", "addr:state": "OH", "addr:street": "US 52", "name": "Broadwell Camp", "tourism": "caravan_site", "type": "multipolygon", "osm_id": 18570411}}, {"type": "Feature", "geometry": {"type": "Point", "coordinates": [-84.1101089, 38.7834455]}, "properties": {"addr:city": "Felicity", "addr:housenumber": "3211", "addr:postcode": "45120", "addr:state": "OH", "addr:street": "US 52", "name": "Ryans Run RV Park", "tourism": "caravan_site", "type": "multipolygon", "osm_id": 18570428}}, {"type": "Feature", "geometry": {"type": "Point", "coordinates": [-84.0715368, 38.7731399]}, "properties": {"addr:city": "Georgetown", "addr:housenumber": "3681", "addr:postcode": "45121", "addr:state": "OH", "addr:street": "US 52", "name": "Runabouts", "tourism": "caravan_site", "type": "multipolygon", "osm_id": 18570454}}, {"type": "Feature", "geometry": {"type": "Point", "coordinates": [-84.0655082, 38.7730155]}, "properties": {"addr:city": "Georgetown", "addr:housenumber": "3733", "addr:postcode": "45121", "addr:state": "OH", "addr:street": "US 52", "name": "Taylors Shady Rest", "tourism": "caravan_site", "type": "multipolygon", "osm_id": 18570455}}, {"type": "Feature", "geometry": {"type": "Point", "coordinates": [-84.1826252, 38.8001169]}, "properties": {"addr:city": "Felicity", "addr:country": "US", "addr:housenumber": "2431", "addr:postcode": "45120", "addr:state": "OH", "addr:street": "US 52", "name": "The Landing at Bear Creek RV Park & Campground", "tourism": "caravan_site", "type": "multipolygon", "osm_id": 18626450}}, {"type": "Feature", "geometry": {"type": "Point", "coordinates": [-84.2296319, 38.8817743]}, "properties": {"addr:city": "New Richmond", "addr:country": "US", "addr:housenumber": "1685", "addr:postcode": "45157", "addr:state": "OH", "addr:street": "US 52", "name": "Cincinnati Outboard Runabout Association", "tourism": "caravan_site", "type": "multipolygon", "osm_id": 18730230}}, {"type": "Feature", "geometry": {"type": "Point", "coordinates": [-84.1791791, 38.8148271]}, "properties": {"access": "private", "addr:city": "Felicty", "addr:housenumber": "420", "addr:postcode": "45120", "addr:state": "OH", "addr:street": "Neville-Penn Schoolhouse Road", "camp_site": "standard", "name": "Camp Crossroads", "operator": "Crossroads Community Church", "static_caravans": "no", "tourism": "camp_site", "type": "multipolygon", "website": "https://www.camps.us/", "osm_id": 18782749}}, {"type": "Feature", "geometry": {"type": "Point", "coordinates": [-84.0964441, 39.0367593]}, "properties": {"access": "permit", "addr:city": "Batavia", "addr:housenumber": "2832", "addr:postcode": "45103", "addr:state": "OH", "addr:street": "Old State Route 32", "caravans": "yes", "dog": "leashed", "fee": "yes", "internet_access": "wlan", "internet_access:fee": "customers", "name": "East Fork State Park Campground", "operator": "Ohio Department of Natural Resources", "power_supply": "yes", "sanitary_dump_station": "yes", "shower": "yes", "static_caravans": "no", "tents": "yes", "toilets": "yes", "tourism": "camp_site", "type": "multipolygon", "website": "https://ohiodnr.gov/go-and-do/plan-a-visit/find-a-property/east-fork-state-park-campground", "osm_id": 18995774}}, {"type": "Feature", "geometry": {"type": "Point", "coordinates": [-83.3230752, 39.0887496]}, "properties": {"addr:city": "Latham", "addr:housenumber": "50", "addr:postcode": "45646", "addr:state": "OH", "addr:street": "Bell Hollow Road", "caravans": "yes", "contact:facebook": "https://www.facebook.com/longsretreat", "email": "info@longsretreat.com", "fee": "no", "internet_access": "no", "leisure": "resort", "name": "Long's Retreat", "official_name": "Long's Retreat Family Resort", "phone": "+1 937-588-3725", "sanitary_dump_station": "yes", "tourism": "camp_site", "type": "multipolygon", "website": "https://www.longsretreat.com/", "osm_id": 19233081}}, {"type": "Feature", "geometry": {"type": "Point", "coordinates": [-83.3948005, 38.0484503]}, "properties": {"name": "Paragon Dispersed Camping Area FREE", "tourism": "camp_site", "type": "multipolygon", "osm_id": 19520963}}, {"type": "Feature", "geometry": {"type": "Point", "coordinates": [-86.0656707, 37.1119351]}, "properties": {"access": "yes", "addr:city": "Park City", "addr:housenumber": "1878", "addr:postcode": "42160", "addr:state": "KY", "addr:street": "Mammoth Cave Parkway", "bin": "yes", "caravans": "yes", "fee": "yes", "name": "Diamond Caverns RV Resort", "permanent_camping": "no", "reservation": "yes", "sanitary_dump_station": "yes", "shower": "yes", "toilets": "yes", "tourism": "caravan_site", "type": "multipolygon", "website": "https://thousandtrails.com/kentucky/diamond-caverns-rv-golf-club/", "website:map": "https://rvonthego.com/media/com_rv/uploads/resorts/sm1222diamondcaverns_1672257983.pdf", "osm_id": 19528750}}, {"type": "Feature", "geometry": {"type": "Point", "coordinates": [-83.1047074, 38.6835903]}, "properties": {"access": "yes", "addr:city": "Stout", "addr:housenumber": "11152", "addr:postcode": "45684", "addr:state": "OH", "addr:street": "US 52", "camp_site": "serviced", "caravans": "yes", "fee": "yes", "name": "Shawnee State Park Ohio River Campground", "operator": "ODNR", "phone": "+1 740 858-6681 x3", "tents": "yes", "tourism": "camp_site", "type": "multipolygon", "website": "https://ohiodnr.gov/go-and-do/plan-a-visit/find-a-property/shawnee-state-park-campground", "osm_id": 19613670}}, {"type": "Feature", "geometry": {"type": "Point", "coordinates": [-83.909689, 38.8636055]}, "properties": {"power_supply": "yes", "sanitary_dump_station": "no", "tourism": "caravan_site", "type": "multipolygon", "osm_id": 19650883}}, {"type": "Feature", "geometry": {"type": "Point", "coordinates": [-83.3749327, 38.9222247]}, "properties": {"addr:city": "Peebles", "addr:housenumber": "160", "addr:postcode": "45660", "addr:state": "OH", "addr:street": "Blue Gill Road", "camp_site": "deluxe", "caravans": "yes", "contact:facebook": "https://www.facebook.com/MineralSpringsLake", "fee": "yes", "name": "Mineral Springs Lake Resort", "static_caravans": "yes", "tents": "no", "tourism": "camp_site", "type": "multipolygon", "website": "https://www.mineralspringslakeresort.com/", "osm_id": 19722691}}, {"type": "Feature", "geometry": {"type": "Point", "coordinates": [-84.4306957, 39.0894403]}, "properties": {"addr:city": "Cincinnati", "addr:country": "US", "addr:housenumber": "4699", "addr:postcode": "45226", "addr:state": "OH", "addr:street": "Kellogg Avenue", "internet_access:fee": "yes", "name": "Tucker's Landing", "operator": "Morningstar Marinas", "tourism": "caravan_site", "type": "multipolygon", "website": "https://www.morningstarmarinas.com/location/735/oh/cincinnati/rivertowne/", "osm_id": 19872438}}]}