{"type": "FeatureCollection", "features": [{"type": "Feature", "geometry": {"type": "Point", "coordinates": [-70.6913507, 41.8464995]}, "properties": {"operator": "Myles Standish State Forest", "ref": "J", "tourism": "camp_site", "osm_id": 64797923}}, {"type": "Feature", "geometry": {"type": "Point", "coordinates": [-71.0869044, 42.6074699]}, "properties": {"name": "Camp Evergreen", "operator": "Jim Lescatoff", "tourism": "camp_site", "osm_id": 328605346}}, {"type": "Feature", "geometry": {"type": "Point", "coordinates": [-72.1056318, 41.8200981]}, "properties": {"ele": "112", "gnis:feature_id": "1924574", "name": "Nickerson Park", "tourism": "camp_site", "wikidata": "Q31818569", "osm_id": 359278503}}, {"type": "Feature", "geometry": {"type": "Point", "coordinates": [-73.1371067, 42.7717506]}, "properties": {"attribution": "Appalachian Trail Club", "description": "Water from brook 350 ft west (may fail in dry seasons)--gb, 213", "fee": "no", "name": "Old Seth Warner Shelter Site", "operator": "Green Mountain Club", "source": "GPS", "tourism": "camp_site", "osm_id": 419229746}}, {"type": "Feature", "geometry": {"type": "Point", "coordinates": [-72.0629846, 42.8634969]}, "properties": {"name": "Mt Monadnock State Park Campground", "tourism": "camp_site", "osm_id": 1305717713}}, {"type": "Feature", "geometry": {"type": "Point", "coordinates": [-71.0865663, 42.1931093]}, "properties": {"heritage": "2", "heritage:operator": "nrhp", "name": "Ponkapoag Camp of Appalachian Mountain Club", "nrhp:inscription_date": "1980-09-25", "operator": "Appalachian Mountain Club", "ref:nrhp": "80000657", "start_date": "1920", "tourism": "camp_site", "website": "https://ponkapoagcamp.org/", "wikidata": "Q7227869", "wikipedia": "en:Ponkapoag Camp of Appalachian Mountain Club", "osm_id": 1822216893}}, {"type": "Feature", "geometry": {"type": "Point", "coordinates": [-71.285667, 42.2240845]}, "properties": {"tourism": "camp_site", "osm_id": 1965999424}}, {"type": "Feature", "geometry": {"type": "Point", "coordinates": [-71.6564233, 42.632751]}, "properties": {"internet_access": "no", "operator": "Groton Conservation Commission", "smoking": "no", "tourism": "camp_site", "wheelchair": "no", "osm_id": 1983851686}}, {"type": "Feature", "geometry": {"type": "Point", "coordinates": [-71.6572405, 42.6336146]}, "properties": {"internet_access": "no", "internet_access:fee": "no", "operator": "Groton Conservation Commission", "smoking": "no", "tourism": "camp_site", "wheelchair": "no", "osm_id": 1983851780}}, {"type": "Feature", "geometry": {"type": "Point", "coordinates": [-71.5321498, 42.5962304]}, "properties": {"addr:housenumber": "67", "addr:street": "Prescott Street", "name": "Grotonwood", "tourism": "camp_site", "website": "https://grotonwood.org/", "osm_id": 2085358724}}, {"type": "Feature", "geometry": {"type": "Point", "coordinates": [-71.7822219, 41.9696889]}, "properties": {"name": "Narragansett Council, Boy Scouts of America, Cub World", "tourism": "camp_site", "osm_id": 2140964052}}, {"type": "Feature", "geometry": {"type": "Point", "coordinates": [-71.39177, 42.50224]}, "properties": {"name": "1", "tourism": "camp_site", "osm_id": 2169262377}}, {"type": "Feature", "geometry": {"type": "Point", "coordinates": [-71.3926, 42.50309]}, "properties": {"name": "3", "tourism": "camp_site", "osm_id": 2169262543}}, {"type": "Feature", "geometry": {"type": "Point", "coordinates": [-71.39628, 42.50339]}, "properties": {"name": "6", "tourism": "camp_site", "osm_id": 2169262634}}, {"type": "Feature", "geometry": {"type": "Point", "coordinates": [-71.3941, 42.50347]}, "properties": {"name": "4", "tourism": "camp_site", "osm_id": 2169262652}}, {"type": "Feature", "geometry": {"type": "Point", "coordinates": [-71.3948, 42.5038]}, "properties": {"name": "5", "tourism": "camp_site", "osm_id": 2169262703}}, {"type": "Feature", "geometry": {"type": "Point", "coordinates": [-71.39755, 42.50406]}, "properties": {"name": "7", "tourism": "camp_site", "osm_id": 2169262743}}, {"type": "Feature", "geometry": {"type": "Point", "coordinates": [-73.3852494, 41.3377405]}, "properties": {"name": "Youth Camp I", "tourism": "camp_site", "osm_id": 2369594493}}, {"type": "Feature", "geometry": {"type": "Point", "coordinates": [-73.3846013, 41.3358354]}, "properties": {"name": "Youth Camp II", "tourism": "camp_site", "osm_id": 2369594502}}, {"type": "Feature", "geometry": {"type": "Point", "coordinates": [-73.3831963, 41.3362856]}, "properties": {"name": "Youth Camp III", "tourism": "camp_site", "osm_id": 2369594509}}, {"type": "Feature", "geometry": {"type": "Point", "coordinates": [-71.557445, 41.4732299]}, "properties": {"addr:city": "West Kingston", "addr:housenumber": "2850", "addr:postcode": "02892", "addr:street": "Ministerial Road", "name": "Camp Hoffman", "operator": "Girl Scouts of Rhode Island", "tourism": "camp_site", "website": "https://www.gsri.org/aboutUs_OurCamps.html", "osm_id": 2413697702}}, {"type": "Feature", "geometry": {"type": "Point", "coordinates": [-73.3197484, 42.503426]}, "properties": {"name": "Sites 11, 12, 13", "tourism": "camp_site", "osm_id": 2487300534}}, {"type": "Feature", "geometry": {"type": "Point", "coordinates": [-71.2487542, 42.841764]}, "properties": {"capacity": "5", "name": "Windham Town Forest Tent Platforms", "operator": "Windham Conservation Commission", "source": "local knowledge", "tourism": "camp_site", "osm_id": 2784167910}}, {"type": "Feature", "geometry": {"type": "Point", "coordinates": [-71.7667246, 42.6533776]}, "properties": {"name": "Pearl Hill Campground", "tourism": "camp_site", "osm_id": 2867830536}}, {"type": "Feature", "geometry": {"type": "Point", "coordinates": [-71.7554568, 41.9217544]}, "properties": {"name": "George Washington State Campground", "tourism": "camp_site", "osm_id": 3283895170}}, {"type": "Feature", "geometry": {"type": "Point", "coordinates": [-73.0830199, 42.2992459]}, "properties": {"name": "Rocky Point", "tourism": "camp_site", "osm_id": 3373668177}}, {"type": "Feature", "geometry": {"type": "Point", "coordinates": [-73.0830794, 42.2976542]}, "properties": {"name": "Green Point", "tourism": "camp_site", "osm_id": 3373668178}}, {"type": "Feature", "geometry": {"type": "Point", "coordinates": [-69.9850018, 41.6152555]}, "properties": {"access": "private", "name": "Biologist Campsite", "tourism": "camp_site", "osm_id": 3505160899}}, {"type": "Feature", "geometry": {"type": "Point", "coordinates": [-73.2629871, 41.7152705]}, "properties": {"addr:city": "Litchfield", "addr:housenumber": "1312", "addr:postcode": "06750", "addr:state": "CT", "addr:street": "Bantam Road", "name": "Cozy Hill Campground", "tourism": "camp_site", "osm_id": 3545198705}}, {"type": "Feature", "geometry": {"type": "Point", "coordinates": [-72.0831096, 42.6451027]}, "properties": {"name": "East Dennison Camping Area", "tourism": "camp_site", "osm_id": 3629224573}}, {"type": "Feature", "geometry": {"type": "Point", "coordinates": [-72.0898945, 42.6483439]}, "properties": {"name": "North Dennison Camping Area", "tourism": "camp_site", "osm_id": 3629224574}}, {"type": "Feature", "geometry": {"type": "Point", "coordinates": [-73.1003698, 41.653849]}, "properties": {"addr:city": "Watertown", "addr:housenumber": "10", "addr:postcode": "06795", "addr:state": "CT", "addr:street": "Horseshoe Circle", "tourism": "camp_site", "osm_id": 3645292999}}, {"type": "Feature", "geometry": {"type": "Point", "coordinates": [-72.9521358, 41.7256777]}, "properties": {"tourism": "camp_site", "osm_id": 3756079280}}, {"type": "Feature", "geometry": {"type": "Point", "coordinates": [-72.24843, 42.719393]}, "properties": {"internet_access": "no", "internet_access:fee": "no", "name": "Falls Brook Shelter", "sanitary_dump_station": "no", "tourism": "camp_site", "wheelchair": "no", "osm_id": 3800670935}}, {"type": "Feature", "geometry": {"type": "Point", "coordinates": [-73.08129, 42.2990195]}, "properties": {"name": "White Rock", "tourism": "camp_site", "osm_id": 3809199152}}, {"type": "Feature", "geometry": {"type": "Point", "coordinates": [-71.7466742, 41.7676756]}, "properties": {"access": "private", "addr:city": "Foster", "addr:housenumber": "114", "addr:postcode": "02825", "addr:street": "Johnson Road", "name": "Dyer Woods Nudist Campgrounds", "phone": "+1 401 397 3007", "tourism": "camp_site", "website": "http://www.dyerwoodscampground.com/", "osm_id": 3837336137}}, {"type": "Feature", "geometry": {"type": "Point", "coordinates": [-72.4013292, 42.6808324]}, "properties": {"name": "Richardson-Zlogar Cabin", "tourism": "camp_site", "osm_id": 3889823588}}, {"type": "Feature", "geometry": {"type": "Point", "coordinates": [-72.652081, 41.4808554]}, "properties": {"name": "Camp Farnam", "tourism": "camp_site", "osm_id": 4046028289}}, {"type": "Feature", "geometry": {"type": "Point", "coordinates": [-73.3251851, 41.6138597]}, "properties": {"name": "SR1", "tourism": "camp_site", "osm_id": 4128171745}}, {"type": "Feature", "geometry": {"type": "Point", "coordinates": [-73.327528, 41.6133197]}, "properties": {"name": "SR2", "tourism": "camp_site", "osm_id": 4128171746}}, {"type": "Feature", "geometry": {"type": "Point", "coordinates": [-72.333367, 41.4779671]}, "properties": {"name": "Youth Site 1", "tourism": "camp_site", "osm_id": 4128278395}}, {"type": "Feature", "geometry": {"type": "Point", "coordinates": [-73.334967, 41.6049941]}, "properties": {"name": "SR3", "tourism": "camp_site", "osm_id": 4137480108}}, {"type": "Feature", "geometry": {"type": "Point", "coordinates": [-73.3373099, 41.6093712]}, "properties": {"name": "SR4", "tourism": "camp_site", "osm_id": 4137480109}}, {"type": "Feature", "geometry": {"type": "Point", "coordinates": [-72.5950804, 41.3434908]}, "properties": {"name": "Boy Scout Camp", "tourism": "camp_site", "osm_id": 4169935879}}, {"type": "Feature", "geometry": {"type": "Point", "coordinates": [-73.4507741, 42.053308]}, "properties": {"description": "8 campsites approximately\n1 group site\nBear boxes and privys available\nAn AMC host stays there from Memorial Day till Labor Day approx.", "fee": "no", "name": "Sage's Ravine", "operator": "Appalachian Mountain Club", "operator:short": "AMC", "operator:type": "private", "operator:wikidata": "Q2858593", "operator:wikipedia": "en:Appalachian Mountain Club", "tourism": "camp_site", "osm_id": 4217652848}}, {"type": "Feature", "geometry": {"type": "Point", "coordinates": [-73.4376701, 42.0606154]}, "properties": {"description": "Privy", "fee": "no", "name": "Laurel Ridge Campsite", "tourism": "camp_site", "osm_id": 4217658289}}, {"type": "Feature", "geometry": {"type": "Point", "coordinates": [-72.9302512, 41.9543969]}, "properties": {"name": "Roaring Brook Camp Area", "tourism": "camp_site", "osm_id": 4224657735}}, {"type": "Feature", "geometry": {"type": "Point", "coordinates": [-71.7897235, 42.6603646]}, "properties": {"name": "Damon Pond Campground", "tourism": "camp_site", "osm_id": 4226876995}}, {"type": "Feature", "geometry": {"type": "Point", "coordinates": [-71.4038267, 42.2764999]}, "properties": {"addr:street": "Marian Road", "internet_access": "wlan", "name": "Minha casa", "tourism": "camp_site", "osm_id": 4270666890}}, {"type": "Feature", "geometry": {"type": "Point", "coordinates": [-73.187981, 42.6331125]}, "properties": {"capacity": "12", "name": "Balsam Group Site", "tourism": "camp_site", "osm_id": 4329406842}}, {"type": "Feature", "geometry": {"type": "Point", "coordinates": [-73.1880561, 42.6334354]}, "properties": {"capacity": "12", "name": "Spruce Group Site", "tourism": "camp_site", "osm_id": 4329406844}}, {"type": "Feature", "geometry": {"type": "Point", "coordinates": [-73.1938209, 42.644211]}, "properties": {"capacity": "12", "name": "Stoney Ledge Group Site", "tourism": "camp_site", "osm_id": 4329406849}}, {"type": "Feature", "geometry": {"type": "Point", "coordinates": [-72.8152905, 42.8509888]}, "properties": {"name": "Molly Stark State Park Campsites", "tourism": "camp_site", "osm_id": 4329429791}}, {"type": "Feature", "geometry": {"type": "Point", "coordinates": [-71.2615316, 42.7346035]}, "properties": {"backcountry": "yes", "tourism": "camp_site", "osm_id": 4333165632}}, {"type": "Feature", "geometry": {"type": "Point", "coordinates": [-72.9632825, 41.8453098]}, "properties": {"name": "DEEP campsite", "tourism": "camp_site", "osm_id": 4353950901}}, {"type": "Feature", "geometry": {"type": "Point", "coordinates": [-71.9746581, 42.7493753]}, "properties": {"tourism": "camp_site", "osm_id": 4364593424}}, {"type": "Feature", "geometry": {"type": "Point", "coordinates": [-72.9400429, 41.4581461]}, "properties": {"tourism": "camp_site", "osm_id": 4411463105}}, {"type": "Feature", "geometry": {"type": "Point", "coordinates": [-73.491154, 41.781483]}, "properties": {"addr:city": "Kent", "addr:housenumber": "24", "addr:postcode": "06757", "addr:state": "CT", "tourism": "camp_site", "osm_id": 4426316891}}, {"type": "Feature", "geometry": {"type": "Point", "coordinates": [-71.5114443, 41.4091317]}, "properties": {"name": "YMCA Camp Fuller", "tourism": "camp_site", "osm_id": 4575526444}}, {"type": "Feature", "geometry": {"type": "Point", "coordinates": [-71.3922071, 42.5021119]}, "properties": {"name": "2", "tourism": "camp_site", "osm_id": 4584515404}}, {"type": "Feature", "geometry": {"type": "Point", "coordinates": [-70.083532, 41.2567238]}, "properties": {"group_only": "yes", "name": "Camp Richard Lodge", "tourism": "camp_site", "osm_id": 4633504970}}, {"type": "Feature", "geometry": {"type": "Point", "coordinates": [-71.4713253, 42.189643]}, "properties": {"name": "\"The Sandpits\" Private Hiking and Winter Sports Area", "name:en": "\"The Sandpits\" Private Hiking and Winter Sports Area", "tourism": "camp_site", "osm_id": 4831811523}}, {"type": "Feature", "geometry": {"type": "Point", "coordinates": [-70.7332466, 41.9271381]}, "properties": {"addr:housenumber": "234", "addr:postcode": "02360", "addr:street": "Pinewood Road", "name": "Pinewood Lodge & Campgrounds", "tourism": "camp_site", "osm_id": 4943035022}}, {"type": "Feature", "geometry": {"type": "Point", "coordinates": [-72.7754054, 42.286476]}, "properties": {"name": "KOA weathampton", "name:en": "KOA weathampton", "tourism": "camp_site", "osm_id": 4945004522}}, {"type": "Feature", "geometry": {"type": "Point", "coordinates": [-71.8451562, 41.4249565]}, "properties": {"addr:housenumber": "118", "addr:postcode": "06359", "addr:state": "CT", "addr:street": "Pendleton Hill Road", "name": "Mystic KOA Holiday", "tourism": "camp_site", "osm_id": 4968149921}}, {"type": "Feature", "geometry": {"type": "Point", "coordinates": [-72.9448575, 42.6428221]}, "properties": {"tourism": "camp_site", "osm_id": 4980805409}}, {"type": "Feature", "geometry": {"type": "Point", "coordinates": [-72.574461, 41.788127]}, "properties": {"name": "Beech Grove 5", "tourism": "camp_site", "osm_id": 5153893164}}, {"type": "Feature", "geometry": {"type": "Point", "coordinates": [-71.6791289, 41.3815847]}, "properties": {"name": "Camp Watchaug (Westerly YMCA)", "operator": "Westerly (Ocean Community) YMCA", "tourism": "camp_site", "osm_id": 5308439438}}, {"type": "Feature", "geometry": {"type": "Point", "coordinates": [-71.8657262, 41.6058307]}, "properties": {"name": "Frog Hollow Horse Camp", "tourism": "camp_site", "osm_id": 5316305634}}, {"type": "Feature", "geometry": {"type": "Point", "coordinates": [-73.433437, 42.0901441]}, "properties": {"access": "yes", "fee": "no", "internet_access": "no", "name": "Race Brook Campsites", "tourism": "camp_site", "osm_id": 5634005823}}, {"type": "Feature", "geometry": {"type": "Point", "coordinates": [-73.3896144, 41.8154]}, "properties": {"fee": "no", "name": "Silver Hill Campsite", "note": "Water pump, bear box, privy", "tourism": "camp_site", "osm_id": 5693935052}}, {"type": "Feature", "geometry": {"type": "Point", "coordinates": [-70.8207312, 42.8242637]}, "properties": {"name": "Salisbury State Park Reservation", "tourism": "camp_site", "osm_id": 5748305521}}, {"type": "Feature", "geometry": {"type": "Point", "coordinates": [-72.7389807, 41.9731256]}, "properties": {"name": "Primitve Camping Area", "tourism": "camp_site", "website": "https://newenglandtrail.org/overnight-sites/windsor-locks-scouts-primitive-tentsite/", "osm_id": 5757179152}}, {"type": "Feature", "geometry": {"type": "Point", "coordinates": [-72.2998897, 42.8407154]}, "properties": {"name": "Swanzey Lake Camping Area", "tourism": "camp_site", "osm_id": 5844098685}}, {"type": "Feature", "geometry": {"type": "Point", "coordinates": [-72.3041385, 42.8521693]}, "properties": {"name": "Pilgrim Pines Camping Area", "tourism": "camp_site", "osm_id": 5844098785}}, {"type": "Feature", "geometry": {"type": "Point", "coordinates": [-73.3945152, 41.9105206]}, "properties": {"name": "Sharon Mountain Campsite", "tourism": "camp_site", "osm_id": 5873318066}}, {"type": "Feature", "geometry": {"type": "Point", "coordinates": [-73.3184867, 42.5063152]}, "properties": {"name": "Site 1", "tourism": "camp_site", "osm_id": 5932205086}}, {"type": "Feature", "geometry": {"type": "Point", "coordinates": [-73.3203771, 42.5057897]}, "properties": {"name": "Site 2", "tourism": "camp_site", "osm_id": 5932205096}}, {"type": "Feature", "geometry": {"type": "Point", "coordinates": [-73.3204776, 42.5056088]}, "properties": {"name": "Site 3", "tourism": "camp_site", "osm_id": 5932205097}}, {"type": "Feature", "geometry": {"type": "Point", "coordinates": [-73.3205577, 42.5055297]}, "properties": {"name": "Site 4", "tourism": "camp_site", "osm_id": 5932205098}}, {"type": "Feature", "geometry": {"type": "Point", "coordinates": [-73.3207127, 42.5052447]}, "properties": {"name": "Site 5", "tourism": "camp_site", "osm_id": 5932205099}}, {"type": "Feature", "geometry": {"type": "Point", "coordinates": [-72.333227, 41.4770968]}, "properties": {"name": "Youth Site 2", "tourism": "camp_site", "osm_id": 6022140078}}, {"type": "Feature", "geometry": {"type": "Point", "coordinates": [-72.4438259, 41.4395535]}, "properties": {"tourism": "camp_site", "osm_id": 6133822952}}, {"type": "Feature", "geometry": {"type": "Point", "coordinates": [-73.4101745, 42.6211362]}, "properties": {"name": "Cherry Plain State Park Campgrounds", "source": "https://newyorkstateparks.reserveamerica.com/camping/cherry-plain-state-park/r/campgroundDetails.do?contractCode=NY&parkId=761", "tourism": "camp_site", "osm_id": 6259035366}}, {"type": "Feature", "geometry": {"type": "Point", "coordinates": [-72.2637618, 42.4841229]}, "properties": {"access": "permit", "addr:city": "Petersham", "addr:postcode": "01366", "addr:state": "MA", "addr:street": "State Forest Road", "capacity": "15", "fee": "yes", "internet_access": "no", "name": "Federated Womens' Club State Forest Primitive Campsite", "operator": "Massachusetts DCR", "tourism": "camp_site", "osm_id": 6441581252}}, {"type": "Feature", "geometry": {"type": "Point", "coordinates": [-71.0876244, 42.1947076]}, "properties": {"name": "Spang Camp Site", "tourism": "camp_site", "osm_id": 6639156922}}, {"type": "Feature", "geometry": {"type": "Point", "coordinates": [-71.0877258, 42.1912319]}, "properties": {"name": "Missionary Point", "tourism": "camp_site", "osm_id": 6639156928}}, {"type": "Feature", "geometry": {"type": "Point", "coordinates": [-73.0803436, 42.7333525]}, "properties": {"tourism": "camp_site", "osm_id": 6641140234}}, {"type": "Feature", "geometry": {"type": "Point", "coordinates": [-71.1053743, 42.1990602]}, "properties": {"name": "YMCA Camp", "tourism": "camp_site", "osm_id": 6641268910}}, {"type": "Feature", "geometry": {"type": "Point", "coordinates": [-70.1409935, 41.651721]}, "properties": {"caravans": "yes", "name": "D4", "tourism": "camp_site", "osm_id": 6652995372}}, {"type": "Feature", "geometry": {"type": "Point", "coordinates": [-70.1411109, 41.6516915]}, "properties": {"caravans": "yes", "name": "D3", "tourism": "camp_site", "osm_id": 6652995373}}, {"type": "Feature", "geometry": {"type": "Point", "coordinates": [-70.1411999, 41.6516691]}, "properties": {"caravans": "yes", "name": "D2", "tourism": "camp_site", "osm_id": 6652995374}}, {"type": "Feature", "geometry": {"type": "Point", "coordinates": [-70.1412946, 41.6516453]}, "properties": {"caravans": "yes", "name": "D1", "tourism": "camp_site", "osm_id": 6652995375}}, {"type": "Feature", "geometry": {"type": "Point", "coordinates": [-73.339404, 42.2126997]}, "properties": {"caravans": "no", "description": "AT Thruhiker camping", "static_caravans": "no", "tourism": "camp_site", "osm_id": 6685673685}}, {"type": "Feature", "geometry": {"type": "Point", "coordinates": [-73.2246962, 42.2519732]}, "properties": {"name": "Shaker camp", "tourism": "camp_site", "osm_id": 6719959146}}, {"type": "Feature", "geometry": {"type": "Point", "coordinates": [-73.1595697, 42.5148465]}, "properties": {"name": "Crystal Mountain campsite (& privy)", "tourism": "camp_site", "osm_id": 6719979685}}, {"type": "Feature", "geometry": {"type": "Point", "coordinates": [-73.1514779, 42.7184536]}, "properties": {"caravans": "no", "fee": "no", "name": "Sherman Brook Campsite", "static_caravans": "no", "tourism": "camp_site", "osm_id": 6720041718}}, {"type": "Feature", "geometry": {"type": "Point", "coordinates": [-73.4525755, 42.0202546]}, "properties": {"name": "Ball Brook Group Camping Area", "tourism": "camp_site", "osm_id": 6842491961}}, {"type": "Feature", "geometry": {"type": "Point", "coordinates": [-73.4523722, 42.015486]}, "properties": {"tourism": "camp_site", "osm_id": 7573515526}}, {"type": "Feature", "geometry": {"type": "Point", "coordinates": [-72.0795392, 42.6257612]}, "properties": {"name": "Beaman Pond Campground", "tourism": "camp_site", "osm_id": 7613076945}}, {"type": "Feature", "geometry": {"type": "Point", "coordinates": [-73.0381311, 41.9397088]}, "properties": {"addr:city": "Barkhamsted", "addr:housenumber": "232", "addr:postcode": "06063", "addr:state": "CT", "addr:street": "Old North Road", "name": "White Pines Campsites", "phone": "+1-860-379-0124", "tourism": "camp_site", "website": "https://www.whitepinescampsites.com/", "osm_id": 7840493773}}, {"type": "Feature", "geometry": {"type": "Point", "coordinates": [-72.9929817, 41.9311723]}, "properties": {"name": "James Stocking Youth Group Camping Area", "tourism": "camp_site", "osm_id": 7940315111}}, {"type": "Feature", "geometry": {"type": "Point", "coordinates": [-71.0826756, 42.1314352]}, "properties": {"name": "Camp Christina Entrance", "tourism": "camp_site", "osm_id": 8394289374}}, {"type": "Feature", "geometry": {"type": "Point", "coordinates": [-73.0102202, 41.9399805]}, "properties": {"name": "Camp White Youth Group Camping Area", "tourism": "camp_site", "osm_id": 8603057987}}, {"type": "Feature", "geometry": {"type": "Point", "coordinates": [-73.0816905, 42.7335792]}, "properties": {"tourism": "camp_site", "osm_id": 8869732100}}, {"type": "Feature", "geometry": {"type": "Point", "coordinates": [-73.379665, 41.8382044]}, "properties": {"name": "Housatonic Meadows State Park Campground", "tourism": "camp_site", "osm_id": 8952995994}}, {"type": "Feature", "geometry": {"type": "Point", "coordinates": [-72.1134786, 42.0183576]}, "properties": {"cabins": "no", "camp_site": "basic", "caravans": "no", "static_caravans": "no", "tents": "yes", "tourism": "camp_site", "osm_id": 9012092507}}, {"type": "Feature", "geometry": {"type": "Point", "coordinates": [-72.2020278, 41.8665556]}, "properties": {"cabins": "no", "camp_site": "basic", "caravans": "no", "static_caravans": "no", "tents": "yes", "tourism": "camp_site", "osm_id": 9012794965}}, {"type": "Feature", "geometry": {"type": "Point", "coordinates": [-72.1631111, 41.9130222]}, "properties": {"cabins": "no", "camp_site": "basic", "caravans": "no", "static_caravans": "no", "tents": "yes", "tourism": "camp_site", "osm_id": 9012795053}}, {"type": "Feature", "geometry": {"type": "Point", "coordinates": [-72.0799322, 41.8274668]}, "properties": {"camp_site": "basic", "capacity:tents": "15", "drinking_water": "yes", "fee": "no", "name": "Silvermine Horse Camp", "power_supply": "no", "toilets": "yes", "tourism": "camp_site", "osm_id": 9012892682}}, {"type": "Feature", "geometry": {"type": "Point", "coordinates": [-72.0840441, 41.7747928]}, "properties": {"name": "Youth Group Camping Area", "tourism": "camp_site", "osm_id": 9015274714}}, {"type": "Feature", "geometry": {"type": "Point", "coordinates": [-71.3911809, 42.5021121]}, "properties": {"name": "0", "tourism": "camp_site", "osm_id": 9255031543}}, {"type": "Feature", "geometry": {"type": "Point", "coordinates": [-73.3634368, 41.9268164]}, "properties": {"fee": "no", "name": "Belter's Campsites", "note": "Bear Box & pit-toilette", "tourism": "camp_site", "osm_id": 9342250905}}, {"type": "Feature", "geometry": {"type": "Point", "coordinates": [-71.4166765, 41.6431506]}, "properties": {"tourism": "camp_site", "osm_id": 9359593383}}, {"type": "Feature", "geometry": {"type": "Point", "coordinates": [-70.8682404, 42.5278757]}, "properties": {"group_only": "yes", "source_ref": "http://www.salemweb.com/winterisland/?f=3", "tourism": "camp_site", "osm_id": 9500734058}}, {"type": "Feature", "geometry": {"type": "Point", "coordinates": [-72.4373445, 41.7928889]}, "properties": {"addr:city": "Bolton", "addr:housenumber": "17", "addr:postcode": "06043", "addr:state": "CT", "addr:street": "Howard Road", "tourism": "caravan_site", "osm_id": 9567624721}}, {"type": "Feature", "geometry": {"type": "Point", "coordinates": [-73.4412858, 42.3452534]}, "properties": {"addr:city": "Austerlitz", "addr:housenumber": "386", "addr:postcode": "12017", "addr:state": "NY", "addr:street": "Fog Hill Rd", "description": "Spacious Skies Woodland Hills Campground is a family-friendly campground located in upstate New York.", "name": "Spacious Skies Campgrounds - Woodland Hills", "opening_hours": "Mo-Fr 09:00-18:00", "phone": "+1-518-392-3557", "tourism": "camp_site", "website": "https://campatwoodlandhills.com", "osm_id": 9665009410}}, {"type": "Feature", "geometry": {"type": "Point", "coordinates": [-72.5905315, 42.4586122]}, "properties": {"access": "yes", "backcountry": "yes", "capacity:persons": "12", "drinking_water": "no", "fee": "no", "name": "Whately Oaks Primitive Campsite", "note": "Accommodates up 10 - 12 campers and four tents on tent platforms and has a privy as well. Stays are limited to two consecutive nights. Registration is recommended at: https://goo.gl/kBtFZD. Campers must bring their own water or means of water purification", "operator": "Appalachian Mountain Club", "operator:short": "AMC", "operator:type": "private", "operator:wikidata": "Q2858593", "tourism": "camp_site", "website": "https://www.connecticutriverpaddlerstrail.org/crpt7/node/5659", "osm_id": 10128149071}}, {"type": "Feature", "geometry": {"type": "Point", "coordinates": [-72.5543484, 42.556893]}, "properties": {"access": "yes", "backcountry": "yes", "capacity:persons": "10", "drinking_water": "no", "fee": "no", "name": "Hatchery Brook Primitive Campsite", "note": "WARNING - The first landing of the second staircase has a large bees nest under it! \nConstructed in 2016 by the Appalachian Mountain Club, on land owned by the Massachusetts Department of Conservation and Recreation.\nAccommodates up to 10 campers and four", "operator": "Appalachian Mountain Club", "operator:short": "AMC", "operator:type": "private", "operator:wikidata": "Q2858593", "tourism": "camp_site", "website": "https://www.connecticutriverpaddlerstrail.org/crpt7/node/5658", "osm_id": 10128161161}}, {"type": "Feature", "geometry": {"type": "Point", "coordinates": [-71.5365981, 42.5498377]}, "properties": {"addr:city": "Littleton", "addr:housenumber": "264", "addr:postcode": "01460", "addr:state": "MA", "addr:street": "Ayer Road", "description": "Spacious Skies Minute Man Campground is a peaceful campground located in a piney forest grove in historic Littleton, Massachusetts.", "name": "Spacious Skies Campgrounds - Minute Man", "opening_hours": "Mo-Fr 09:00-18:00", "phone": "+1-978-772-0042", "tourism": "camp_site", "website": "https://campatminuteman.com", "osm_id": 10154290567}}, {"type": "Feature", "geometry": {"type": "Point", "coordinates": [-72.3320734, 42.2468781]}, "properties": {"name": "Camp", "tourism": "camp_site", "osm_id": 10250588109}}, {"type": "Feature", "geometry": {"type": "Point", "coordinates": [-72.4182741, 41.408592]}, "properties": {"name": "Cedars Camp Area", "tourism": "camp_site", "osm_id": 11206775000}}, {"type": "Feature", "geometry": {"type": "Point", "coordinates": [-72.4155316, 41.3941832]}, "properties": {"name": "Quarry Knob Camp Area", "tourism": "camp_site", "osm_id": 11206844706}}, {"type": "Feature", "geometry": {"type": "Point", "coordinates": [-72.4194898, 41.3995604]}, "properties": {"name": "Springledge Camp Area", "tourism": "camp_site", "osm_id": 11206844731}}, {"type": "Feature", "geometry": {"type": "Point", "coordinates": [-72.4203622, 41.4042959]}, "properties": {"name": "Hogback Camp Area", "tourism": "camp_site", "osm_id": 11206844732}}, {"type": "Feature", "geometry": {"type": "Point", "coordinates": [-71.7101032, 41.5901205]}, "properties": {"access": "permit", "caravans": "no", "fee": "yes", "name": "Frosty Hollow Shelter Camping Area", "operator": "Arcadia Management Area", "phone": "+1 401-539-1052", "picnic_table": "yes", "reservation": "required", "tents": "yes", "toilets": "yes", "tourism": "camp_site", "website": "https://www.reserveamerica.com/explore/frosty-hollow-shelter-camping-area/RI/254250/overview", "osm_id": 11653461968}}, {"type": "Feature", "geometry": {"type": "Point", "coordinates": [-70.4624995, 41.7028051]}, "properties": {"access": "private", "caravans": "no", "fee": "yes", "name": "Camp Hayward", "static_caravans": "no", "tents": "yes", "tourism": "camp_site", "osm_id": 11794037939}}, {"type": "Feature", "geometry": {"type": "Point", "coordinates": [-73.4389194, 42.3243351]}, "properties": {"backcountry": "yes", "camp_site": "basic", "fee": "yes", "name": "Harvey Mt. State Forest", "reservation": "no", "tents": "yes", "tourism": "camp_site", "website": "https://dec.ny.gov/places/beebe-hill-and-harvey-mt-state-forests", "osm_id": 12115536693}}, {"type": "Feature", "geometry": {"type": "Point", "coordinates": [-73.4404676, 42.3070736]}, "properties": {"backcountry": "yes", "tourism": "camp_site", "osm_id": 12115536694}}, {"type": "Feature", "geometry": {"type": "Point", "coordinates": [-73.4424979, 42.2981337]}, "properties": {"backcountry": "yes", "tourism": "camp_site", "osm_id": 12115536695}}, {"type": "Feature", "geometry": {"type": "Point", "coordinates": [-71.5122933, 41.4105839]}, "properties": {"name": "Junior Campsite", "tourism": "camp_site", "osm_id": 12175691090}}, {"type": "Feature", "geometry": {"type": "Point", "coordinates": [-71.5108079, 41.4111653]}, "properties": {"name": "Jungle Campsite", "tourism": "camp_site", "osm_id": 12175691091}}, {"type": "Feature", "geometry": {"type": "Point", "coordinates": [-71.5095514, 41.4080953]}, "properties": {"name": "Senior Hill", "tourism": "camp_site", "osm_id": 12175767404}}, {"type": "Feature", "geometry": {"type": "Point", "coordinates": [-71.5098521, 41.4104243]}, "properties": {"name": "Sherman Campsite", "tourism": "camp_site", "osm_id": 12175767412}}, {"type": "Feature", "geometry": {"type": "Point", "coordinates": [-73.3479444, 41.9205278]}, "properties": {"name": "Dean's Ravine Campsite", "tourism": "camp_site", "osm_id": 12245133039}}, {"type": "Feature", "geometry": {"type": "Point", "coordinates": [-70.3219398, 41.7341859]}, "properties": {"backcountry": "yes", "charge": "20 USD", "dog": "no", "fee": "yes", "name": "Sandy Neck Campsite", "note:openfire": "fires allowed on Front Beach", "openfire": "no", "operator": "Town of Barnstable", "owner": "Town of Barnstable", "picnic_table": "yes", "reservation": "yes", "tent": "yes", "tourism": "camp_site", "website": "https://www.townofbarnstable.us/SandyNeckPark/camping/campinghome.aspx", "osm_id": 12461789869}}, {"type": "Feature", "geometry": {"type": "Point", "coordinates": [-72.1586182, 41.5570987]}, "properties": {"name": "Odetah Camping Resort", "tourism": "camp_site", "osm_id": 12791039600}}, {"type": "Feature", "geometry": {"type": "Point", "coordinates": [-72.6728243, 41.4202572]}, "properties": {"name": "Group Campsite", "tourism": "camp_site", "osm_id": 12832808937}}, {"type": "Feature", "geometry": {"type": "Point", "coordinates": [-72.6735044, 41.4205175]}, "properties": {"name": "Group Campsite", "tourism": "camp_site", "osm_id": 12832808938}}, {"type": "Feature", "geometry": {"type": "Point", "coordinates": [-71.7787242, 41.5199868]}, "properties": {"group_only": "yes", "name": "Frontier", "tourism": "camp_site", "osm_id": 12874023358}}, {"type": "Feature", "geometry": {"type": "Point", "coordinates": [-71.7787095, 41.5196583]}, "properties": {"group_only": "yes", "name": "Santa Fe", "tourism": "camp_site", "osm_id": 12874023359}}, {"type": "Feature", "geometry": {"type": "Point", "coordinates": [-71.7785841, 41.5193222]}, "properties": {"group_only": "yes", "name": "Tuocs", "tourism": "camp_site", "osm_id": 12874023360}}, {"type": "Feature", "geometry": {"type": "Point", "coordinates": [-71.777055, 41.5189298]}, "properties": {"group_only": "yes", "name": "Sleepy Hollow", "tourism": "camp_site", "osm_id": 12874023373}}, {"type": "Feature", "geometry": {"type": "Point", "coordinates": [-71.7811533, 41.5168519]}, "properties": {"group_only": "yes", "name": "Donald Dewing", "tourism": "camp_site", "osm_id": 12874023412}}, {"type": "Feature", "geometry": {"type": "Point", "coordinates": [-71.7807172, 41.5157593]}, "properties": {"group_only": "yes", "name": "Wells Fargo", "tourism": "camp_site", "osm_id": 12874023413}}, {"type": "Feature", "geometry": {"type": "Point", "coordinates": [-71.7789719, 41.5170664]}, "properties": {"group_only": "yes", "name": "Musketeer", "tourism": "camp_site", "osm_id": 12874023414}}, {"type": "Feature", "geometry": {"type": "Point", "coordinates": [-71.7786899, 41.5161581]}, "properties": {"group_only": "yes", "name": "Forty-Niner", "tourism": "camp_site", "osm_id": 12874023415}}, {"type": "Feature", "geometry": {"type": "Point", "coordinates": [-71.7795466, 41.5169191]}, "properties": {"group_only": "yes", "name": "Edward Bannister", "tourism": "camp_site", "osm_id": 12874023416}}, {"type": "Feature", "geometry": {"type": "Point", "coordinates": [-71.7778309, 41.5173972]}, "properties": {"group_only": "yes", "name": "Oak Ridge", "tourism": "camp_site", "osm_id": 12874023421}}, {"type": "Feature", "geometry": {"type": "Point", "coordinates": [-71.7782967, 41.5169742]}, "properties": {"group_only": "yes", "name": "Pioneer", "tourism": "camp_site", "osm_id": 12874023422}}, {"type": "Feature", "geometry": {"type": "Point", "coordinates": [-71.7778155, 41.5157396]}, "properties": {"group_only": "yes", "name": "Paul Slade", "tourism": "camp_site", "osm_id": 12874023434}}, {"type": "Feature", "geometry": {"type": "Point", "coordinates": [-71.7768522, 41.5152792]}, "properties": {"group_only": "yes", "name": "Zuccolo", "tourism": "camp_site", "osm_id": 12874023435}}, {"type": "Feature", "geometry": {"type": "Point", "coordinates": [-71.7776659, 41.514813]}, "properties": {"group_only": "yes", "name": "Street", "tourism": "camp_site", "osm_id": 12874023436}}, {"type": "Feature", "geometry": {"type": "Point", "coordinates": [-71.7767706, 41.5147299]}, "properties": {"group_only": "yes", "name": "Scott", "tourism": "camp_site", "osm_id": 12874023437}}, {"type": "Feature", "geometry": {"type": "Point", "coordinates": [-71.7774139, 41.5217522]}, "properties": {"group_only": "yes", "name": "Sequan", "tourism": "camp_site", "osm_id": 12874023496}}, {"type": "Feature", "geometry": {"type": "Point", "coordinates": [-71.7793178, 41.5210867]}, "properties": {"group_only": "yes", "name": "Weemat", "tourism": "camp_site", "osm_id": 12874023529}}, {"type": "Feature", "geometry": {"type": "Point", "coordinates": [-71.7794314, 41.5213]}, "properties": {"group_only": "yes", "name": "Wuttah", "tourism": "camp_site", "osm_id": 12874023530}}, {"type": "Feature", "geometry": {"type": "Point", "coordinates": [-71.7795346, 41.5215796]}, "properties": {"group_only": "yes", "name": "Netop", "tourism": "camp_site", "osm_id": 12874023531}}, {"type": "Feature", "geometry": {"type": "Point", "coordinates": [-71.7791103, 41.5218921]}, "properties": {"group_only": "yes", "name": "Red Wing", "tourism": "camp_site", "osm_id": 12875929955}}, {"type": "Feature", "geometry": {"type": "Point", "coordinates": [-71.779253, 41.522322]}, "properties": {"group_only": "yes", "name": "Wunegin", "tourism": "camp_site", "osm_id": 12875929956}}, {"type": "Feature", "geometry": {"type": "Point", "coordinates": [-71.7777882, 41.5231085]}, "properties": {"group_only": "yes", "name": "Neimpaug", "tourism": "camp_site", "osm_id": 12875929958}}, {"type": "Feature", "geometry": {"type": "Point", "coordinates": [-71.7778998, 41.5236053]}, "properties": {"group_only": "yes", "name": "Cautontowit", "tourism": "camp_site", "osm_id": 12875929959}}, {"type": "Feature", "geometry": {"type": "Point", "coordinates": [-71.7781731, 41.5240348]}, "properties": {"group_only": "yes", "name": "Wetuomuck", "tourism": "camp_site", "osm_id": 12875929960}}, {"type": "Feature", "geometry": {"type": "Point", "coordinates": [-71.7788306, 41.5251289]}, "properties": {"group_only": "yes", "name": "Donald Cady", "tourism": "camp_site", "osm_id": 12875929963}}, {"type": "Feature", "geometry": {"type": "Point", "coordinates": [-71.778763, 41.522861]}, "properties": {"group_only": "yes", "name": "Minnikesu", "tourism": "camp_site", "osm_id": 12875929964}}, {"type": "Feature", "geometry": {"type": "Point", "coordinates": [-71.7787384, 41.5233903]}, "properties": {"group_only": "yes", "name": "Manittoo", "tourism": "camp_site", "osm_id": 12875929965}}, {"type": "Feature", "geometry": {"type": "Point", "coordinates": [-71.7792545, 41.5234688]}, "properties": {"group_only": "yes", "name": "Baden Powell", "tourism": "camp_site", "osm_id": 12875929966}}, {"type": "Feature", "geometry": {"type": "Point", "coordinates": [-71.778984, 41.5242116]}, "properties": {"group_only": "yes", "name": "Abe Lincoln", "tourism": "camp_site", "osm_id": 12875929967}}, {"type": "Feature", "geometry": {"type": "Point", "coordinates": [-71.7796782, 41.524028]}, "properties": {"group_only": "yes", "name": "Frederick Douglas", "tourism": "camp_site", "osm_id": 12875929968}}, {"type": "Feature", "geometry": {"type": "Point", "coordinates": [-71.7798457, 41.5227021]}, "properties": {"group_only": "yes", "name": "Manchosi", "tourism": "camp_site", "osm_id": 12875929969}}, {"type": "Feature", "geometry": {"type": "Point", "coordinates": [-71.7801282, 41.5230839]}, "properties": {"group_only": "yes", "name": "Waskecke", "tourism": "camp_site", "osm_id": 12875929970}}, {"type": "Feature", "geometry": {"type": "Point", "coordinates": [-71.780514, 41.5234723]}, "properties": {"group_only": "yes", "name": "Dan Boone", "tourism": "camp_site", "osm_id": 12875929971}}, {"type": "Feature", "geometry": {"type": "Point", "coordinates": [-71.7810233, 41.5240767]}, "properties": {"group_only": "yes", "name": "Neil Armstrong", "tourism": "camp_site", "osm_id": 12875929998}}, {"type": "Feature", "geometry": {"type": "Point", "coordinates": [-71.7798292, 41.5263527]}, "properties": {"group_only": "yes", "name": "Audobon", "tourism": "camp_site", "osm_id": 12875966803}}, {"type": "Feature", "geometry": {"type": "Point", "coordinates": [-71.7807655, 41.5263243]}, "properties": {"group_only": "yes", "name": "Paul Siple", "tourism": "camp_site", "osm_id": 12875966804}}, {"type": "Feature", "geometry": {"type": "Point", "coordinates": [-71.7809027, 41.5268492]}, "properties": {"group_only": "yes", "name": "Richard Byrd", "tourism": "camp_site", "osm_id": 12875966805}}, {"type": "Feature", "geometry": {"type": "Point", "coordinates": [-71.7801913, 41.5268665]}, "properties": {"group_only": "yes", "name": "Backwoods", "tourism": "camp_site", "osm_id": 12875966806}}, {"type": "Feature", "geometry": {"type": "Point", "coordinates": [-71.7804257, 41.5275836]}, "properties": {"group_only": "yes", "name": "Davy Crockett", "tourism": "camp_site", "osm_id": 12875966807}}, {"type": "Feature", "geometry": {"type": "Point", "coordinates": [-71.7812084, 41.527475]}, "properties": {"group_only": "yes", "name": "Teddy Roosevelt", "tourism": "camp_site", "osm_id": 12875966808}}, {"type": "Feature", "geometry": {"type": "Point", "coordinates": [-71.7806927, 41.5281032]}, "properties": {"group_only": "yes", "name": "Norman Rockwell", "tourism": "camp_site", "osm_id": 12875966809}}, {"type": "Feature", "geometry": {"type": "Point", "coordinates": [-71.7815637, 41.5277055]}, "properties": {"group_only": "yes", "name": "James West", "tourism": "camp_site", "osm_id": 12875966810}}, {"type": "Feature", "geometry": {"type": "Point", "coordinates": [-71.7816082, 41.5285162]}, "properties": {"group_only": "yes", "name": "Silver Buffalo", "tourism": "camp_site", "osm_id": 12875966815}}, {"type": "Feature", "geometry": {"type": "Point", "coordinates": [-71.7813876, 41.529489]}, "properties": {"group_only": "yes", "name": "Ernest Seton", "tourism": "camp_site", "osm_id": 12875966816}}, {"type": "Feature", "geometry": {"type": "Point", "coordinates": [-71.7816042, 41.5289391]}, "properties": {"group_only": "yes", "name": "Ida Lewis", "tourism": "camp_site", "osm_id": 12875966817}}, {"type": "Feature", "geometry": {"type": "Point", "coordinates": [-71.7837956, 41.5254157]}, "properties": {"group_only": "yes", "name": "Jim Bridger", "tourism": "camp_site", "osm_id": 12875966822}}, {"type": "Feature", "geometry": {"type": "Point", "coordinates": [-71.7826556, 41.5255202]}, "properties": {"group_only": "yes", "name": "George Washington", "tourism": "camp_site", "osm_id": 12875966823}}, {"type": "Feature", "geometry": {"type": "Point", "coordinates": [-72.9782757, 42.2800226]}, "properties": {"bar": "no", "cabin": "rental", "capacity": "1", "caravans": "no", "drinking_water": "yes", "internet_access": "yes", "name": "Chester Railway Station", "nudism": "no", "power_supply": "yes", "reservation": "required", "sanitary_dump_station": "no", "shower": "yes", "swimming_pool": "no", "tents": "yes", "toilets": "yes", "tourism": "camp_site", "website": "https://www.chesterrailwaystation.net/Caboose.html", "wheelchair": "limited", "osm_id": 12913424397}}, {"type": "Feature", "geometry": {"type": "Point", "coordinates": [-71.650376, 42.0860713]}, "properties": {"access": "private", "camp_site": "standard", "caravans": "yes", "fee": "yes", "operator": "Fairwoods Christian Recreation Society", "static_caravans": "yes", "tents": "yes", "tourism": "camp_site", "osm_id": 13056797779}}, {"type": "Feature", "geometry": {"type": "Point", "coordinates": [-72.0862646, 42.0869292]}, "properties": {"addr:city": "Sturbridge", "addr:housenumber": "30", "addr:postcode": "01566", "addr:street": "River Road", "name": "Pine Lake RV Resort & Cottages", "phone": "+1-508-347-9570", "tourism": "caravan_site", "website": "https://pinelakervresortandcottages.com/", "osm_id": 29672914}}, {"type": "Feature", "geometry": {"type": "Point", "coordinates": [-72.1662477, 42.1076903]}, "properties": {"access": "yes", "name": "Village Green Campground", "owner": "Village Green Campground", "ownership": "private", "source": "MassGIS OpenSpace (http://www.mass.gov/mgis/osp.htm)", "start_date": "1985", "tourism": "camp_site", "osm_id": 29674003}}, {"type": "Feature", "geometry": {"type": "Point", "coordinates": [-71.9978122, 42.3234137]}, "properties": {"access": "permissive", "name": "Treasure Valley Scout Reservation", "operator": "Heart of New England Council", "owner": "Boy Scouts Of America", "ownership": "private", "source": "MassGIS OpenSpace (http://www.mass.gov/mgis/osp.htm);local knowledge", "tourism": "camp_site", "osm_id": 29681711}}, {"type": "Feature", "geometry": {"type": "Point", "coordinates": [-71.946815, 42.1930252]}, "properties": {"access": "permissive", "name": "Camp Laurelwood", "owner": "Girl Scouts Of America - Montachusett Council", "ownership": "private", "source": "MassGIS OpenSpace (http://www.mass.gov/mgis/osp.htm)", "tourism": "camp_site", "osm_id": 29684242}}, {"type": "Feature", "geometry": {"type": "Point", "coordinates": [-70.8753527, 42.8551537]}, "properties": {"access": "restricted", "massgis:ARTICLE97": "0", "massgis:ASSESS_ACR": "29.00000000", "massgis:ASSESS_LOT": "128", "massgis:ASSESS_MAP": "18", "massgis:ATT_DATE": "1996/03/12", "massgis:BASE_MAP": "259-6", "massgis:DCAM_ID": "0", "massgis:DEED_ACRES": "0.00000000", "massgis:EOEAINVOLV": "0", "massgis:FEESYM": "P", "massgis:FEE_OWNER": "RUSNIK INCORPORATED", "massgis:FY_FUNDING": "0", "massgis:LEV_PROT": "N", "massgis:OS_DEED_BO": "0", "massgis:OS_DEED_PA": "0", "massgis:OS_ID": "259-1728", "massgis:OWNER_TYPE": "P", "massgis:POLY_ID": "1728", "massgis:PRIM_PURP": "R", "massgis:PUB_ACCESS": "L", "massgis:SITE_NAME": "RUSNIK CAMPING AREA", "massgis:SOURCE_MAP": "1", "massgis:TOWN_ID": "259", "name": "Rusnik Campground", "owner": "Rusnik Incorporated", "ownership": "private", "source": "MassGIS OpenSpace (http://www.mass.gov/mgis/osp.htm)", "tourism": "camp_site", "osm_id": 29688439}}, {"type": "Feature", "geometry": {"type": "Point", "coordinates": [-70.8437144, 42.832993]}, "properties": {"access": "restricted", "name": "Pines Camping Area", "owner": "Bartlett Robert", "tourism": "camp_site", "website": "http://www.pinescampingarea.com/", "osm_id": 29689786}}, {"type": "Feature", "geometry": {"type": "Point", "coordinates": [-70.9070619, 41.9123174]}, "properties": {"addr:city": "Middleboro", "addr:housenumber": "438", "addr:postcode": "02346", "addr:street": "Plymouth Street", "name": "Boston/Cape Cod KOA", "old_name": "Plymouth Rock Campground", "owner": "Koa Campgrounds", "ownership": "private", "phone": "+1-508-947-6435", "tourism": "caravan_site", "website": "https://koa.com/campgrounds/boston/", "osm_id": 29690097}}, {"type": "Feature", "geometry": {"type": "Point", "coordinates": [-70.7446389, 41.8320457]}, "properties": {"name": "Pinewood Way Campground", "owner": "Tinkham S & Williams", "tourism": "camp_site", "osm_id": 29690104}}, {"type": "Feature", "geometry": {"type": "Point", "coordinates": [-70.6617271, 41.7791621]}, "properties": {"addr:city": "East Wareham", "addr:housenumber": "290", "addr:street": "Glen Charlie Pond", "name": "Maple Park Campground", "phone": "+1 508-295-4945", "tents": "yes", "tourism": "caravan_site", "website": "https://www.capecodmaplepark.com/", "osm_id": 29690961}}, {"type": "Feature", "geometry": {"type": "Point", "coordinates": [-70.7484321, 42.6265087]}, "properties": {"access": "restricted", "massgis:ARTICLE97": "0", "massgis:ASSESS_ACR": "6.80000000", "massgis:ASSESS_LOT": "4", "massgis:ASSESS_MAP": "237", "massgis:ATT_DATE": "1996/08/02", "massgis:BASE_MAP": "107-7", "massgis:DCAM_ID": "0", "massgis:DEED_ACRES": "0.00000000", "massgis:EOEAINVOLV": "0", "massgis:FEESYM": "P", "massgis:FEE_OWNER": "WELCH ROBT", "massgis:FY_FUNDING": "0", "massgis:LEV_PROT": "N", "massgis:OS_DEED_BO": "0", "massgis:OS_DEED_PA": "0", "massgis:OS_ID": "107-3791", "massgis:OWNER_TYPE": "P", "massgis:POLY_ID": "3791", "massgis:PRIM_PURP": "R", "massgis:PUB_ACCESS": "L", "massgis:SITE_NAME": "CAMP PINEHURST", "massgis:SOURCE_MAP": "2", "massgis:TOWN_ID": "107", "name": "Camp Pinehurst", "owner": "Welch Robt", "ownership": "private", "source": "MassGIS OpenSpace (http://www.mass.gov/mgis/osp.htm)", "tourism": "camp_site", "osm_id": 29692265}}, {"type": "Feature", "geometry": {"type": "Point", "coordinates": [-70.8824501, 42.8731612]}, "properties": {"access": "restricted", "massgis:ARTICLE97": "0", "massgis:ASSESS_ACR": "16.50000000", "massgis:ASSESS_LOT": "180", "massgis:ASSESS_MAP": "19", "massgis:ATT_DATE": "1996/03/12", "massgis:BASE_MAP": "259-6", "massgis:DCAM_ID": "0", "massgis:DEED_ACRES": "0.00000000", "massgis:EOEAINVOLV": "0", "massgis:FEESYM": "P", "massgis:FEE_OWNER": "CHOUINARD BRENDA", "massgis:FY_FUNDING": "0", "massgis:LEV_PROT": "N", "massgis:OS_DEED_BO": "0", "massgis:OS_DEED_PA": "0", "massgis:OS_ID": "259-1714", "massgis:OWNER_TYPE": "P", "massgis:POLY_ID": "1714", "massgis:PRIM_PURP": "R", "massgis:PUB_ACCESS": "L", "massgis:SITE_NAME": "BLACK BEAR CAMPGROUND", "massgis:SOURCE_MAP": "1", "massgis:TOWN_ID": "259", "name": "Black Bear Campground", "owner": "Chouinard Brenda", "ownership": "private", "source": "MassGIS OpenSpace (http://www.mass.gov/mgis/osp.htm)", "tourism": "camp_site", "osm_id": 29695421}}, {"type": "Feature", "geometry": {"type": "Point", "coordinates": [-70.5884255, 41.725275]}, "properties": {"addr:city": "Bourne", "addr:housenumber": "260", "addr:postcode": "02532", "addr:street": "Macarthur Boulevard", "name": "Bayview Campground", "phone": "+1 508-759-7610", "tourism": "caravan_site", "website": "https://www.bayviewcampground.com/", "osm_id": 29699402}}, {"type": "Feature", "geometry": {"type": "Point", "coordinates": [-72.0621756, 42.145002]}, "properties": {"access": "yes", "addr:housenumber": "159", "addr:street": "Walker Pond Road", "dog": "leashed", "gnis:feature_id": "600379", "leisure": "nature_reserve", "name": "Wells State Park", "operator": "Massachusetts Department of Conservation and Recreation", "operator:short": "DCR", "operator:type": "government", "operator:wikidata": "Q2543589", "protected": "perpetuity", "tourism": "camp_site", "website": "https://www.mass.gov/locations/wells-state-park", "wikidata": "Q7981699", "osm_id": 29700973}}, {"type": "Feature", "geometry": {"type": "Point", "coordinates": [-70.5770848, 41.6044307]}, "properties": {"access": "yes", "addr:city": "East Falmouth", "addr:housenumber": "130", "addr:postcode": "02536", "addr:state": "MA", "addr:street": "Thomas B Landers Road", "landuse": "recreation_ground", "name": "Sun Retreats Cape Cod", "operator": "Sun Outdoors", "owner": "Cape Cod Camping Club", "ownership": "private", "source": "MassGIS OpenSpace (http://www.mass.gov/mgis/osp.htm)", "tourism": "camp_site", "osm_id": 29703132}}, {"type": "Feature", "geometry": {"type": "Point", "coordinates": [-72.9969969, 42.2719623]}, "properties": {"access": "restricted", "area": "yes", "fixme": "Can't make out river courses well. Not sure this is a bridge.", "landuse": "recreation_ground", "massgis:ARTICLE97": "0", "massgis:ASSESS_ACR": "38.00000000", "massgis:ASSESS_LOT": "15", "massgis:ASSESS_MAP": "412", "massgis:ATT_DATE": "1998/01/28", "massgis:BASE_MAP": "59-2", "massgis:DCAM_ID": "0", "massgis:DEED_ACRES": "0.00000000", "massgis:EOEAINVOLV": "0", "massgis:FEESYM": "P", "massgis:FEE_OWNER": "Walker Island Campground, Inc.", "massgis:FY_FUNDING": "0", "massgis:LEV_PROT": "N", "massgis:OS_DEED_BO": "0", "massgis:OS_DEED_PA": "0", "massgis:OS_ID": "59-942", "massgis:OWNER_ABRV": "WICI", "massgis:OWNER_TYPE": "P", "massgis:POLY_ID": "942", "massgis:PRIM_PURP": "R", "massgis:PUB_ACCESS": "L", "massgis:SITE_NAME": "WALKER ISLAND CAMPGROUND", "massgis:SOURCE_MAP": "1", "massgis:TOWN_ID": "59", "name": "Walker Island Campgrounds", "note": "adjusted to conform to MassGIS 2005 orthos", "owner": "Walker Island Campground, Inc.", "ownership": "private", "source": "MassGIS OpenSpace (http://www.mass.gov/mgis/osp.htm)", "tourism": "caravan_site", "osm_id": 29747023}}, {"type": "Feature", "geometry": {"type": "Point", "coordinates": [-72.8728668, 42.1626233]}, "properties": {"access": "private", "area": "yes", "massgis:ARTICLE97": "0", "massgis:ASSESS_ACR": "343.00000000", "massgis:ASSESS_BLK": "1", "massgis:ASSESS_LOT": "4", "massgis:ASSESS_MAP": "20", "massgis:ATT_DATE": "1997/11/10", "massgis:BASE_MAP": "256-3", "massgis:DCAM_ID": "0", "massgis:DEED_ACRES": "0.00000000", "massgis:EOEAINVOLV": "0", "massgis:FEESYM": "P", "massgis:FEE_OWNER": "Boy Scouts of America-Pioneer Valley", "massgis:FY_FUNDING": "0", "massgis:LEV_PROT": "N", "massgis:OS_DEED_BO": "0", "massgis:OS_DEED_PA": "0", "massgis:OS_ID": "256-16", "massgis:OWNER_ABRV": "BSA", "massgis:OWNER_TYPE": "P", "massgis:POLY_ID": "16", "massgis:PRIM_PURP": "R", "massgis:PUB_ACCESS": "L", "massgis:SITE_NAME": "MOSES SCOUT RESERVATION", "massgis:SOURCE_MAP": "1", "massgis:TOWN_ID": "256", "name": "Moses Scout Reservation", "operator": "Boy Scouts of America", "owner": "Boy Scouts Of America-Pioneer Valley", "ownership": "private", "source": "MassGIS OpenSpace (http://www.mass.gov/mgis/osp.htm)", "tourism": "camp_site", "osm_id": 29747108}}, {"type": "Feature", "geometry": {"type": "Point", "coordinates": [-72.9127094, 42.640609]}, "properties": {"leisure": "park", "name": "Mohawk Park", "owner": "Fantuccio, Paul", "ownership": "private", "source": "MassGIS OpenSpace (http://www.mass.gov/mgis/osp.htm)", "tourism": "caravan_site", "osm_id": 29747467}}, {"type": "Feature", "geometry": {"type": "Point", "coordinates": [-72.993015, 42.2737853]}, "properties": {"access": "restricted", "area": "yes", "landuse": "recreation_ground", "massgis:ARTICLE97": "0", "massgis:ASSESS_ACR": "48.00000000", "massgis:ASSESS_LOT": "13.3", "massgis:ASSESS_MAP": "412", "massgis:ATT_DATE": "1998/01/28", "massgis:BASE_MAP": "59-2", "massgis:DCAM_ID": "0", "massgis:DEED_ACRES": "0.00000000", "massgis:EOEAINVOLV": "0", "massgis:FEESYM": "P", "massgis:FEE_OWNER": "Walker Island Campground, Inc.", "massgis:FY_FUNDING": "0", "massgis:LEV_PROT": "N", "massgis:OS_DEED_BO": "0", "massgis:OS_DEED_PA": "0", "massgis:OS_ID": "59-941", "massgis:OWNER_ABRV": "WICI", "massgis:OWNER_TYPE": "P", "massgis:POLY_ID": "941", "massgis:PRIM_PURP": "R", "massgis:PUB_ACCESS": "L", "massgis:SITE_NAME": "WALKER ISLAND CAMPGROUND", "massgis:SOURCE_MAP": "1", "massgis:TOWN_ID": "59", "name": "Walker Island Campgrounds", "note": "adjusted to conform to MassGIS 2005 orthos", "owner": "Walker Island Campground, Inc.", "ownership": "private", "source": "MassGIS OpenSpace (http://www.mass.gov/mgis/osp.htm)", "tourism": "caravan_site", "osm_id": 29747657}}, {"type": "Feature", "geometry": {"type": "Point", "coordinates": [-72.8743018, 42.1507953]}, "properties": {"access": "private", "area": "yes", "massgis:ARTICLE97": "0", "massgis:ASSESS_ACR": "711.00000000", "massgis:ASSESS_BLK": "2", "massgis:ASSESS_LOT": "1", "massgis:ASSESS_MAP": "4", "massgis:ATT_DATE": "1997/11/10", "massgis:BASE_MAP": "256-3", "massgis:DCAM_ID": "0", "massgis:DEED_ACRES": "0.00000000", "massgis:EOEAINVOLV": "0", "massgis:FEESYM": "P", "massgis:FEE_OWNER": "Boy Scouts of America-Pioneer Valley", "massgis:FY_FUNDING": "0", "massgis:LEV_PROT": "N", "massgis:OS_DEED_BO": "0", "massgis:OS_DEED_PA": "0", "massgis:OS_ID": "256-14", "massgis:OWNER_ABRV": "BSA", "massgis:OWNER_TYPE": "P", "massgis:POLY_ID": "14", "massgis:PRIM_PURP": "R", "massgis:PUB_ACCESS": "L", "massgis:SITE_NAME": "MOSES SCOUT RESERVATION", "massgis:SOURCE_MAP": "1", "massgis:TOWN_ID": "256", "name": "Moses Scout Reservation", "operator": "Boy Scouts of America", "owner": "Boy Scouts Of America-Pioneer Valley", "ownership": "private", "source": "MassGIS OpenSpace (http://www.mass.gov/mgis/osp.htm)", "tourism": "camp_site", "osm_id": 29748723}}, {"type": "Feature", "geometry": {"type": "Point", "coordinates": [-72.9206881, 42.0736493]}, "properties": {"access": "customers", "name": "Prospect Mountain Campground", "ownership": "private", "tourism": "camp_site", "osm_id": 29748858}}, {"type": "Feature", "geometry": {"type": "Point", "coordinates": [-72.06855, 42.39643]}, "properties": {"access": "customers", "massgis:ALT_SITE_N": "CH61B", "massgis:ARTICLE97": "0", "massgis:ASSESS_ACR": "88.86000000", "massgis:ASSESS_LOT": "250", "massgis:ASSESS_MAP": "H", "massgis:ATT_DATE": "1998/03/09", "massgis:BASE_MAP": "21-3", "massgis:DCAM_ID": "0", "massgis:DEED_ACRES": "0.00000000", "massgis:EOEAINVOLV": "0", "massgis:FEESYM": "P", "massgis:FEE_OWNER": "COLDBROOK CAMPGROUND", "massgis:FY_FUNDING": "0", "massgis:LEV_PROT": "N", "massgis:OS_DEED_BO": "0", "massgis:OS_DEED_PA": "0", "massgis:OS_ID": "21-1584", "massgis:OWNER_TYPE": "P", "massgis:POLY_ID": "1584", "massgis:PRIM_PURP": "R", "massgis:PUB_ACCESS": "L", "massgis:SITE_NAME": "COLDBROOK CAMPGROUND", "massgis:SOURCE_MAP": "2", "massgis:TOWN_ID": "21", "name": "Camp Coldbrook", "owner": "Coldbrook Campground", "ownership": "private", "source": "MassGIS OpenSpace (http://www.mass.gov/mgis/osp.htm)", "tourism": "caravan_site", "osm_id": 29755579}}, {"type": "Feature", "geometry": {"type": "Point", "coordinates": [-71.5005862, 42.6494256]}, "properties": {"access": "customers", "leisure": "summer_camp", "name": "Camp Massapoag", "owner": "YMCA Of Lowell", "tourism": "camp_site", "website": "https://greaterlowellymca.org/index.php/camp-massapoag/", "osm_id": 29768917}}, {"type": "Feature", "geometry": {"type": "Point", "coordinates": [-71.5364838, 42.5499093]}, "properties": {"addr:housenumber": "264", "addr:street": "Ayer Road", "alt_name": "Boston Minuteman Campground", "area": "yes", "internet_access": "yes", "name": "Spacious Skies Campground", "phone": "+1 978-772-0042", "tourism": "camp_site", "website": "http://www.minutemancampground.com/", "osm_id": 29769280}}, {"type": "Feature", "geometry": {"type": "Point", "coordinates": [-70.2018317, 42.0465607]}, "properties": {"addr:housenumber": "76R", "addr:street": "Bayberry Avenue", "name": "Coastal Acres Camping Court", "tourism": "camp_site", "website": "http://www.coastalacres.com/", "osm_id": 29799841}}, {"type": "Feature", "geometry": {"type": "Point", "coordinates": [-70.1862843, 42.0618527]}, "properties": {"area": "yes", "bin": "yes", "caravans": "yes", "drinking_water": "yes", "fee": "yes", "name": "Dunes Edge Campground", "openfire": "no", "operator": "The Trustees", "operator:wikidata": "Q7770575", "power_supply": "yes", "shower": "yes", "source": "MassGIS OpenSpace (http://www.mass.gov/mgis/osp.htm)", "tents": "yes", "toilets": "yes", "tourism": "camp_site", "website": "https://thetrustees.org/place/dunes-edge-campground/", "osm_id": 29800154}}, {"type": "Feature", "geometry": {"type": "Point", "coordinates": [-70.089451, 41.7582872]}, "properties": {"access": "yes", "area": "yes", "name": "Shady Knoll Campground", "phone": "+1-508-896-3002", "tourism": "camp_site", "website": "https://shadyknoll.com/", "osm_id": 29800225}}, {"type": "Feature", "geometry": {"type": "Point", "coordinates": [-71.216898, 42.3889181]}, "properties": {"access": "private", "name": "Camp Cedar Hill", "owner": "Girl Scouts Of America - Patriot's Trail Council", "ownership": "private", "source": "MassGIS OpenSpace (http://www.mass.gov/mgis/osp.htm)", "tourism": "camp_site", "osm_id": 29819550}}, {"type": "Feature", "geometry": {"type": "Point", "coordinates": [-72.5372015, 42.6030177]}, "properties": {"access": "yes", "caravans": "no", "charge": "22 USD/night", "dog": "leashed", "drinking_water": "yes", "fee": "yes", "massgis:ARTICLE97": "0", "massgis:ASSESS_ACR": "96.00000000", "massgis:ASSESS_LOT": "17", "massgis:ASSESS_MAP": "103", "massgis:ATT_DATE": "1996/05/29", "massgis:BASE_MAP": "106-4", "massgis:DCAM_ID": "0", "massgis:DEED_ACRES": "0.00000000", "massgis:EOEAINVOLV": "0", "massgis:FEESYM": "P", "massgis:FEE_OWNER": "Western Massachusetts Electric Company", "massgis:FY_FUNDING": "0", "massgis:LEV_PROT": "N", "massgis:OS_DEED_BO": "0", "massgis:OS_DEED_PA": "0", "massgis:OS_ID": "106-212", "massgis:OWNER_ABRV": "WMECO", "massgis:OWNER_TYPE": "P", "massgis:POLY_ID": "212", "massgis:PRIM_PURP": "R", "massgis:PUB_ACCESS": "X", "massgis:SITE_NAME": "BARTON COVE", "massgis:SOURCE_MAP": "1", "massgis:TOWN_ID": "106", "name": "Barton Cove", "operator": "FirstLight Power", "owner": "Western Massachusetts Electric Company", "ownership": "private", "source": "MassGIS OpenSpace (http://www.mass.gov/mgis/osp.htm)", "static_caravans": "no", "tents": "yes", "toilets": "yes", "tourism": "camp_site", "website": "https://www.firstlightpower.com/stewardship/barton-cove-and-munns-ferry-campgrounds/#barton-cove", "osm_id": 29857316}}, {"type": "Feature", "geometry": {"type": "Point", "coordinates": [-72.1444158, 42.1029984]}, "properties": {"massgis:ARTICLE97": "0", "massgis:ASSESS_ACR": "35.00000000", "massgis:ASSESS_BLK": "F", "massgis:ASSESS_LOT": "4", "massgis:ASSESS_MAP": "16", "massgis:ATT_DATE": "1993/10/04", "massgis:CAL_DATE_R": "1/1/1983", "massgis:DCAM_ID": "0", "massgis:DEED_ACRES": "0.00000000", "massgis:EOEAINVOLV": "0", "massgis:FEESYM": "P", "massgis:FEE_OWNER": "BRUCE VAN FLEET", "massgis:FY_FUNDING": "0", "massgis:LEV_PROT": "N", "massgis:OS_DEED_BO": "5521", "massgis:OS_DEED_PA": "33", "massgis:OS_ID": "43-611", "massgis:OWNER_TYPE": "P", "massgis:POLY_ID": "611", "massgis:PRIM_PURP": "R", "massgis:PUB_ACCESS": "X", "massgis:SITE_NAME": "QUINEBUG COVE", "massgis:SOURCE_MAP": "2", "massgis:TOWN_ID": "43", "name": "Quinebaug Cove", "owner": "Bruce Van Fleet", "ownership": "private", "source": "MassGIS OpenSpace (http://www.mass.gov/mgis/osp.htm)", "start_date": "1983", "tourism": "camp_site", "osm_id": 29913800}}, {"type": "Feature", "geometry": {"type": "Point", "coordinates": [-72.2180222, 42.0681342]}, "properties": {"addr:city": "Wales", "addr:housenumber": "22", "addr:postcode": "01081", "addr:state": "MA", "addr:street": "Main Street", "name": "Oak Haven Family Campground", "phone": "+1 413 245 7148", "source": "MassGIS OpenSpace (http://www.mass.gov/mgis/osp.htm)", "tourism": "caravan_site", "website": "https://oakhavencampground.com/", "osm_id": 29914574}}, {"type": "Feature", "geometry": {"type": "Point", "coordinates": [-73.333502, 41.2134473]}, "properties": {"leisure": "nature_reserve", "magic:CATEGORY": "General Recreation", "magic:DESC_": "Private, members or owners only", "name": "Girl Scout Camp", "source": "University of Connecticut (http://magic.lib.uconn.edu/connecticut_data.html)", "tourism": "camp_site", "osm_id": 43398010}}, {"type": "Feature", "geometry": {"type": "Point", "coordinates": [-72.8989646, 41.9894419]}, "properties": {"addr:city": "Hartland", "addr:housenumber": "167", "addr:postcode": "06027", "addr:state": "CT", "addr:street": "Hartland Boulevard", "description": "Private, Members Or Owners Only", "leisure": "nature_reserve", "magic:CATEGORY": "General Recreation", "name": "Camp Alice Merritt", "operator": "Town of Hartland", "source": "University of Connecticut (http://magic.lib.uconn.edu/connecticut_data.html)", "tourism": "camp_site", "osm_id": 43435806}}, {"type": "Feature", "geometry": {"type": "Point", "coordinates": [-72.4036957, 41.9102934]}, "properties": {"description": "Private, Open To Public With Fee", "landuse": "recreation_ground", "leisure": "nature_reserve", "magic:CATEGORY": "General Recreation", "name": "Del-Aire Compground", "operator": "B & B Property LLC", "source": "University of Connecticut (http://magic.lib.uconn.edu/connecticut_data.html)", "tourism": "camp_site", "osm_id": 43435969}}, {"type": "Feature", "geometry": {"type": "Point", "coordinates": [-73.2673149, 41.3182616]}, "properties": {"description": "Private, Members Or Owners Only", "leisure": "nature_reserve", "magic:CATEGORY": "General Recreation", "name": "Lakewood Ymca (Camp Tepee)", "source": "University of Connecticut (http://magic.lib.uconn.edu/connecticut_data.html)", "tourism": "camp_site", "osm_id": 43436059}}, {"type": "Feature", "geometry": {"type": "Point", "coordinates": [-72.879296, 41.9978262]}, "properties": {"addr:city": "Hartland", "addr:housenumber": "222", "addr:postcode": "06027", "addr:state": "CT", "addr:street": "Mountain Road", "description": "Private, Members Or Owners Only", "leisure": "nature_reserve", "magic:CATEGORY": "General Recreation", "name": "Camp Mary Dean Vreeland (Girl Scouts)", "operator": "Connecticut Valley Girl Scouts", "source": "University of Connecticut (http://magic.lib.uconn.edu/connecticut_data.html)", "tourism": "camp_site", "osm_id": 43436243}}, {"type": "Feature", "geometry": {"type": "Point", "coordinates": [-73.4660567, 41.5133472]}, "properties": {"description": "Private, Members Or Owners Only", "landuse": "recreation_ground", "leisure": "nature_reserve", "magic:CATEGORY": "General Recreation", "name": "Southwestern Ct. Girl Scouts Council-Camp Topside", "source": "University of Connecticut (http://magic.lib.uconn.edu/connecticut_data.html)", "tourism": "camp_site", "osm_id": 43436497}}, {"type": "Feature", "geometry": {"type": "Point", "coordinates": [-73.5030433, 41.7929156]}, "properties": {"description": "Private, Members Or Owners Only", "leisure": "nature_reserve", "magic:CATEGORY": "General Recreation", "name": "Laurel Trails Council Girl Scouts (Camp Seeley)", "source": "University of Connecticut (http://magic.lib.uconn.edu/connecticut_data.html)", "tourism": "camp_site", "osm_id": 43436682}}, {"type": "Feature", "geometry": {"type": "Point", "coordinates": [-72.827141, 41.3280154]}, "properties": {"description": "Private, Members Or Owners Only", "leisure": "nature_reserve", "magic:CATEGORY": "General Recreation", "name": "Girl Scout Camp", "source": "University of Connecticut (http://magic.lib.uconn.edu/connecticut_data.html)", "tourism": "camp_site", "osm_id": 43437899}}, {"type": "Feature", "geometry": {"type": "Point", "coordinates": [-72.1514422, 42.01444]}, "properties": {"description": "Private, Members Or Owners Only", "leisure": "nature_reserve", "magic:CATEGORY": "General Recreation", "name": "Camp Pomeraug", "operator": "Boy Scouts Of America", "source": "University of Connecticut (http://magic.lib.uconn.edu/connecticut_data.html)", "tourism": "camp_site", "osm_id": 43438499}}, {"type": "Feature", "geometry": {"type": "Point", "coordinates": [-72.5922166, 41.3450147]}, "properties": {"description": "Private, Members Or Owners Only", "leisure": "nature_reserve", "magic:CATEGORY": "General Recreation", "name": "Deer Lake Camp", "operator": "Connecticut Yankee Council", "source": "University of Connecticut (http://magic.lib.uconn.edu/connecticut_data.html)", "tourism": "camp_site", "website": "https://www.deerlakecamp.org/dcadl.php", "osm_id": 43438745}}, {"type": "Feature", "geometry": {"type": "Point", "coordinates": [-72.2890467, 42.0042307]}, "properties": {"description": "Private, Open To Public With Fee", "leisure": "nature_reserve", "magic:CATEGORY": "General Recreation", "name": "Mineral Springs Campground", "operator": "Mineral Springs Family Campground Inc.", "short_name": "Mineral Springs Campground", "source": "University of Connecticut (http://magic.lib.uconn.edu/connecticut_data.html)", "tourism": "camp_site", "osm_id": 43438750}}, {"type": "Feature", "geometry": {"type": "Point", "coordinates": [-72.428274, 41.7792439]}, "properties": {"description": "Private, cub scout and boy scout campground. Offers summer camp sessions and overnight camping with group approval.", "email": "info@campjohnson.org", "leisure": "nature_reserve", "name": "John and Frederica Johnson Memorial Camp", "operator": "Boy Scouts", "operator:type": "private", "phone": "+1 860 643 0755", "short_name": "Camp Johnson", "source": "University of Connecticut (http://magic.lib.uconn.edu/connecticut_data.html)", "tourism": "camp_site", "website": "http://www.campjohnson.org", "osm_id": 43438968}}, {"type": "Feature", "geometry": {"type": "Point", "coordinates": [-73.0419218, 41.6278593]}, "properties": {"description": "Private, Members Or Owners Only", "leisure": "nature_reserve", "magic:CATEGORY": "General Recreation", "name": "Camp Mattatuck", "operator": "Boy Scouts", "source": "University of Connecticut (http://magic.lib.uconn.edu/connecticut_data.html)", "tourism": "camp_site", "osm_id": 43438991}}, {"type": "Feature", "geometry": {"type": "Point", "coordinates": [-72.5268568, 41.4690246]}, "properties": {"description": "Private, Members Or Owners Only", "leisure": "nature_reserve", "magic:CATEGORY": "General Recreation", "name": "Boy Scouts of America Troop 44", "operator": "Boy Scouts of America", "source": "University of Connecticut (http://magic.lib.uconn.edu/connecticut_data.html)", "tourism": "camp_site", "osm_id": 43439223}}, {"type": "Feature", "geometry": {"type": "Point", "coordinates": [-73.1807479, 41.8420236]}, "properties": {"description": "Private, Members Or Owners Only", "leisure": "nature_reserve", "magic:CATEGORY": "General Recreation", "name": "Nw Ctgirl Scout Council (Camp Maria Pratt)", "source": "University of Connecticut (http://magic.lib.uconn.edu/connecticut_data.html)", "tourism": "camp_site", "osm_id": 43439597}}, {"type": "Feature", "geometry": {"type": "Point", "coordinates": [-72.5681133, 41.5796294]}, "properties": {"description": "Private, Members Or Owners Only; General Recreation", "email": "info@noyesrhythm.org", "leisure": "nature_reserve", "name": "Shepherd's Nine", "operator": "Noyes School of Rhythm", "phone": "+1 860 342 0328", "source": "University of Connecticut (http://magic.lib.uconn.edu/connecticut_data.html)", "tourism": "camp_site", "website": "https://www.noyesrhythm.org", "osm_id": 43439614}}, {"type": "Feature", "geometry": {"type": "Point", "coordinates": [-73.4607142, 41.9430165]}, "properties": {"description": "Private, Members Or Owners Only", "leisure": "nature_reserve", "magic:CATEGORY": "General Recreation", "name": "Ymca Camp Slone (Indian Mountain Road)", "source": "University of Connecticut (http://magic.lib.uconn.edu/connecticut_data.html)", "tourism": "camp_site", "osm_id": 43439641}}, {"type": "Feature", "geometry": {"type": "Point", "coordinates": [-72.2411709, 41.9671622]}, "properties": {"addr:city": "Stafford", "addr:housenumber": "8", "addr:postcode": "06076", "addr:state": "CT", "addr:street": "South Road", "description": "Private, Open To Public With Fee", "leisure": "nature_reserve", "magic:CATEGORY": "General Recreation", "name": "Roaring Brook Campground", "operator": "Roaring Brook Campground Association Inc.", "source": "University of Connecticut (http://magic.lib.uconn.edu/connecticut_data.html)", "tourism": "camp_site", "osm_id": 43439824}}, {"type": "Feature", "geometry": {"type": "Point", "coordinates": [-72.3675731, 41.9856551]}, "properties": {"description": "Private, Open To Public With Fee", "leisure": "nature_reserve", "magic:CATEGORY": "General Recreation", "name": "Stafford Wood West Campground", "operator": "Sun Valley Camping Cooperative", "source": "University of Connecticut (http://magic.lib.uconn.edu/connecticut_data.html)", "tourism": "camp_site", "osm_id": 43440098}}, {"type": "Feature", "geometry": {"type": "Point", "coordinates": [-73.1757281, 42.0063894]}, "properties": {"description": "Private, Members Or Owners Only", "leisure": "nature_reserve", "magic:CATEGORY": "General Recreation", "name": "Long Rivers Council (Boy Scouts Of America)", "source": "University of Connecticut (http://magic.lib.uconn.edu/connecticut_data.html)", "tourism": "camp_site", "osm_id": 43440247}}, {"type": "Feature", "geometry": {"type": "Point", "coordinates": [-71.8400226, 41.4248077]}, "properties": {"description": "Private, Open To Public With Fee", "magic:CATEGORY": "General Recreation", "name": "Mystic KOA Holiday", "old_name": "Highland Orchards", "operator": "Kampgrounds of America, Inc.", "source": "University of Connecticut (http://magic.lib.uconn.edu/connecticut_data.html)", "tourism": "camp_site", "osm_id": 43440566}}, {"type": "Feature", "geometry": {"type": "Point", "coordinates": [-73.1787275, 41.8517765]}, "properties": {"description": "Private, Members Or Owners Only", "leisure": "nature_reserve", "magic:CATEGORY": "General Recreation", "name": "Nw Ctgirl Scout Council (Camp Maria Pratt)", "source": "University of Connecticut (http://magic.lib.uconn.edu/connecticut_data.html)", "tourism": "camp_site", "osm_id": 43440632}}, {"type": "Feature", "geometry": {"type": "Point", "coordinates": [-72.5930367, 41.5746674]}, "properties": {"leisure": "nature_reserve", "name": "YMCA Camp Ingersoll", "source": "University of Connecticut (http://magic.lib.uconn.edu/connecticut_data.html)", "tourism": "camp_site", "website": "https://www.campingersoll.org/", "osm_id": 43441037}}, {"type": "Feature", "geometry": {"type": "Point", "coordinates": [-72.3146889, 41.4959929]}, "properties": {"addr:city": "Salem", "addr:housenumber": "39", "addr:postcode": "06420", "addr:state": "CT", "addr:street": "Alexander Road", "email": "sfcg2003@gmail.com", "name": "Salem Farms Campground", "phone": "+1 860 859 2320", "source": "University of Connecticut (http://magic.lib.uconn.edu/connecticut_data.html)", "tourism": "caravan_site", "website": "https://www.salemfarmscampground.com", "osm_id": 43441513}}, {"type": "Feature", "geometry": {"type": "Point", "coordinates": [-72.2972999, 41.4959617]}, "properties": {"addr:city": "Salem", "addr:housenumber": "139", "addr:postcode": "06420", "addr:state": "CT", "addr:street": "Witch Meadow Road", "caravans": "yes", "drinking_water": "yes", "fee": "yes", "name": "Witch Meadow Lake Campground", "phone": "+1-860-859-1542", "power_supply": "yes", "tents": "yes", "toilets": "yes", "tourism": "camp_site", "website": "http://www.witchmeadowcampground.com/", "osm_id": 43441524}}, {"type": "Feature", "geometry": {"type": "Point", "coordinates": [-72.1523195, 41.5574384]}, "properties": {"addr:city": "Bozrah", "addr:housenumber": "38", "addr:postcode": "06334", "addr:state": "CT", "addr:street": "Bozrah Street Extension", "description": "Private, Open To Public With Fee", "leisure": "nature_reserve", "magic:CATEGORY": "General Recreation", "name": "Odetah Camping Resort", "operator": "NGA Capital LLC", "phone": "+1 800 448 1193", "source": "University of Connecticut (http://magic.lib.uconn.edu/connecticut_data.html)", "tourism": "camp_site", "website": "https://odetah.com", "osm_id": 43441634}}, {"type": "Feature", "geometry": {"type": "Point", "coordinates": [-72.2193374, 41.5273986]}, "properties": {"description": "Private, Open To Public With Fee", "magic:CATEGORY": "General Recreation", "name": "Acorn Acres Campground", "source": "University of Connecticut (http://magic.lib.uconn.edu/connecticut_data.html)", "tourism": "camp_site", "website": "https://acornacrescampsites.com", "osm_id": 43441652}}, {"type": "Feature", "geometry": {"type": "Point", "coordinates": [-72.2362827, 41.5092391]}, "properties": {"description": "Private, Open To Public With Fee", "magic:CATEGORY": "General Recreation", "name": "Indian Field Campground", "source": "University of Connecticut (http://magic.lib.uconn.edu/connecticut_data.html)", "tourism": "camp_site", "osm_id": 43441694}}, {"type": "Feature", "geometry": {"type": "Point", "coordinates": [-72.2183424, 41.5147331]}, "properties": {"addr:city": "Oakdale", "addr:housenumber": "15", "addr:postcode": "06370", "addr:state": "CT", "addr:street": "Cottage Road", "description": "Private, Members Or Owners Only", "leisure": "nature_reserve", "magic:CATEGORY": "General Recreation", "name": "Laurel Lock Campground", "phone": "+1 860 859 1424", "source": "University of Connecticut (http://magic.lib.uconn.edu/connecticut_data.html)", "tourism": "camp_site", "website": "http://www.laurellock.com", "osm_id": 43441722}}, {"type": "Feature", "geometry": {"type": "Point", "coordinates": [-72.2346444, 41.5131023]}, "properties": {"alt_name": "Arrowhead Cottages", "description": "Private, Open To Public With Fee", "magic:CATEGORY": "General Recreation", "name": "Arrowhead Cove", "source": "University of Connecticut (http://magic.lib.uconn.edu/connecticut_data.html)", "tourism": "camp_site", "osm_id": 43441727}}, {"type": "Feature", "geometry": {"type": "Point", "coordinates": [-71.9745162, 41.5113884]}, "properties": {"description": "Private, Open To Public With Fee", "magic:CATEGORY": "General Recreation", "name": "Amos Lake Campground", "source": "University of Connecticut (http://magic.lib.uconn.edu/connecticut_data.html)", "tourism": "caravan_site", "osm_id": 43442042}}, {"type": "Feature", "geometry": {"type": "Point", "coordinates": [-73.1633733, 41.8882524]}, "properties": {"description": "Private, Members Or Owners Only", "leisure": "nature_reserve", "magic:CATEGORY": "General Recreation", "name": "Camp Ouleout (Ymca)", "source": "University of Connecticut (http://magic.lib.uconn.edu/connecticut_data.html)", "tourism": "camp_site", "osm_id": 43442293}}, {"type": "Feature", "geometry": {"type": "Point", "coordinates": [-72.3639918, 41.9795793]}, "properties": {"description": "Private, Open To Public With Fee", "leisure": "nature_reserve", "magic:CATEGORY": "General Recreation", "name": "Sun Valley Beach Club", "operator": "Sun Valley Camping Cooperative", "source": "University of Connecticut (http://magic.lib.uconn.edu/connecticut_data.html)", "tourism": "camp_site", "osm_id": 43442385}}, {"type": "Feature", "geometry": {"type": "Point", "coordinates": [-72.8364227, 41.5897743]}, "properties": {"description": "Private, Members Or Owners Only", "email": "jhubeny@sccymca.org", "leisure": "nature_reserve", "magic:CATEGORY": "General Recreation", "name": "YMCA Camp Sloper", "operator": "YMCA Camp Sloper", "phone": "+1 860 621 8194", "source": "University of Connecticut (http://magic.lib.uconn.edu/connecticut_data.html)", "tourism": "camp_site", "website": "https://www.ymcacampsloper.org", "osm_id": 43442411}}, {"type": "Feature", "geometry": {"type": "Point", "coordinates": [-70.8501723, 42.2004194]}, "properties": {"name": "Wompatuck State Park Campground", "operator": "DCR", "tourism": "camp_site", "osm_id": 82989950}}, {"type": "Feature", "geometry": {"type": "Point", "coordinates": [-70.023391, 41.762996]}, "properties": {"access": "private", "addr:city": "Brewster", "addr:housenumber": "456", "addr:postcode": "02631", "addr:state": "MA", "addr:street": "Flax Pond Road", "name": "Nauset Academy - Youth Forestry Camp", "old_name": "Stephen L. French Youth Forestry Camp", "operator": "Eliot Community Health Services", "tourism": "camp_site", "osm_id": 165754764}}, {"type": "Feature", "geometry": {"type": "Point", "coordinates": [-72.0815951, 42.6477249]}, "properties": {"name": "Lake Dennison Campground", "tourism": "camp_site", "osm_id": 214134788}}, {"type": "Feature", "geometry": {"type": "Point", "coordinates": [-70.0762647, 42.040088]}, "properties": {"name": "North Truro Campground", "operator": "Adventure Bound Camping Resort", "tourism": "caravan_site", "website": "https://www.abcamping.com/", "osm_id": 224697708}}, {"type": "Feature", "geometry": {"type": "Point", "coordinates": [-70.820262, 42.8244399]}, "properties": {"tourism": "camp_site", "osm_id": 224812622}}, {"type": "Feature", "geometry": {"type": "Point", "coordinates": [-73.0471105, 42.646209]}, "properties": {"name": "Savoy Mountain State Forest Camping Area", "phone": "+1-413-663-8469", "tourism": "camp_site", "osm_id": 224819729}}, {"type": "Feature", "geometry": {"type": "Point", "coordinates": [-71.486844, 42.7083958]}, "properties": {"addr:city": "Nashua", "addr:housenumber": "124", "addr:postcode": "03062", "addr:street": "Ridge Road", "name": "Camp Doucet", "operator": "Boys and Girls Club of Nashua", "tourism": "camp_site", "osm_id": 234899047}}, {"type": "Feature", "geometry": {"type": "Point", "coordinates": [-70.0635651, 42.0343943]}, "properties": {"name": "Horton's Campground", "operator": "Adventure Bound Camping Resort", "tourism": "camp_site", "website": "https://www.abcamping.com/", "osm_id": 238015235}}, {"type": "Feature", "geometry": {"type": "Point", "coordinates": [-69.9857496, 41.8797655]}, "properties": {"addr:city": "Wellfleet", "addr:housenumber": "80", "addr:postcode": "02667", "addr:state": "MA", "addr:street": "Route 6", "caravans": "yes", "fee": "yes", "name": "Maurice\u2019s Campground", "operator": "Town of Wellfleet", "phone": "+1-508-349-2029", "static_caravans": "no", "tents": "yes", "tourism": "camp_site", "website": "https://www.mauricescampground.com/", "osm_id": 238015236}}, {"type": "Feature", "geometry": {"type": "Point", "coordinates": [-70.087428, 42.0466185]}, "properties": {"name": "North of Highland Camping Area", "phone": "+1-508-487-1191", "tourism": "camp_site", "website": "https://capecodcamping.com/", "osm_id": 238015237}}, {"type": "Feature", "geometry": {"type": "Point", "coordinates": [-69.9996623, 41.9247826]}, "properties": {"access": "yes", "addr:city": "Wellfleet", "addr:housenumber": "180", "addr:postcode": "02667", "addr:state": "MA", "addr:street": "Old Kings Highway", "capacity:tents": "108", "caravans": "no", "dog": "no", "drinking_water": "yes", "fee": "yes", "name": "Wellfleet Hollow State Campground", "old_name": "1958-2019=Paine's Campground", "operator": "Massachusetts Department of Conservation and Recreation", "phone": "+1-508-349-3007", "power_supply": "yes", "reservation": "required", "shower": "yes", "static_caravans": "no", "tents": "yes", "toilets": "yes", "tourism": "camp_site", "website": "https://www.mass.gov/locations/wellfleet-hollow-state-campground", "wheelchair": "yes", "osm_id": 238015238}}, {"type": "Feature", "geometry": {"type": "Point", "coordinates": [-70.0860165, 41.738768]}, "properties": {"name": "Sweetwater Forest Family Campground", "phone": "+1 508 896 3773", "tourism": "camp_site", "website": "http://www.sweetwaterforest.com/", "osm_id": 238015239}}, {"type": "Feature", "geometry": {"type": "Point", "coordinates": [-72.3543739, 41.3816782]}, "properties": {"addr:city": "Old Lyme", "addr:housenumber": "15", "addr:postcode": "06371", "addr:state": "CT", "addr:street": "Oakland Avenue", "name": "Camp Claire", "tourism": "camp_site", "osm_id": 249095708}}, {"type": "Feature", "geometry": {"type": "Point", "coordinates": [-72.6261218, 41.3545894]}, "properties": {"addr:city": "Madison", "addr:housenumber": "463", "addr:postcode": "06443", "addr:state": "CT", "addr:street": "Summer Hill Road", "name": "Camp Laurelwood", "tourism": "camp_site", "osm_id": 255488870}}, {"type": "Feature", "geometry": {"type": "Point", "coordinates": [-71.1830063, 42.0207583]}, "properties": {"name": "Canoe River Campgrounds", "tourism": "caravan_site", "osm_id": 293101009}}, {"type": "Feature", "geometry": {"type": "Point", "coordinates": [-71.2743092, 41.5868177]}, "properties": {"name": "Melville Ponds Campground", "tourism": "camp_site", "osm_id": 294894424}}, {"type": "Feature", "geometry": {"type": "Point", "coordinates": [-70.6008054, 41.7929551]}, "properties": {"addr:city": "Plymouth", "addr:housenumber": "834", "addr:postcode": "02560", "addr:street": "Bourne Road", "name": "Sandy Pond Campground", "phone": "+1 508-759-9336", "tourism": "caravan_site", "website": "http://www.sandypond.com/", "osm_id": 311686883}}, {"type": "Feature", "geometry": {"type": "Point", "coordinates": [-70.6105831, 41.435067]}, "properties": {"name": "Martha\u2019s Vineyard Family Campground", "phone": "+1 508-693-3772", "tourism": "camp_site", "website": "https://campmv.com/", "osm_id": 311824520}}, {"type": "Feature", "geometry": {"type": "Point", "coordinates": [-71.5886292, 42.4240607]}, "properties": {"name": "Maggi Staff Village", "tourism": "camp_site", "osm_id": 324571731}}, {"type": "Feature", "geometry": {"type": "Point", "coordinates": [-69.9837235, 41.8463632]}, "properties": {"name": "Atlantic Oaks Campground", "source": "Bing", "source:name": "Mapillary", "tourism": "caravan_site", "website": "https://atlanticoaks.com/", "osm_id": 328814392}}, {"type": "Feature", "geometry": {"type": "Point", "coordinates": [-72.090247, 42.6496112]}, "properties": {"group_only": "yes", "name": "Group Camp Area 1", "tourism": "camp_site", "osm_id": 357799163}}, {"type": "Feature", "geometry": {"type": "Point", "coordinates": [-70.029521, 41.7657122]}, "properties": {"dog": "yes", "name": "Camping Area 2", "operator": "DCR", "tourism": "camp_site", "osm_id": 372915112}}, {"type": "Feature", "geometry": {"type": "Point", "coordinates": [-70.0323415, 41.7656329]}, "properties": {"dog": "yes", "name": "Camping Area 3", "operator": "DCR", "tourism": "camp_site", "osm_id": 372915115}}, {"type": "Feature", "geometry": {"type": "Point", "coordinates": [-70.0190595, 41.7506703]}, "properties": {"dog": "yes", "name": "Camping Area 6X", "operator": "DCR", "tourism": "camp_site", "osm_id": 372915118}}, {"type": "Feature", "geometry": {"type": "Point", "coordinates": [-70.0249654, 41.7693248]}, "properties": {"dog": "yes", "name": "Camping Area 5", "operator": "DCR", "tourism": "camp_site", "osm_id": 372915121}}, {"type": "Feature", "geometry": {"type": "Point", "coordinates": [-70.0168964, 41.7537668]}, "properties": {"dog": "yes", "name": "Camping Area 6", "operator": "DCR", "tourism": "camp_site", "osm_id": 372915124}}, {"type": "Feature", "geometry": {"type": "Point", "coordinates": [-70.0327737, 41.7606133]}, "properties": {"dog": "yes", "name": "Camping Area 4", "operator": "DCR", "tourism": "camp_site", "osm_id": 372915130}}, {"type": "Feature", "geometry": {"type": "Point", "coordinates": [-70.029916, 41.768578]}, "properties": {"dog": "yes", "name": "Camping Area 1", "operator": "DCR", "tourism": "camp_site", "osm_id": 372915134}}, {"type": "Feature", "geometry": {"type": "Point", "coordinates": [-71.7526746, 41.7572571]}, "properties": {"addr:city": "Foster", "addr:housenumber": "7", "addr:postcode": "02825", "addr:street": "Harrington Road", "name": "Ginny-B Campground", "phone": "+1 401 397 9477", "tourism": "caravan_site", "website": "http://ginny-bcampground.com/", "osm_id": 380396805}}, {"type": "Feature", "geometry": {"type": "Point", "coordinates": [-71.6279375, 41.5563778]}, "properties": {"addr:city": "West Kingston", "addr:housenumber": "510", "addr:postcode": "02892", "addr:state": "RI", "addr:street": "Gardiner Road", "email": "info@wawaloam.com", "name": "Wawaloam Campground", "phone": "+1 401 294 3039", "tourism": "caravan_site", "website": "https://wawaloam.com", "osm_id": 410609135}}, {"type": "Feature", "geometry": {"type": "Point", "coordinates": [-70.1438448, 41.7093806]}, "properties": {"name": "Old Chatham Road RV Resort", "tourism": "caravan_site", "osm_id": 429891708}}, {"type": "Feature", "geometry": {"type": "Point", "coordinates": [-73.0776355, 42.2925876]}, "properties": {"name": "Frontier Village", "tourism": "camp_site", "osm_id": 441983469}}, {"type": "Feature", "geometry": {"type": "Point", "coordinates": [-73.0755336, 42.2947157]}, "properties": {"name": "Iroquois Village", "tourism": "camp_site", "osm_id": 441983473}}, {"type": "Feature", "geometry": {"type": "Point", "coordinates": [-73.0762404, 42.29268]}, "properties": {"name": "Pioneer Village", "tourism": "camp_site", "osm_id": 441983476}}, {"type": "Feature", "geometry": {"type": "Point", "coordinates": [-73.0808885, 42.2925279]}, "properties": {"name": "Ranger Village", "tourism": "camp_site", "osm_id": 441983477}}, {"type": "Feature", "geometry": {"type": "Point", "coordinates": [-73.2652883, 42.0057022]}, "properties": {"addr:city": "East Canaan", "addr:housenumber": "360", "addr:postcode": "06024", "addr:state": "CT", "addr:street": "Norfolk Road", "fee": "yes", "internet_access": "wlan", "internet_access:fee": "no", "internet_access:ssid": "TengoInternet", "name": "Lone Oak Campsites", "operator": "Lone Oak Campsites", "phone": "+1-860-824-7051", "tourism": "camp_site", "website": "https://www.loneoakcampsites.com/", "osm_id": 469273274}}, {"type": "Feature", "geometry": {"type": "Point", "coordinates": [-72.2408537, 41.3111155]}, "properties": {"tourism": "camp_site", "osm_id": 470090511}}, {"type": "Feature", "geometry": {"type": "Point", "coordinates": [-71.0728701, 42.8873118]}, "properties": {"name": "Lone Tree Scout Reservation", "tourism": "camp_site", "osm_id": 476790419}}, {"type": "Feature", "geometry": {"type": "Point", "coordinates": [-73.0547959, 42.2674069]}, "properties": {"name": "Bonnie Rigg Camping Club", "tourism": "camp_site", "osm_id": 504852093}}, {"type": "Feature", "geometry": {"type": "Point", "coordinates": [-72.5440727, 42.6616057]}, "properties": {"tourism": "camp_site", "osm_id": 506124705}}, {"type": "Feature", "geometry": {"type": "Point", "coordinates": [-72.9441185, 42.6420322]}, "properties": {"name": "Great Pines Camping Area", "tourism": "camp_site", "osm_id": 509877866}}, {"type": "Feature", "geometry": {"type": "Point", "coordinates": [-72.9365185, 42.6421839]}, "properties": {"name": "Group Camping Area", "tourism": "camp_site", "osm_id": 510034744}}, {"type": "Feature", "geometry": {"type": "Point", "coordinates": [-72.0243474, 42.7796396]}, "properties": {"name": "Woodmere Campground", "operator": "Woodmere", "tourism": "camp_site", "osm_id": 514591402}}, {"type": "Feature", "geometry": {"type": "Point", "coordinates": [-73.2917209, 42.2053243]}, "properties": {"capacity": "12", "landuse": "recreation_ground", "name": "Campground", "tourism": "camp_site", "osm_id": 520397679}}, {"type": "Feature", "geometry": {"type": "Point", "coordinates": [-73.2324962, 42.3375077]}, "properties": {"addr:city": "Lee", "addr:housenumber": "256", "addr:street": "Woodland Road", "name": "Lee Campground", "operator": "DCR", "tourism": "camp_site", "osm_id": 527640117}}, {"type": "Feature", "geometry": {"type": "Point", "coordinates": [-72.3595808, 41.7793178]}, "properties": {"leisure": "nature_reserve", "name": "Creaser Park", "old_name": "Camp Creaser", "operator": "State of Connecticut", "operator:type": "government", "operator:wikidata": "Q779", "operator:wikipedia": "en:Connecticut", "owner": "State of CT Health Department", "source": "https://www.openstreetmap.org", "tourism": "camp_site", "osm_id": 551335818}}, {"type": "Feature", "geometry": {"type": "Point", "coordinates": [-73.1342557, 42.4271364]}, "properties": {"name": "Camp Romaca", "tourism": "camp_site", "osm_id": 570745093}}, {"type": "Feature", "geometry": {"type": "Point", "coordinates": [-71.0962377, 42.6074374]}, "properties": {"addr:city": "Andover Ma.", "addr:housenumber": "133", "addr:postcode": "01810", "addr:street": "Jenkins Road", "alt_name": "Loraine Campground", "name": "Lorraine Campground", "phone": "+1 978-475-7972", "tourism": "camp_site", "osm_id": 610689081}}, {"type": "Feature", "geometry": {"type": "Point", "coordinates": [-71.6381813, 41.3577602]}, "properties": {"fee": "yes", "tourism": "caravan_site", "osm_id": 617173173}}, {"type": "Feature", "geometry": {"type": "Point", "coordinates": [-72.4709258, 41.4542706]}, "properties": {"name": "Camp Bethel", "tourism": "camp_site", "wikidata": "Q5027003", "wikipedia": "en:Camp Bethel", "osm_id": 665564989}}, {"type": "Feature", "geometry": {"type": "Point", "coordinates": [-71.5906959, 42.4232199]}, "properties": {"name": "Staff Heights", "tourism": "camp_site", "osm_id": 674511786}}, {"type": "Feature", "geometry": {"type": "Point", "coordinates": [-70.9514764, 42.1711943]}, "properties": {"access": "private", "description": "Old Private Camping Area", "operator": "Girl Scouts of Weymouth", "tourism": "camp_site", "osm_id": 680480711}}, {"type": "Feature", "geometry": {"type": "Point", "coordinates": [-70.8140657, 42.8980997]}, "properties": {"capacity": "28", "fee": "yes", "name": "Hampton Beach State RV Park", "operator": "Hampton Beach State Park", "tents": "no", "tourism": "caravan_site", "osm_id": 685685950}}, {"type": "Feature", "geometry": {"type": "Point", "coordinates": [-72.2107436, 42.648668]}, "properties": {"fee": "yes", "name": "Tully Lake Campground", "operator": "The Trustees of Reservations", "tourism": "camp_site", "website": "https://thetrustees.org/places-to-visit/places-to-stay/tully-lake-campground/", "osm_id": 691855155}}, {"type": "Feature", "geometry": {"type": "Point", "coordinates": [-73.0922838, 42.6840438]}, "properties": {"backcountry": "no", "capacity": "100", "caravans": "yes", "email": "camping@northadams-ma.gov", "group_only": "no", "name": "Historic Valley Campground", "operator": "City of North Adams", "phone": "+1 413 672 2158", "source": "MassGIS OpenSpace (http://www.mass.gov/mgis/osp.htm)", "tents": "yes", "tourism": "camp_site", "website": "https://www.northadams-ma.gov/visit_our_city/historic_valley_campground/index.php", "osm_id": 706350818}}, {"type": "Feature", "geometry": {"type": "Point", "coordinates": [-73.0638457, 42.2995901]}, "properties": {"ele": "479", "gnis:feature_id": "608045", "name": "Camp Greylock", "tourism": "camp_site", "osm_id": 710765945}}, {"type": "Feature", "geometry": {"type": "Point", "coordinates": [-72.2511712, 41.3166665]}, "properties": {"brand": "KOA", "brand:wikidata": "Q16988635", "name": "Niantic KOA Journey", "power_supply": "yes", "short_name": "KOA", "tourism": "caravan_site", "osm_id": 744210709}}, {"type": "Feature", "geometry": {"type": "Point", "coordinates": [-73.1254838, 41.2523712]}, "properties": {"name": "Boy Scout camp", "tourism": "camp_site", "osm_id": 760859838}}, {"type": "Feature", "geometry": {"type": "Point", "coordinates": [-71.1511421, 42.6385193]}, "properties": {"addr:city": "Andover", "addr:housenumber": "141", "addr:state": "MA", "addr:street": "Abbot Street", "name": "Camp Maude Eaton", "operator": "Girl Scouts of Eastern Massachusetts", "tourism": "camp_site", "osm_id": 762767759}}, {"type": "Feature", "geometry": {"type": "Point", "coordinates": [-71.9620667, 42.2457112]}, "properties": {"name": "Sibley Farm Tent Pitches", "tourism": "camp_site", "osm_id": 771764123}}, {"type": "Feature", "geometry": {"type": "Point", "coordinates": [-72.9125656, 41.6453092]}, "properties": {"addr:city": "Southington", "addr:postcode": "06489", "addr:state": "CT", "name": "Bear Creek Campground", "tourism": "camp_site", "osm_id": 779415725}}, {"type": "Feature", "geometry": {"type": "Point", "coordinates": [-73.4947465, 41.7752834]}, "properties": {"landuse": "grass", "tourism": "camp_site", "osm_id": 782714379}}, {"type": "Feature", "geometry": {"type": "Point", "coordinates": [-72.9481191, 41.4521822]}, "properties": {"description": "Private, Members Or Owners Only", "leisure": "nature_reserve", "magic:CATEGORY": "General Recreation", "name": "YMCA Camp Mountain Laurel", "phone": "+1 203 535 2569", "source": "University of Connecticut (http://magic.lib.uconn.edu/connecticut_data.html)", "tourism": "camp_site", "osm_id": 795646952}}, {"type": "Feature", "geometry": {"type": "Point", "coordinates": [-73.1059778, 42.2151652]}, "properties": {"name": "Kolondike Camping Resort", "tourism": "caravan_site", "osm_id": 798397441}}, {"type": "Feature", "geometry": {"type": "Point", "coordinates": [-73.4949974, 41.7763946]}, "properties": {"caravans": "yes", "nudism": "no", "tents": "yes", "tourism": "camp_site", "osm_id": 808253667}}, {"type": "Feature", "geometry": {"type": "Point", "coordinates": [-73.4873027, 41.783077]}, "properties": {"tourism": "camp_site", "osm_id": 808253731}}, {"type": "Feature", "geometry": {"type": "Point", "coordinates": [-71.0882079, 42.6061383]}, "properties": {"name": "Camp Evergreen", "tourism": "camp_site", "osm_id": 808542708}}, {"type": "Feature", "geometry": {"type": "Point", "coordinates": [-71.6063618, 42.7354121]}, "properties": {"group_only": "yes", "operator": "Beaver Brook Association", "tourism": "camp_site", "osm_id": 845408836}}, {"type": "Feature", "geometry": {"type": "Point", "coordinates": [-71.2456942, 42.2313949]}, "properties": {"addr:city": "Dover", "addr:housenumber:en": "294", "addr:state": "MA", "addr:street": "Powissett Street", "contact:phone": "+1 781 329 9300", "contact:website": "https://www.bostonjcc.org/summer-and-vacation-camps/camp-grossman", "description": "Summer Camp", "name": "JCC Camp Grossman", "source": "local knowledge", "tourism": "camp_site", "osm_id": 855215618}}, {"type": "Feature", "geometry": {"type": "Point", "coordinates": [-72.4281973, 41.4507094]}, "properties": {"addr:city": "East Haddam", "addr:housenumber": "256", "addr:postcode": "06423", "addr:state": "CT", "addr:street": "Town Street", "name": "Wolf's Den Family Campground", "phone": "+1 860 873 9681", "tourism": "camp_site", "website": "https://wolfsdencampground.com", "osm_id": 869901107}}, {"type": "Feature", "geometry": {"type": "Point", "coordinates": [-73.2830503, 41.6987338]}, "properties": {"name": "Camp Chinqueka", "tourism": "camp_site", "osm_id": 871515488}}, {"type": "Feature", "geometry": {"type": "Point", "coordinates": [-72.0571848, 41.9715529]}, "properties": {"addr:city": "Woodstock", "addr:housenumber": "1379", "addr:postcode": "06281", "addr:state": "CT", "addr:street": "Old Turnpike Road", "name": "Chamberlain Lake Campground", "phone": "+1 860 974 0567", "tourism": "camp_site", "website": "http://www.chamberlainlakecampground.net", "osm_id": 879297607}}, {"type": "Feature", "geometry": {"type": "Point", "coordinates": [-73.0394879, 41.6343193]}, "properties": {"name": "WPW", "tourism": "camp_site", "osm_id": 882186814}}, {"type": "Feature", "geometry": {"type": "Point", "coordinates": [-73.0390321, 41.6343568]}, "properties": {"name": "Tamarack", "tourism": "camp_site", "osm_id": 882186815}}, {"type": "Feature", "geometry": {"type": "Point", "coordinates": [-73.0388449, 41.6347046]}, "properties": {"name": "49er's", "tourism": "camp_site", "osm_id": 882186816}}, {"type": "Feature", "geometry": {"type": "Point", "coordinates": [-73.038213, 41.6337527]}, "properties": {"name": "Hawthorne", "tourism": "camp_site", "osm_id": 882186819}}, {"type": "Feature", "geometry": {"type": "Point", "coordinates": [-73.0374312, 41.6344354]}, "properties": {"name": "Cedar", "tourism": "camp_site", "osm_id": 882186820}}, {"type": "Feature", "geometry": {"type": "Point", "coordinates": [-73.0372978, 41.6334857]}, "properties": {"name": "Arrow North", "tourism": "camp_site", "osm_id": 882186821}}, {"type": "Feature", "geometry": {"type": "Point", "coordinates": [-73.0388246, 41.6354551]}, "properties": {"name": "Maple", "tourism": "camp_site", "osm_id": 882186822}}, {"type": "Feature", "geometry": {"type": "Point", "coordinates": [-73.0387269, 41.6334616]}, "properties": {"name": "Scoutcraft Area", "tourism": "camp_site", "osm_id": 882186823}}, {"type": "Feature", "geometry": {"type": "Point", "coordinates": [-73.0374837, 41.6350423]}, "properties": {"name": "Mohawk", "tourism": "camp_site", "osm_id": 882186824}}, {"type": "Feature", "geometry": {"type": "Point", "coordinates": [-73.0379827, 41.6360131]}, "properties": {"name": "Cougar", "tourism": "camp_site", "osm_id": 882186825}}, {"type": "Feature", "geometry": {"type": "Point", "coordinates": [-73.0381387, 41.6367214]}, "properties": {"name": "Polaris", "tourism": "camp_site", "osm_id": 882186826}}, {"type": "Feature", "geometry": {"type": "Point", "coordinates": [-73.0379085, 41.6328759]}, "properties": {"name": "Arrow South", "tourism": "camp_site", "osm_id": 882186827}}, {"type": "Feature", "geometry": {"type": "Point", "coordinates": [-73.0421977, 41.6316747]}, "properties": {"name": "Topside", "tourism": "camp_site", "osm_id": 882567913}}, {"type": "Feature", "geometry": {"type": "Point", "coordinates": [-73.0445316, 41.6350757]}, "properties": {"name": "Hickory", "tourism": "camp_site", "osm_id": 882567937}}, {"type": "Feature", "geometry": {"type": "Point", "coordinates": [-73.0389449, 41.6363042]}, "properties": {"name": "Trapper (DISUSED)", "tourism": "camp_site", "osm_id": 882567947}}, {"type": "Feature", "geometry": {"type": "Point", "coordinates": [-71.6851832, 42.7420733]}, "properties": {"addr:city": "Brookline", "addr:housenumber": "7", "addr:postcode": "03033", "addr:state": "NH", "addr:street": "Dupaw Gould Road", "gnis:feature_id": "1915346", "name": "Field & Stream RV Park", "tourism": "caravan_site", "website": "https://www.fsrvp.com/", "osm_id": 885125133}}, {"type": "Feature", "geometry": {"type": "Point", "coordinates": [-72.0983, 42.0609517]}, "properties": {"access": "permissive", "massgis:ARTICLE97": "0", "massgis:ASSESS_ACR": "204.27000000", "massgis:ASSESS_LOT": "19,87", "massgis:ASSESS_MAP": "41,48", "massgis:ATT_DATE": "1995/11/13", "massgis:BASE_MAP": "287-1", "massgis:DCAM_ID": "0", "massgis:DEED_ACRES": "0.00000000", "massgis:EOEAINVOLV": "0", "massgis:FEESYM": "P", "massgis:FEE_OWNER": "OUTDOOR WORLD INC", "massgis:FY_FUNDING": "0", "massgis:LEV_PROT": "N", "massgis:OS_DEED_BO": "0", "massgis:OS_DEED_PA": "0", "massgis:OS_ID": "287-5608", "massgis:OWNER_TYPE": "P", "massgis:POLY_ID": "5608", "massgis:PRIM_PURP": "R", "massgis:PUB_ACCESS": "L", "massgis:SITE_NAME": "OUTDOOR WORLD", "massgis:SOURCE_MAP": "1", "massgis:TOWN_ID": "287", "name": "Outdoor World", "owner": "Outdoor World Inc", "ownership": "private", "source": "MassGIS OpenSpace (http://www.mass.gov/mgis/osp.htm)", "tourism": "camp_site", "osm_id": 911279299}}, {"type": "Feature", "geometry": {"type": "Point", "coordinates": [-71.886944, 41.5632692]}, "properties": {"addr:city": "Griswold", "addr:housenumber": "75", "addr:postcode": "06351", "addr:state": "CT", "addr:street": "Cook Hill Road", "name": "Countryside RV Park", "phone": "+1 860 376 0029", "tourism": "camp_site", "website": "https://www.countrysidervcamp.com", "osm_id": 911886938}}, {"type": "Feature", "geometry": {"type": "Point", "coordinates": [-71.9007842, 41.5488881]}, "properties": {"access": "private", "addr:city": "Griswold", "addr:housenumber": "262", "addr:postcode": "06351", "addr:state": "CT", "addr:street": "Shetucket Turnpike", "email": "BenW@westfordmgt.com", "name": "Pachaug Marina and Campground", "phone": "+1 860 207 4017", "tourism": "camp_site", "website": "http://www.pachaugmarina.net", "osm_id": 912115985}}, {"type": "Feature", "geometry": {"type": "Point", "coordinates": [-72.2155007, 41.506185]}, "properties": {"addr:city": "Montville", "addr:housenumber": "157", "addr:postcode": "06370", "addr:state": "CT", "addr:street": "Doyle Road", "fax": "+1 860 859 1645", "name": "Pequot Ledge Campground", "phone": "+1 860 859 0682", "tourism": "camp_site", "website": "http://www.pequotledge.com", "osm_id": 917175886}}, {"type": "Feature", "geometry": {"type": "Point", "coordinates": [-71.9847658, 41.6214496]}, "properties": {"addr:city": "Lisbon", "addr:housenumber": "170", "addr:postcode": "06351", "addr:state": "CT", "addr:street": "Ross Hill Road", "caravans": "yes", "email": "rosshill@rosshillpark.com", "fax": "+1 860 376 4806", "leisure": "nature_reserve", "name": "Ross Hill Park Family Campground", "phone": "+1 860 376 9606", "tents": "yes", "tourism": "camp_site", "website": "https://www.rosshillpark.com/", "osm_id": 946183267}}, {"type": "Feature", "geometry": {"type": "Point", "coordinates": [-72.0754003, 41.6788815]}, "properties": {"addr:city": "Scotland", "addr:housenumber": "42", "addr:postcode": "06264", "addr:state": "CT", "addr:street": "Toleration Road", "email": "HighlandCMPG@AOL.com", "leisure": "nature_reserve", "name": "Highland Campground", "phone": "+1 860 423 5684", "tourism": "camp_site", "website": "http://www.highlandcampground.com", "osm_id": 946194139}}, {"type": "Feature", "geometry": {"type": "Point", "coordinates": [-72.5016437, 41.7438735]}, "properties": {"addr:city": "Manchester", "addr:housenumber": "650", "addr:postcode": "06040", "addr:state": "CT", "addr:street": "Gardner Street", "leisure": "nature_reserve", "name": "Camp Merrie-Wood", "operator": "Girl Scouts of Connecticut", "tourism": "camp_site", "website": "https://www.gsofct.org/en/camp/summer-camps/day-camp/merrie_wood.html", "osm_id": 951327603}}, {"type": "Feature", "geometry": {"type": "Point", "coordinates": [-72.541768, 41.695713]}, "properties": {"addr:city": "Glastonbury", "addr:housenumber": "1354", "addr:postcode": "06033", "addr:state": "CT", "addr:street": "Neipsic Road", "email": "Info@FriendsofCampNeipsic.org", "leisure": "nature_reserve", "name": "Camp Neipsic", "operator": "Friends of Camp Neipsic, Inc.", "start_date": "1941", "tourism": "camp_site", "website": "https://friendsofcampneipsic.org", "osm_id": 951860171}}, {"type": "Feature", "geometry": {"type": "Point", "coordinates": [-72.0307565, 41.8755731]}, "properties": {"leisure": "nature_reserve", "name": "Windham County 4H Camp", "tourism": "camp_site", "osm_id": 952493658}}, {"type": "Feature", "geometry": {"type": "Point", "coordinates": [-71.8079605, 41.6891211]}, "properties": {"leisure": "nature_reserve", "name": "River's Edge Campground", "tourism": "camp_site", "osm_id": 952825549}}, {"type": "Feature", "geometry": {"type": "Point", "coordinates": [-71.8142678, 41.8533126]}, "properties": {"addr:city": "Killingly", "addr:housenumber": "1060", "addr:postcode": "06243", "addr:state": "CT", "addr:street": "North Road", "name": "Hide-Away-Cove Family Campground", "phone": "+1 860 774 1128", "tourism": "caravan_site", "website": "https://hide-away-cove.squarespace.com", "osm_id": 966070560}}, {"type": "Feature", "geometry": {"type": "Point", "coordinates": [-72.27811, 41.9210109]}, "properties": {"addr:city": "Willington", "addr:housenumber": "150", "addr:postcode": "06279", "addr:state": "CT", "addr:street": "Village Hill Road", "email": "wilderness.lake.campground@gmail.com", "leisure": "nature_reserve", "name": "Wilderness Lake Campground", "phone": "+1 860 684 6352", "tourism": "camp_site", "website": "https://wildernesslakect.com/", "osm_id": 973204170}}, {"type": "Feature", "geometry": {"type": "Point", "coordinates": [-70.5034299, 41.7774244]}, "properties": {"name": "Scusset Beach Campground", "tourism": "camp_site", "osm_id": 974070764}}, {"type": "Feature", "geometry": {"type": "Point", "coordinates": [-72.1940818, 41.7008311]}, "properties": {"name": "Willimantic Camp Meeting Association", "tourism": "camp_site", "osm_id": 975708277}}, {"type": "Feature", "geometry": {"type": "Point", "coordinates": [-72.1715835, 41.6699448]}, "properties": {"name": "Horizons Inc", "tourism": "camp_site", "osm_id": 980733235}}, {"type": "Feature", "geometry": {"type": "Point", "coordinates": [-71.9674605, 41.8498659]}, "properties": {"camp_site": "standard", "caravans": "yes", "drinking_water": "yes", "name": "Wolf Den Campground", "openfire": "yes", "operator": "Connecticut Department of Energy and Environmental Protection", "shower": "hot", "tents": "yes", "toilets": "yes", "tourism": "camp_site", "website": "https://portal.ct.gov/DEEP/State-Parks/Parks/Mashamoquet-Brook-State-Park/Camping", "osm_id": 992023108}}, {"type": "Feature", "geometry": {"type": "Point", "coordinates": [-72.3617524, 41.6033197]}, "properties": {"leisure": "nature_reserve", "name": "Camp Connecticut", "operator": "Independent Order of Odd Fellows", "operator:wikidata": "Q1425508", "operator:wikipedia": "en:Independent Order of Odd Fellows", "tourism": "camp_site", "osm_id": 1001203497}}, {"type": "Feature", "geometry": {"type": "Point", "coordinates": [-71.8692427, 41.5930154]}, "properties": {"name": "Mount Misery Campground", "tourism": "camp_site", "osm_id": 1009528134}}, {"type": "Feature", "geometry": {"type": "Point", "coordinates": [-73.249771, 41.8526595]}, "properties": {"group_only": "yes", "name": "Algonquin", "tourism": "camp_site", "osm_id": 1009618671}}, {"type": "Feature", "geometry": {"type": "Point", "coordinates": [-73.2519601, 41.8519445]}, "properties": {"group_only": "yes", "name": "Mohawk", "tourism": "camp_site", "osm_id": 1009618674}}, {"type": "Feature", "geometry": {"type": "Point", "coordinates": [-73.2524293, 41.8511826]}, "properties": {"group_only": "yes", "name": "Pootatuck", "tourism": "camp_site", "osm_id": 1009618675}}, {"type": "Feature", "geometry": {"type": "Point", "coordinates": [-73.2513333, 41.8528332]}, "properties": {"group_only": "yes", "name": "Chesapeake", "tourism": "camp_site", "osm_id": 1009618676}}, {"type": "Feature", "geometry": {"type": "Point", "coordinates": [-73.2515522, 41.8543298]}, "properties": {"group_only": "yes", "name": "Paugassett", "tourism": "camp_site", "osm_id": 1009618677}}, {"type": "Feature", "geometry": {"type": "Point", "coordinates": [-73.2478057, 41.853413]}, "properties": {"group_only": "yes", "tourism": "camp_site", "osm_id": 1009618678}}, {"type": "Feature", "geometry": {"type": "Point", "coordinates": [-72.1752414, 41.8896801]}, "properties": {"addr:city": "Ashford", "addr:housenumber": "174", "addr:postcode": "06278", "addr:state": "CT", "addr:street": "Laurel Lane", "email": "admin@brialee.net", "name": "Brialee Family Campground", "phone": "+1 860 429 8359", "tourism": "camp_site", "website": "https://www.brialee.com", "osm_id": 1021536473}}, {"type": "Feature", "geometry": {"type": "Point", "coordinates": [-72.0549497, 42.8701715]}, "properties": {"access": "permissive", "addr:city": "Dublin", "addr:housenumber": "642", "addr:postcode": "03444", "addr:state": "NH", "addr:street": "Upper Jaffrey Road", "internet_access": "wlan", "internet_access:fee": "customers", "name": "Camp Wanocksett", "openfire": "yes", "operator": "Heart of New England Council", "reservation": "required", "shower": "yes", "source": "local knowledge", "toilets": "yes", "tourism": "camp_site", "website": "https://campwanocksett.org", "osm_id": 1024695185}}, {"type": "Feature", "geometry": {"type": "Point", "coordinates": [-72.0565803, 42.8658399]}, "properties": {"access": "permissive", "group_only": "yes", "name": "CIT Village", "operator": "Heart of New England Council", "tourism": "camp_site", "osm_id": 1024695194}}, {"type": "Feature", "geometry": {"type": "Point", "coordinates": [-71.8698614, 41.509109]}, "properties": {"addr:city": "Griswold", "addr:housenumber": "207", "addr:postcode": "06451", "addr:state": "CT", "addr:street": "Coal Pit Hill Road", "leisure": "nature_reserve", "name": "Camp Wightman", "operator": "American Baptist Churches of Connecticut", "tourism": "camp_site", "website": "https://www.campwightman.org", "osm_id": 1025033388}}, {"type": "Feature", "geometry": {"type": "Point", "coordinates": [-70.8698148, 42.5281987]}, "properties": {"name": "RV Field", "source_ref": "http://www.salemweb.com/winterisland/?f=3", "tourism": "caravan_site", "osm_id": 1030689924}}, {"type": "Feature", "geometry": {"type": "Point", "coordinates": [-73.0390915, 42.8841326]}, "properties": {"tourism": "camp_site", "osm_id": 1039718405}}, {"type": "Feature", "geometry": {"type": "Point", "coordinates": [-73.0359935, 42.8868631]}, "properties": {"tourism": "camp_site", "osm_id": 1039718406}}, {"type": "Feature", "geometry": {"type": "Point", "coordinates": [-72.2036922, 41.7749427]}, "properties": {"addr:city": "Mansfield Center", "addr:housenumber": "41", "addr:postcode": "06250", "addr:state": "CT", "addr:street": "Chaffeeville Road", "name": "Holiday Hill Day Camp and Recreation Center", "tourism": "camp_site", "website": "https://holidayrecreation.com", "osm_id": 1054896883}}, {"type": "Feature", "geometry": {"type": "Point", "coordinates": [-72.3157795, 41.9246188]}, "properties": {"description": "Private, Members Or Owners Only", "leisure": "nature_reserve", "magic:CATEGORY": "General Recreation", "name": "Camp Yankee Trails", "operator": "Girl Scouts of Connecticut", "source": "University of Connecticut (http://magic.lib.uconn.edu/connecticut_data.html)", "tourism": "camp_site", "osm_id": 1059901684}}, {"type": "Feature", "geometry": {"type": "Point", "coordinates": [-72.7902356, 41.5705882]}, "properties": {"addr:city": "Meriden", "addr:state": "CT", "leisure": "nature_reserve", "name": "Cuno Camp", "operator": "Boys & Girls Club of Meriden", "tourism": "camp_site", "website": "https://www.bgcmeriden.org/cuno-camp-information", "osm_id": 1070106944}}, {"type": "Feature", "geometry": {"type": "Point", "coordinates": [-72.0550566, 42.0206809]}, "properties": {"addr:city": "Woodstock", "addr:housenumber": "65", "addr:postcode": "06281", "addr:state": "CT", "addr:street": "Ide Perrin Road", "ele": "243", "email": "solair@solairrl.com", "gnis:feature_id": "1924749", "leisure": "nature_reserve", "name": "Solair Recreation League", "nudism": "yes", "phone": "+1 860 928 9174", "tourism": "camp_site", "website": "https://www.solairrl.com", "wikidata": "Q31823482", "osm_id": 1095773776}}, {"type": "Feature", "geometry": {"type": "Point", "coordinates": [-71.7970535, 41.7451529]}, "properties": {"addr:city": "Sterling", "addr:housenumber": "131", "addr:postcode": "06377", "addr:state": "CT", "addr:street": "Calvin French Road", "email": "sunridge1@hotmail.com", "leisure": "nature_reserve", "name": "Sun Ridge Resort", "nudism": "yes", "phone": "+1 860 779 1512", "tourism": "camp_site", "website": "https://sunridgeresortct.com", "osm_id": 1095773777}}, {"type": "Feature", "geometry": {"type": "Point", "coordinates": [-72.0913841, 41.8642844]}, "properties": {"addr:city": "Eastford", "addr:housenumber": "98", "addr:postcode": "06242", "addr:state": "CT", "addr:street": "Chaplin Road", "description": "Charlie Brown Campground is located in the peaceful, pre-revolutionary town of Eastford, Connecticut. It is nestled among rolling hills, sleepy rivers and 12,000 plus acres of state park and forests.", "name": "Charlie Brown Campground", "phone": "+1-860-974-0142", "tourism": "camp_site", "website": "https://charliebrowncampground.com/", "osm_id": 1159196384}}, {"type": "Feature", "geometry": {"type": "Point", "coordinates": [-72.1104811, 41.3058548]}, "properties": {"name": "Camp Harkness", "operator": "State of Connecticut", "operator:type": "government", "operator:wikidata": "Q779", "operator:wikipedia": "en:Connecticut", "tourism": "camp_site", "osm_id": 1165399417}}, {"type": "Feature", "geometry": {"type": "Point", "coordinates": [-72.1084023, 41.3089242]}, "properties": {"group_only": "yes", "name": "Green Cabins", "tourism": "camp_site", "osm_id": 1165399421}}, {"type": "Feature", "geometry": {"type": "Point", "coordinates": [-72.1076019, 41.3063867]}, "properties": {"group_only": "yes", "name": "Blue Cabins", "tourism": "camp_site", "osm_id": 1165399422}}, {"type": "Feature", "geometry": {"type": "Point", "coordinates": [-72.1081539, 41.305725]}, "properties": {"group_only": "yes", "name": "Yellow Cabins", "tourism": "camp_site", "osm_id": 1165399423}}, {"type": "Feature", "geometry": {"type": "Point", "coordinates": [-72.223339, 41.4046485]}, "properties": {"name": "Aces High RV Park", "tourism": "caravan_site", "website": "https://aceshighrvpark.com/", "osm_id": 1210572861}}, {"type": "Feature", "geometry": {"type": "Point", "coordinates": [-72.0265753, 41.5924366]}, "properties": {"email": "camp@sunfoxcampground.com", "leisure": "nature_reserve", "name": "Sunfox Campground", "operator": "Sunfox Campground LLC", "phone": "+1 860 376 1081", "tourism": "camp_site", "website": "https://sunfoxcampground.com/", "osm_id": 1236153984}}, {"type": "Feature", "geometry": {"type": "Point", "coordinates": [-71.933021, 41.6058976]}, "properties": {"addr:city": "Griswold", "addr:housenumber": "28", "addr:postcode": "06351", "addr:state": "CT", "addr:street": "Nowakowski Road", "email": "tim@educationworks.com", "leisure": "nature_reserve", "name": "Camper's World at Hopeville Pond", "phone": "+1 860 245 1882", "tourism": "camp_site", "website": "https://www.campersworldcampground.com/", "osm_id": 1245729061}}, {"type": "Feature", "geometry": {"type": "Point", "coordinates": [-72.3392759, 41.4847204]}, "properties": {"name": "Devil's Hopyard State Park Campground", "tourism": "camp_site", "osm_id": 1282055610}}, {"type": "Feature", "geometry": {"type": "Point", "coordinates": [-70.4455745, 41.6636798]}, "properties": {"access": "private", "addr:city": "Marstons Mills", "addr:housenumber": "570", "addr:postcode": "02648", "addr:state": "MA", "addr:street": "Wakeby Road", "caravans": "yes", "fee": "yes", "name": "Sandy Terraces Nudist Campground", "operator": "Sandy Terraces Associates", "tents": "yes", "tourism": "camp_site", "website": "http://www.sandyterraces.com/", "osm_id": 1290130504}}, {"type": "Feature", "geometry": {"type": "Point", "coordinates": [-71.1354424, 41.495155]}, "properties": {"access": "permit", "operator": "Town of Little Compton", "tourism": "camp_site", "osm_id": 1299113399}}, {"type": "Feature", "geometry": {"type": "Point", "coordinates": [-73.486845, 42.0906]}, "properties": {"access": "yes", "backcountry": "yes", "caravans": "no", "check_date": "2024-07-14", "description": "8 privative campsites with 4 jobbox containers as an anti-bear / anti-critter measures. 2 moldering outhouses at the southern end of the area. Some picnic tables and fire pit rings. Do not camp along the brook. Pack in Pack out", "drinking_water": "no", "fee": "no", "fixme": "actually map out the area that these sites take up", "name": "Primitive Campground", "openfire": "yes", "operator": "Mass DCR", "picnic_table": "yes", "reservation": "no", "sanitary_dump_station": "no", "shower": "no", "static_caravans": "no", "tents": "yes", "toilets": "yes", "tourism": "camp_site", "osm_id": 1302363141}}, {"type": "Feature", "geometry": {"type": "Point", "coordinates": [-72.7167763, 41.9048352]}, "properties": {"name": "Camp Shalom", "tourism": "camp_site", "osm_id": 1312623573}}, {"type": "Feature", "geometry": {"type": "Point", "coordinates": [-70.9112929, 42.7240172]}, "properties": {"group_only": "yes", "name": "Camp Cedar Mill", "tourism": "camp_site", "osm_id": 1313543237}}, {"type": "Feature", "geometry": {"type": "Point", "coordinates": [-71.5095547, 41.4096408]}, "properties": {"name": "Camp Fuller - By The Sea", "operator": "YMCA", "tourism": "camp_site", "osm_id": 1314407535}}, {"type": "Feature", "geometry": {"type": "Point", "coordinates": [-70.9889965, 42.8675832]}, "properties": {"access": "customers", "addr:city": "South Hampton", "addr:housenumber": "167", "addr:postcode": "03827", "addr:state": "NH", "addr:street": "Campground Road", "brand": "Thousand Trails", "brand:wikidata": "Q7797073", "fixme": "Maybe the campground should be a point and nto an area", "internet_access": "wlan", "internet_access:fee": "yes", "name": "Tuxbury Pond RV Campground", "phone": "+1-603-394-7660", "tourism": "caravan_site", "website": "https://thousandtrails.com/new-hampshire/tuxbury-pond-rv-resort/", "osm_id": 1317648793}}, {"type": "Feature", "geometry": {"type": "Point", "coordinates": [-73.003042, 41.9349305]}, "properties": {"alt_name": "American Legion State Forest Campground", "name": "Austin F. Hawes Memorial Campground", "operator": "Connecticut Department of Energy and Environmental Protection", "tourism": "camp_site", "osm_id": 1323299502}}, {"type": "Feature", "geometry": {"type": "Point", "coordinates": [-71.2840969, 42.0384699]}, "properties": {"addr:city": "Foxborough", "addr:housenumber": "72", "addr:postcode": "02035", "addr:state": "MA", "addr:street": "West Street", "name": "Normandy Farms Campground", "phone": "+1-866-673-2767", "tourism": "camp_site", "website": "https://normandyfarms.com", "osm_id": 1340746737}}, {"type": "Feature", "geometry": {"type": "Point", "coordinates": [-72.2098351, 41.8637463]}, "properties": {"addr:city": "Ashford", "addr:housenumber": "28", "addr:postcode": "06278", "addr:state": "CT", "addr:street": "Happy Hill Lane", "leisure": "nature_reserve", "name": "Camp CONNRI", "operator": "The Salvation Army", "tourism": "camp_site", "website": "https://easternusa.salvationarmy.org/southern-new-england/camp-connri/", "osm_id": 1346685998}}, {"type": "Feature", "geometry": {"type": "Point", "coordinates": [-72.398938, 41.7007489]}, "properties": {"addr:city": "Hebron", "addr:housenumber": "444", "addr:postcode": "06248", "addr:state": "CT", "addr:street": "East Street", "alt_name": "Camp Hi-Hoti", "email": "info@hnci.org", "leisure": "nature_reserve", "name": "Camp Hi Hoti", "operator": "Hartford Neighborhood Centers Inc.", "phone": "+1 860 251 6517", "tourism": "camp_site", "website": "https://www.hnci.org", "osm_id": 1349082317}}, {"type": "Feature", "geometry": {"type": "Point", "coordinates": [-71.9605921, 41.4006062]}, "properties": {"name": "Seaport Campground", "tourism": "camp_site", "osm_id": 1372976714}}, {"type": "Feature", "geometry": {"type": "Point", "coordinates": [-72.4642556, 41.5557422]}, "properties": {"name": "Markham Meadows Campground", "tourism": "camp_site", "osm_id": 1374694631}}, {"type": "Feature", "geometry": {"type": "Point", "coordinates": [-71.7503744, 41.4179767]}, "properties": {"tourism": "caravan_site", "osm_id": 1375032830}}, {"type": "Feature", "geometry": {"type": "Point", "coordinates": [-72.4687799, 41.4906213]}, "properties": {"name": "Camp Chomeish of New England", "tourism": "camp_site", "osm_id": 1378184975}}, {"type": "Feature", "geometry": {"type": "Point", "coordinates": [-72.4551708, 41.5147424]}, "properties": {"name": "Grandview Camping & Cottages", "tourism": "camp_site", "osm_id": 1378184980}}, {"type": "Feature", "geometry": {"type": "Point", "coordinates": [-71.7408608, 41.5289341]}, "properties": {"addr:city": "Hope Valley", "addr:housenumber": "41", "addr:postcode": "02832", "addr:state": "RI", "addr:street": "Saw Mill Road", "name": "Whispering Pines Campground", "tourism": "caravan_site", "website": "https://whisperingpinescamping.com/", "osm_id": 1380138837}}, {"type": "Feature", "geometry": {"type": "Point", "coordinates": [-72.3081697, 41.6315136]}, "properties": {"name": "Lake Williams Campground", "tourism": "camp_site", "osm_id": 1380579263}}, {"type": "Feature", "geometry": {"type": "Point", "coordinates": [-72.2828642, 41.6497915]}, "properties": {"name": "Girl Scouts of Connecticut Camp Laurel", "operator": "Girl Scouts of Connecticut", "tourism": "camp_site", "osm_id": 1381855640}}, {"type": "Feature", "geometry": {"type": "Point", "coordinates": [-70.5230667, 41.7629681]}, "properties": {"name": "Shawme-Crowell State Forest - Area 1", "tourism": "camp_site", "osm_id": 1388015006}}, {"type": "Feature", "geometry": {"type": "Point", "coordinates": [-70.5153412, 41.7559209]}, "properties": {"name": "Shawme-Crowell State Forest - Area 2", "tourism": "camp_site", "osm_id": 1388015007}}, {"type": "Feature", "geometry": {"type": "Point", "coordinates": [-71.1885405, 42.8843537]}, "properties": {"name": "Camp Tel Noar", "tourism": "camp_site", "osm_id": 1427888394}}, {"type": "Feature", "geometry": {"type": "Point", "coordinates": [-72.7791993, 42.2858356]}, "properties": {"brand": "KOA", "brand:wikidata": "Q16988635", "name": "KOA Westhampton", "tourism": "caravan_site", "osm_id": 1450872400}}, {"type": "Feature", "geometry": {"type": "Point", "coordinates": [-73.2549801, 41.7854579]}, "properties": {"addr:city": "Goshen", "addr:housenumber": "118", "addr:postcode": "06756", "addr:state": "CT", "addr:street": "Hemlock Hill Road", "caravans": "yes", "name": "Hemlock Hill Camp Resort", "tents": "yes", "tourism": "camp_site", "type": "multipolygon", "website": "http://www.hemlockhillcamp.com/", "osm_id": 4067819}}, {"type": "Feature", "geometry": {"type": "Point", "coordinates": [-73.0772657, 42.2770397]}, "properties": {"access": "private", "ele": "505", "gnis:feature_id": "608024", "leisure": "summer_camp", "massgis:ARTICLE97": "0", "massgis:ASSESS_ACR": "66.00000000;99.80000000;211.00000000;68.00000000;3.32000000", "massgis:ASSESS_LOT": "11;44;92;6-1;43", "massgis:ASSESS_MAP": "212;414;408", "massgis:ATT_DATE": "1996/10/29", "massgis:BASE_MAP": "22-2", "massgis:DCAM_ID": "0", "massgis:DEED_ACRES": "0.00000000", "massgis:EOEAINVOLV": "0", "massgis:FEESYM": "N", "massgis:FEE_OWNER": "YMCA", "massgis:FY_FUNDING": "0", "massgis:LEV_PROT": "N", "massgis:OS_DEED_BO": "0", "massgis:OS_DEED_PA": "0", "massgis:OS_ID": "22-885;22-876;22-877;22-880;22-884", "massgis:OWNER_TYPE": "N", "massgis:POLY_ID": "880;884;885;876;877", "massgis:PRIM_PURP": "R", "massgis:PUB_ACCESS": "L", "massgis:SITE_NAME": "YMCA", "massgis:SOURCE_MAP": "1", "massgis:TOWN_ID": "22", "name": "Camp Chimney Corners", "operator": "YMCA", "owner": "YMCA", "ownership": "private_nonprofit", "source": "MassGIS OpenSpace (http://www.mass.gov/mgis/osp.htm)", "tourism": "camp_site", "type": "multipolygon", "wikidata": "Q5026997", "wikipedia": "en:Becket-Chimney Corners YMCA", "osm_id": 6438448}}, {"type": "Feature", "geometry": {"type": "Point", "coordinates": [-73.0820292, 42.2966885]}, "properties": {"access": "private", "leisure": "summer_camp", "massgis:ARTICLE97": "0", "massgis:ASSESS_ACR": "544.00000000", "massgis:ASSESS_LOT": "1", "massgis:ASSESS_MAP": "211", "massgis:ATT_DATE": "1996/10/29", "massgis:BASE_MAP": "22-2", "massgis:DCAM_ID": "0", "massgis:DEED_ACRES": "0.00000000", "massgis:EOEAINVOLV": "0", "massgis:FEESYM": "N", "massgis:FEE_OWNER": "YMCA", "massgis:FY_FUNDING": "0", "massgis:LEV_PROT": "N", "massgis:OS_DEED_BO": "0", "massgis:OS_DEED_PA": "0", "massgis:OS_ID": "22-867", "massgis:OWNER_TYPE": "N", "massgis:POLY_ID": "867", "massgis:PRIM_PURP": "R", "massgis:PUB_ACCESS": "L", "massgis:SITE_NAME": "CAMP BECKET", "massgis:SOURCE_MAP": "1", "massgis:TOWN_ID": "22", "name": "Camp Becket", "operator": "YMCA", "owner": "Ymca", "ownership": "private_nonprofit", "tourism": "camp_site", "type": "multipolygon", "wikidata": "Q5026997", "wikipedia": "en:Becket-Chimney Corners YMCA", "osm_id": 6439625}}, {"type": "Feature", "geometry": {"type": "Point", "coordinates": [-69.9919742, 41.8834729]}, "properties": {"capacity": "21", "check_date:internet_access": "2022-08-08", "internet_access": "no", "internet_access:fee": "no", "name": "MAS Campground", "nudism": "no", "operator": "Massachusetts Audubon Society", "reservation": "members_only", "stars": "4", "tents": "yes", "tourism": "camp_site", "type": "multipolygon", "wheelchair": "no", "osm_id": 10002997}}, {"type": "Feature", "geometry": {"type": "Point", "coordinates": [-71.4905031, 41.4192177]}, "properties": {"name": "Long Cove Campground", "tourism": "camp_site", "type": "multipolygon", "osm_id": 11871002}}, {"type": "Feature", "geometry": {"type": "Point", "coordinates": [-72.3565828, 42.6264984]}, "properties": {"access": "yes", "name": "Wagon Wheel Campground", "tourism": "camp_site", "type": "multipolygon", "osm_id": 12389301}}, {"type": "Feature", "geometry": {"type": "Point", "coordinates": [-72.0924415, 41.6377614]}, "properties": {"leisure": "nature_reserve", "name": "Salt Rock State Campground", "operator": "State of Connecticut", "operator:type": "government", "operator:wikidata": "Q779", "operator:wikipedia": "en:Connecticut", "tourism": "camp_site", "type": "multipolygon", "website": "https://portal.ct.gov/DEEP/State-Parks/Campgrounds/Salt-Rock-State-Campground", "wikidata": "Q7405939", "wikipedia": "en:Salt Rock State Campground", "osm_id": 12935052}}, {"type": "Feature", "geometry": {"type": "Point", "coordinates": [-72.0705993, 41.9687501]}, "properties": {"addr:city": "Woodstock", "addr:housenumber": "42", "addr:postcode": "06282", "addr:state": "CT", "addr:street": "Camp Road", "name": "YMCA Camp Woodstock", "operator": "YMCA of Greater Hartford", "tourism": "camp_site", "type": "multipolygon", "website": "https://www.campwoodstock.org", "osm_id": 12953644}}, {"type": "Feature", "geometry": {"type": "Point", "coordinates": [-72.3926496, 41.6200613]}, "properties": {"description": "Private, Members Or Owners Only", "leisure": "nature_reserve", "magic:CATEGORY": "General Recreation", "name": "Easter Seals Camp", "operator": "Easter Seals Connecticut, Inc.", "source": "University of Connecticut (http://magic.lib.uconn.edu/connecticut_data.html)", "tourism": "camp_site", "type": "multipolygon", "osm_id": 13066360}}, {"type": "Feature", "geometry": {"type": "Point", "coordinates": [-71.9538459, 41.5352645]}, "properties": {"addr:city": "Preston", "addr:housenumber": "42", "addr:postcode": "06365", "addr:state": "CT", "addr:street": "Pierce Road", "description": "Private, Open To Public With Fee", "email": "camp@strawberrypark.net", "magic:CATEGORY": "General Recreation", "name": "Strawberry Park", "phone": "+1 860 886 1944", "tourism": "caravan_site", "type": "multipolygon", "website": "https://www.strawberrypark.net", "wikidata": "Q7622464", "wikipedia": "en:Strawberry Park", "osm_id": 13145088}}, {"type": "Feature", "geometry": {"type": "Point", "coordinates": [-72.0182646, 41.5535137]}, "properties": {"addr:city": "Preston", "addr:housenumber": "47", "addr:postcode": "06365", "addr:state": "CT", "addr:street": "River Road", "name": "Hidden Acres Family Campground", "phone": "+1-860-887-9633", "tourism": "caravan_site", "type": "multipolygon", "website": "https://www.hiddenacrescamp.com/", "osm_id": 13145089}}, {"type": "Feature", "geometry": {"type": "Point", "coordinates": [-72.164154, 41.4769616]}, "properties": {"alt_name": "Camp Oakland", "description": "Municipal, Open To Public Without Fee", "ele": "108", "gnis:feature_id": "1930689", "leisure": "nature_reserve", "magic:CATEGORY": "Existing Preserved Open Space", "name": "Camp Oakdale Recreation Center", "operator": "Town of Montville", "source": "University of Connecticut (http://magic.lib.uconn.edu/connecticut_data.html)", "tourism": "camp_site", "type": "multipolygon", "wikidata": "Q31815119", "osm_id": 13235439}}, {"type": "Feature", "geometry": {"type": "Point", "coordinates": [-71.8121145, 41.9544076]}, "properties": {"ele": "138", "gnis:feature_id": "210034", "leisure": "nature_reserve", "name": "Quaddick State Park", "operator": "Connecticut Department of Energy and Environmental Protection", "ownership": "state", "park:type": "state_park", "source": "CT Department of Environmental Protection shapefile", "source_ref": "http://www.ct.gov/dep/cwp/view.asp?a=2698&q=322898&depNav_GID=1707", "tourism": "camp_site", "type": "multipolygon", "wikidata": "Q14715099", "wikipedia": "en:Quaddick State Park", "osm_id": 13333940}}, {"type": "Feature", "geometry": {"type": "Point", "coordinates": [-72.4938457, 41.4024993]}, "properties": {"description": "Private, Members Or Owners Only", "leisure": "nature_reserve", "magic:CATEGORY": "General Recreation", "operator": "Camp Hazen YMCA", "source": "University of Connecticut (http://magic.lib.uconn.edu/connecticut_data.html)", "tourism": "camp_site", "type": "multipolygon", "website": "https://camphazenymca.org", "osm_id": 13334052}}, {"type": "Feature", "geometry": {"type": "Point", "coordinates": [-73.0513612, 41.874928]}, "properties": {"addr:city": "New Hartford", "addr:housenumber": "791", "addr:postcode": "06057", "addr:state": "CT", "addr:street": "West Hill Road", "leisure": "nature_reserve", "name": "Camp Sequassen", "operator": "Connecticut Yankee Council", "phone": "+1-860-379-2009", "scout": "yes", "tourism": "camp_site", "type": "multipolygon", "website": "http://www.ctyankee.org/camping/camps/sequassen", "osm_id": 14592734}}, {"type": "Feature", "geometry": {"type": "Point", "coordinates": [-70.0101323, 41.7547963]}, "properties": {"dog": "yes", "name": "Camping Area 7", "operator": "DCR", "tourism": "camp_site", "type": "multipolygon", "osm_id": 16235239}}, {"type": "Feature", "geometry": {"type": "Point", "coordinates": [-71.8490963, 41.4694618]}, "properties": {"description": "Private, Members Or Owners Only", "leisure": "nature_reserve", "magic:CATEGORY": "General Recreation", "name": "Tefftweald at Birchenturn", "operator": "Avalonia Land Conservancy", "tourism": "camp_site", "type": "multipolygon", "osm_id": 16543222}}, {"type": "Feature", "geometry": {"type": "Point", "coordinates": [-73.2040018, 41.4211371]}, "properties": {"tourism": "camp_site", "type": "multipolygon", "osm_id": 16550706}}, {"type": "Feature", "geometry": {"type": "Point", "coordinates": [-72.1159497, 41.8822967]}, "properties": {"addr:city": "Ashford", "addr:housenumber": "565", "addr:postcode": "06278", "addr:state": "CT", "addr:street": "Ashford Center Road", "email": "info@holeinthewallgang.org", "leisure": "nature_reserve", "name": "Hole in the Wall Gang Camp", "phone": "+1 860 429 3444", "tourism": "camp_site", "type": "multipolygon", "website": "https://www.holeinthewallgang.org", "wikidata": "Q5880049", "wikipedia": "en:Hole in the Wall Gang Camp", "osm_id": 16691329}}, {"type": "Feature", "geometry": {"type": "Point", "coordinates": [-71.6966312, 41.3746772]}, "properties": {"name": "Burlingame State Park Campground", "tourism": "camp_site", "type": "multipolygon", "osm_id": 17625136}}, {"type": "Feature", "geometry": {"type": "Point", "coordinates": [-73.0462209, 41.8919231]}, "properties": {"addr:city": "New Hartford", "addr:housenumber": "169", "addr:postcode": "06057", "addr:state": "CT", "addr:street": "Camp Workcoeman Road", "leisure": "nature_reserve", "name": "Camp Workcoeman", "operator": "Boy Scouts of America", "phone": "+1-860-379-2207", "scout": "yes", "tourism": "camp_site", "type": "multipolygon", "website": "https://campworkcoeman.org/", "osm_id": 18321899}}, {"type": "Feature", "geometry": {"type": "Point", "coordinates": [-73.1063989, 42.0268024]}, "properties": {"description": "Private, Members Or Owners Only", "leisure": "nature_reserve", "magic:CATEGORY": "General Recreation", "name": "Camp Jewell", "operator": "YMCA of Metrpolitan Hartford", "source": "University of Connecticut (http://magic.lib.uconn.edu/connecticut_data.html)", "tourism": "camp_site", "type": "multipolygon", "osm_id": 18364374}}, {"type": "Feature", "geometry": {"type": "Point", "coordinates": [-73.1047403, 42.0419644]}, "properties": {"addr:city": "Colebrook", "addr:housenumber": "82", "addr:postcode": "06021", "addr:state": "CT", "addr:street": "Fritz Road", "leisure": "nature_reserve", "name": "Bobriwka", "name:uk": "\u0411\u043e\u0431\u0440\u0456\u0432\u043a\u0430", "operator": "Bobriwka Inc.", "phone": "+1-877-857-2267", "tourism": "camp_site", "type": "multipolygon", "website": "bobriwka.com", "osm_id": 18365874}}, {"type": "Feature", "geometry": {"type": "Point", "coordinates": [-71.7501964, 41.4154355]}, "properties": {"tourism": "caravan_site", "type": "multipolygon", "osm_id": 18946706}}, {"type": "Feature", "geometry": {"type": "Point", "coordinates": [-71.9683627, 42.7718246]}, "properties": {"name": "Woodland Camp", "operator": "Mass Audubon", "tourism": "camp_site", "type": "multipolygon", "osm_id": 19273321}}]}