{"type": "FeatureCollection", "features": [{"type": "Feature", "geometry": {"type": "Point", "coordinates": [-76.5219375, 39.0897976]}, "properties": {"access": "private", "addr:city": "Pasadena", "addr:housenumber": "524", "addr:postcode": "21122", "addr:state": "MD", "addr:street": "Lake Shore Drive", "boundary": "protected_area", "leisure": "nature_reserve", "name": "Camp Whippoorwill", "operator": "Girl Scouts of Central Maryland", "protect_class": "1b", "tourism": "camp_site", "type": "boundary", "website": "https://www.gscm.org/", "osm_id": 1328455557}}, {"type": "Feature", "geometry": {"type": "Point", "coordinates": [-78.4546124, 39.6242256]}, "properties": {"backcountry": "yes", "boundary": "protected_area", "caravans": "yes", "fee": "yes", "internet_access": "no", "leisure": "nature_reserve", "name": "Green Ridge State Forest", "operator": "Maryland Forest Service", "operator:wikidata": "Q6781326", "protect_class": "5", "protected_area": "forest_reserve", "protection_title": "State Forest", "reservation": "no", "sanitary_dump_station": "no", "shower": "no", "static_caravans": "no", "tents": "yes", "tourism": "camp_site", "type": "multipolygon", "website": "https://dnr.maryland.gov/forests/Pages/publiclands/western_greenridgeforest.aspx", "wikidata": "Q14217008", "osm_id": 3693730}}, {"type": "Feature", "geometry": {"type": "Point", "coordinates": [-75.0947067, 38.5030861]}, "properties": {"name": "Camp Barnes", "tourism": "camp_site", "type": "multipolygon", "osm_id": 6362828}}, {"type": "Feature", "geometry": {"type": "Point", "coordinates": [-76.2036609, 39.2381035]}, "properties": {"addr:city": "Chestertown", "addr:housenumber": "22242", "addr:state": "MD", "addr:street": "Bay Shore Road", "name": "Camp Fairlee Manor", "operator": "Easterseals Delaware & Maryland's Eastern Shore", "tourism": "camp_site", "type": "multipolygon", "website": "https://www.easterseals.com/de/our-programs/camping-recreation/", "osm_id": 6835595}}, {"type": "Feature", "geometry": {"type": "Point", "coordinates": [-76.2940661, 38.4682714]}, "properties": {"name": "Tideland Park Campgrounds", "tourism": "camp_site", "type": "multipolygon", "osm_id": 6846202}}, {"type": "Feature", "geometry": {"type": "Point", "coordinates": [-76.3306281, 38.4744754]}, "properties": {"name": "Taylor Island Campground", "tourism": "camp_site", "type": "multipolygon", "osm_id": 6846203}}, {"type": "Feature", "geometry": {"type": "Point", "coordinates": [-75.9670697, 38.4506909]}, "properties": {"name": "Tudor Farms", "operator": "Young Life", "tourism": "camp_site", "type": "multipolygon", "osm_id": 6875247}}, {"type": "Feature", "geometry": {"type": "Point", "coordinates": [-76.403001, 39.6346379]}, "properties": {"name": "Harford County 4-H", "tourism": "camp_site", "type": "multipolygon", "osm_id": 11243031}}, {"type": "Feature", "geometry": {"type": "Point", "coordinates": [-77.4762719, 39.6262586]}, "properties": {"backcountry": "no", "cabins": "yes", "caravans": "yes", "group_only": "no", "internet_access": "no", "name": "William Houck Camping Area", "nudism": "no", "operator": "Cunningham Falls State Park", "reservation": "recommended", "tents": "yes", "tourism": "camp_site", "type": "multipolygon", "website": "https://dnr.maryland.gov/publiclands/Pages/western/CunninghamFalls/Camping.aspx", "osm_id": 11699536}}, {"type": "Feature", "geometry": {"type": "Point", "coordinates": [-76.6862742, 39.3087878]}, "properties": {"group_only": "yes", "name": "Gwynns Falls/Leakin Park Camp", "operator": "Baltimore City Department of Recreation & Parks", "tourism": "camp_site", "type": "multipolygon", "osm_id": 12364428}}, {"type": "Feature", "geometry": {"type": "Point", "coordinates": [-76.3464348, 38.9586744]}, "properties": {"leisure": "summer_camp", "name": "Camp Wright", "operator": "Episcopal Church", "reservation": "yes", "tourism": "camp_site", "type": "multipolygon", "osm_id": 12696786}}, {"type": "Feature", "geometry": {"type": "Point", "coordinates": [-78.7749691, 39.6272599]}, "properties": {"name": "Hillcrest River Kampground", "tourism": "camp_site", "type": "multipolygon", "osm_id": 13576499}}, {"type": "Feature", "geometry": {"type": "Point", "coordinates": [-76.1262883, 39.3539082]}, "properties": {"addr:city": "Worton", "addr:housenumber": "24370", "addr:postcode": "21678", "addr:state": "MD", "addr:street": "Still Pond Neck Road", "cabins": "yes", "caravans": "no", "name": "YMCA Camp Tockwogh", "operator": "YMCA of Delaware", "tourism": "camp_site", "type": "multipolygon", "osm_id": 14411501}}, {"type": "Feature", "geometry": {"type": "Point", "coordinates": [-79.0853759, 38.3579013]}, "properties": {"capacity:caravans": "145", "capacity:tents": "20", "caravans": "yes", "motor_vehicle": "yes", "name": "Natural Chimneys Campground", "sanitary_dump_station": "yes", "tents": "yes", "tourism": "caravan_site", "type": "multipolygon", "osm_id": 14592188}}, {"type": "Feature", "geometry": {"type": "Point", "coordinates": [-78.0100992, 39.6064849]}, "properties": {"caravans": "no", "drinking_water": "no", "electrified": "no", "group_only": "yes", "name": "Fort Frederick State Park Youth Group Campsite", "reservation": "yes", "shower": "no", "tents": "yes", "tourism": "camp_site", "type": "multipolygon", "website": "https://dnr.maryland.gov/publiclands/Pages/western/FortFrederick/Camping.aspx", "osm_id": 14697144}}, {"type": "Feature", "geometry": {"type": "Point", "coordinates": [-78.0086587, 39.604694]}, "properties": {"caravans": "yes", "drinking_water": "no", "electrified": "no", "group_only": "no", "name": "Fort Frederick State Park Campground", "reservation": "yes", "shower": "no", "tents": "yes", "tourism": "camp_site", "type": "multipolygon", "website": "https://dnr.maryland.gov/publiclands/Pages/western/FortFrederick/Camping.aspx", "osm_id": 14697145}}, {"type": "Feature", "geometry": {"type": "Point", "coordinates": [-78.2292652, 38.9597302]}, "properties": {"name": "North Fork Resort Associates", "tourism": "caravan_site", "type": "multipolygon", "osm_id": 14721575}}, {"type": "Feature", "geometry": {"type": "Point", "coordinates": [-78.5951803, 38.5781878]}, "properties": {"name": "Riverside camping", "tourism": "caravan_site", "type": "multipolygon", "osm_id": 14725954}}, {"type": "Feature", "geometry": {"type": "Point", "coordinates": [-79.1393576, 39.544538]}, "properties": {"caravans": "yes", "name": "Big Run State Park Campground", "operator": "Maryland Department of Natural Resources", "tents": "yes", "tourism": "camp_site", "type": "multipolygon", "website": "https://dnr.maryland.gov/publiclands/Pages/western/BigRun/Camping.aspx", "osm_id": 14870492}}, {"type": "Feature", "geometry": {"type": "Point", "coordinates": [-77.3968538, 38.5542246]}, "properties": {"access": "permit", "backcountry": "yes", "capacity:tents": "8", "caravans": "yes", "charge": "9 USD/day", "dog": "no", "drinking_water": "no", "ele": "63", "fee": "yes", "gnis:feature_id": "1940319", "group_only": "no", "name": "Chopawamsic Backcountry Area", "openfire": "no", "operator": "National Park Service", "power_supply": "no", "sanitary_dump_station": "no", "static_caravans": "no", "tents": "yes", "tourism": "camp_site", "type": "multipolygon", "website": "https://www.nps.gov/prwi/planyourvisit/backcountrycamping.htm", "osm_id": 15898080}}, {"type": "Feature", "geometry": {"type": "Point", "coordinates": [-76.4690534, 39.4357549]}, "properties": {"caravans": "no", "drinking_water": "yes", "fee": "yes", "group_only": "yes", "name": "Camp Cone", "operator": "Maryland Park Service", "operator:wikidata": "Q6781308", "reservation": "required", "shower": "no", "static_caravans": "no", "tents": "yes", "toilets": "yes", "tourism": "camp_site", "type": "multipolygon", "website": "https://dnr.maryland.gov/publiclands/Pages/central/GunpowderFalls/Youth-Groups.aspx", "osm_id": 16320817}}, {"type": "Feature", "geometry": {"type": "Point", "coordinates": [-77.6215617, 39.497808]}, "properties": {"backcountry": "no", "caravans": "no", "group_only": "yes", "name": "Washington Monument State Park Youth Group Camp", "operator": "Maryland Park Service", "reservation": "required", "tents": "yes", "tourism": "camp_site", "type": "multipolygon", "website": "https://dnr.maryland.gov/publiclands/Pages/western/Washington/Camping.aspx", "osm_id": 16323207}}, {"type": "Feature", "geometry": {"type": "Point", "coordinates": [-77.658772, 38.3055025]}, "properties": {"name": "Glen 4", "tourism": "camp_site", "type": "multipolygon", "osm_id": 16411780}}, {"type": "Feature", "geometry": {"type": "Point", "coordinates": [-77.6628423, 38.3064988]}, "properties": {"name": "Glen 5", "tourism": "camp_site", "type": "multipolygon", "osm_id": 16411781}}, {"type": "Feature", "geometry": {"type": "Point", "coordinates": [-77.6617701, 38.3011413]}, "properties": {"name": "Glen 6", "tourism": "camp_site", "type": "multipolygon", "osm_id": 16411782}}, {"type": "Feature", "geometry": {"type": "Point", "coordinates": [-77.9668336, 39.6091457]}, "properties": {"caravans": "yes", "fee": "yes", "internet_access": "no", "name": "McCoys Ferry Campground", "operator": "National Park Service", "reservation": "required", "tents": "yes", "tourism": "camp_site", "type": "multipolygon", "website": "https://www.nps.gov/choh/planyourvisit/mccoys-ferry-campground.htm", "osm_id": 16660161}}, {"type": "Feature", "geometry": {"type": "Point", "coordinates": [-77.2920738, 39.2586946]}, "properties": {"group_only": "yes", "name": "Little Bennett Campground Group Camping Area", "tourism": "camp_site", "type": "multipolygon", "website": "https://montgomeryparks.org/parks-and-trails/little-bennett-regional-park/little-bennett-campground/", "osm_id": 16660342}}, {"type": "Feature", "geometry": {"type": "Point", "coordinates": [-76.6466164, 38.2564219]}, "properties": {"access": "private", "backcountry": "no", "caravans": "no", "group_only": "no", "name": "Camp Maria Retreat Center", "operator": "Sisters of Charity of Nazareth", "reservation": "required", "tents": "no", "tourism": "camp_site", "type": "multipolygon", "website": "https://campmaria.org/", "osm_id": 17419577}}, {"type": "Feature", "geometry": {"type": "Point", "coordinates": [-76.3335896, 38.0622681]}, "properties": {"backcountry": "no", "capacity": "143", "caravans": "yes", "fee": "yes", "group_only": "no", "name": "Point Lookout State Park Campground", "operator": "Maryland Park Service", "reservation": "required", "sanitary_dump_station": "customers", "tents": "yes", "tourism": "camp_site", "type": "multipolygon", "website": "https://dnr.maryland.gov/publiclands/Pages/southern/PtLookout/Camping-and-Cabins.aspx", "osm_id": 17419624}}, {"type": "Feature", "geometry": {"type": "Point", "coordinates": [-76.8815745, 38.7843159]}, "properties": {"access": "private", "addr:city": "Joint Base Andrews", "addr:country": "US", "addr:housenumber": "4520", "addr:postcode": "20762", "addr:state": "MD", "addr:street": "Wheeling Road", "backcountry": "no", "cabins": "no", "caravans": "yes", "dog": "yes", "email": "316fss.jba.outdoorrecreation@us.af.mil", "fee": "yes", "internet_access": "yes", "motor_vehicle": "yes", "name": "Family Campground", "opening_hours": "Mo-Fr 10:00-17:00;Sa,Su,PH off", "operator": "316th Force Support Squadron", "operator:short": "316 FSS", "permanent_camping": "no", "phone": "+1 301 981 3279;+1 301 981 4109;+1 301 981 5663", "power_supply": "yes", "reservation": "required", "short_name": "FamCamp", "shower": "yes", "tents": "yes", "toilets": "yes", "tourism": "camp_site", "type": "multipolygon", "washing_machine": "yes", "website": "https://www.andrewsfss.com/fam-camp", "osm_id": 18140960}}, {"type": "Feature", "geometry": {"type": "Point", "coordinates": [-75.8462858, 38.0118337]}, "properties": {"caravans": "yes", "email": "janesisland.statepark@maryland.gov", "name": "Janes Island State Park Campground", "operator": "Maryland Department of Natural Resources", "phone": "+1 410 968 1565", "reservation": "required", "tents": "yes", "tourism": "camp_site", "type": "multipolygon", "website": "https://dnr.maryland.gov/publiclands/Pages/eastern/janesisland.aspx", "osm_id": 19091187}}, {"type": "Feature", "geometry": {"type": "Point", "coordinates": [-79.4902307, 39.1162102]}, "properties": {"capacity:caravans": "65", "capacity:tents": "65", "caravans": "yes", "drinking_water": "yes", "name": "Blackwater Falls State Park Campground", "nudism": "no", "power_supply": "yes", "tents": "yes", "tourism": "camp_site", "type": "multipolygon", "website": "https://wvstateparks.com/places-to-stay/campgrounds/blackwater-falls-camping/", "osm_id": 19157619}}, {"type": "Feature", "geometry": {"type": "Point", "coordinates": [-76.1550966, 38.8914954]}, "properties": {"backcountry": "yes", "capacity:persons": "40", "caravans": "no", "drinking_water": "no", "group_only": "yes", "internet_access": "no", "name": "Dividing Creek Youth Group Campsite", "nudism": "no", "opening_hours": "Apr-Oct", "operator": "Maryland Department of Natural Resources", "reservation": "required", "sanitary_dump_station": "no", "shower": "no", "tents": "yes", "toilets": "yes", "tourism": "camp_site", "type": "multipolygon", "website": "https://dnr.maryland.gov/publiclands/Pages/eastern/WyeIsland/Camping.aspx", "osm_id": 19729009}}, {"type": "Feature", "geometry": {"type": "Point", "coordinates": [-76.1510119, 38.8983877]}, "properties": {"backcountry": "yes", "capacity:persons": "40", "caravans": "no", "drinking_water": "no", "group_only": "yes", "internet_access": "no", "name": "Solo Cove Youth Group Campsite", "nudism": "no", "opening_hours": "Apr-Oct", "operator": "Maryland Department of Natural Resources", "power_supply": "no", "reservation": "required", "sanitary_dump_station": "no", "shower": "no", "tents": "yes", "toilets": "yes", "toilets:wheelchair": "no", "tourism": "camp_site", "type": "multipolygon", "website": "https://dnr.maryland.gov/publiclands/Pages/eastern/WyeIsland/Camping.aspx", "wheelchair": "limited", "osm_id": 19729010}}, {"type": "Feature", "geometry": {"type": "Point", "coordinates": [-76.5132598, 38.6188709]}, "properties": {"access": "yes", "addr:city": "Chesapeake Beach", "addr:country": "US", "addr:housenumber": "5300", "addr:postcode": "20732", "addr:state": "MD", "addr:street": "Breezy Point Road", "caravans": "yes", "check_date": "2023-05-10", "drinking_water": "yes", "fee": "yes", "group_only": "no", "internet_access": "no", "name": "Breezy Point Beach and Campground", "opening_hours": "May,Sep-Oct Mo,Th,Fr 09:00-18:00; May,Sep-Oct Sa,Su,PH 08:00-18:30; Jun-Aug Mo,Th,Fr 09:00-19:00; Jun-Aug Sa,Su,PH 09:00-19:30; Nov-Apr closed", "operator": "Calvert County", "payment:mastercard": "yes", "payment:visa": "yes", "phone": "+1 410 535 0259", "reservation": "required", "tents": "yes", "toilets": "yes", "tourism": "camp_site", "type": "multipolygon", "website": "https://www.calvertcountymd.gov/3039/Breezy-Point-Beach-Campground", "osm_id": 20085573}}]}