{"type": "FeatureCollection", "features": [{"type": "Feature", "geometry": {"type": "Point", "coordinates": [-89.1389531, 45.8763916]}, "properties": {"addr:city": "Three Lakes", "addr:housenumber": "8660", "addr:postcode": "54562", "addr:state": "WI", "addr:street": "Honey Rock Road", "alt_name": "Outdoor Center for Leadership Development of Wheaton College", "name": "HoneyRock", "operator": "Wheaton College", "owner": "Wheaton College", "tourism": "camp_site", "type": "multipolygon", "website": "https://www.wheaton.edu/honeyrock/", "osm_id": 1213811145}}, {"type": "Feature", "geometry": {"type": "Point", "coordinates": [-89.4226222, 45.6785685]}, "properties": {"addr:city": "Rhinelander", "addr:housenumber": "4270", "addr:postcode": "54501", "addr:state": "WI", "addr:street": "River Road", "name": "Hodag Country Festival", "tourism": "camp_site", "type": "multipolygon", "website": "https://www.hodag.com/", "osm_id": 1214747017}}, {"type": "Feature", "geometry": {"type": "Point", "coordinates": [-88.0087225, 43.025543]}, "properties": {"name": "Wisconsin State Fair Park RV Park", "parking": "surface", "tourism": "caravan_site", "type": "multipolygon", "osm_id": 2449826}}, {"type": "Feature", "geometry": {"type": "Point", "coordinates": [-85.8057424, 42.6851214]}, "properties": {"addr:city": "Dorr", "addr:housenumber": "3681", "addr:postcode": "49323", "addr:street": "28th Street", "name": "Sandy Pines", "phone": "+1 616 896 8315", "tourism": "camp_site", "type": "multipolygon", "website": "https://sandypines.com/", "osm_id": 3495894}}, {"type": "Feature", "geometry": {"type": "Point", "coordinates": [-87.4119936, 46.5689874]}, "properties": {"ele": "198", "fee": "yes", "gnis:feature_id": "2336343", "is_in:city": "Marquette", "is_in:state": "MI", "layer": "-1", "location": "surface", "name": "Tourist Park Campground", "tourism": "camp_site", "type": "multipolygon", "website": "https://www.marquettemi.gov/departments/community-services/parks-and-recreation/tourist-park/", "osm_id": 8265714}}, {"type": "Feature", "geometry": {"type": "Point", "coordinates": [-89.1770908, 43.4688177]}, "properties": {"addr:city": "Rio", "addr:housenumber": "N5048", "addr:postcode": "53960", "addr:state": "WI", "addr:street": "Ludwig Road", "name": "Silver Springs Campsites", "tourism": "camp_site", "type": "multipolygon", "website": "https://silverspringscamp.com/", "osm_id": 8341987}}, {"type": "Feature", "geometry": {"type": "Point", "coordinates": [-89.5797989, 44.9264276]}, "properties": {"addr:city": "Weston", "addr:housenumber": "3607", "addr:postcode": "54476", "addr:state": "WI", "addr:street": "Northwestern Avenue", "name": "Camp Del O'Claire", "operator": "Girl Scouts of the Northwestern Lakes", "tourism": "camp_site", "type": "multipolygon", "osm_id": 8731124}}, {"type": "Feature", "geometry": {"type": "Point", "coordinates": [-89.5842881, 44.9260418]}, "properties": {"name": "Camp Sturtevant", "operator": "Woodson YMCA", "tourism": "camp_site", "type": "multipolygon", "osm_id": 8731125}}, {"type": "Feature", "geometry": {"type": "Point", "coordinates": [-89.566529, 44.9254586]}, "properties": {"addr:city": "Weston", "addr:housenumber": "3511", "addr:postcode": "54476", "addr:state": "WI", "addr:street": "Camp Phillips Road", "name": "Phillips Scout Camp", "operator": "Boy Scouts of America Samoset Council", "tourism": "camp_site", "type": "multipolygon", "osm_id": 8731194}}, {"type": "Feature", "geometry": {"type": "Point", "coordinates": [-88.5052793, 44.8261662]}, "properties": {"addr:city": "Shawano", "addr:housenumber": "W5248", "addr:postcode": "54166", "addr:state": "WI", "addr:street": "North Lake Drive", "name": "Camp Tekakwitha", "tourism": "camp_site", "type": "multipolygon", "website": "https://www.camptekakwitha.org/", "osm_id": 9038210}}, {"type": "Feature", "geometry": {"type": "Point", "coordinates": [-87.9715874, 43.8097098]}, "properties": {"addr:city": "Plymouth", "addr:housenumber": "W5639", "addr:postcode": "53073", "addr:state": "WI", "addr:street": "Anokijig Lane", "name": "Camp Anokijig", "tourism": "camp_site", "type": "multipolygon", "osm_id": 9084171}}, {"type": "Feature", "geometry": {"type": "Point", "coordinates": [-89.5089152, 45.6520454]}, "properties": {"addr:city": "Rhinelander", "addr:housenumber": "6648", "addr:postcode": "54501", "addr:state": "WI", "addr:street": "County Highway K", "name": "Camp Birchrock", "tourism": "camp_site", "type": "multipolygon", "website": "http://campfireoneida.org/", "osm_id": 9470200}}, {"type": "Feature", "geometry": {"type": "Point", "coordinates": [-89.3514805, 44.7755846]}, "properties": {"name": "Crossways Lutheran Camping Ministries", "tourism": "camp_site", "type": "multipolygon", "osm_id": 9627634}}, {"type": "Feature", "geometry": {"type": "Point", "coordinates": [-85.5727814, 43.2143198]}, "properties": {"addr:city": "Cedar Springs", "addr:housenumber": "13677", "addr:postcode": "49319", "addr:street": "White Creek Avenue", "gnis:feature_id": "2566762", "name": "Lakeside Camp Park", "phone": "+1-616-696-1735", "tourism": "caravan_site", "type": "multipolygon", "website": "http://www.lakesidecamppark.com/", "osm_id": 9729198}}, {"type": "Feature", "geometry": {"type": "Point", "coordinates": [-89.8017028, 43.6811407]}, "properties": {"fee": "yes", "name": "Holiday Shores Campground & Resort", "tourism": "camp_site", "type": "multipolygon", "osm_id": 9762568}}, {"type": "Feature", "geometry": {"type": "Point", "coordinates": [-88.3965068, 45.1804737]}, "properties": {"name": "Bear Paw Scout Camp", "tourism": "camp_site", "type": "multipolygon", "osm_id": 10111220}}, {"type": "Feature", "geometry": {"type": "Point", "coordinates": [-90.2189061, 45.3596995]}, "properties": {"addr:city": "Westboro", "addr:housenumber": "N8890", "addr:postcode": "54490", "addr:state": "WI", "addr:street": "Forest Lane", "name": "Forest Springs Camp & Conference Center", "tourism": "camp_site", "type": "multipolygon", "website": "https://forestsprings.us", "osm_id": 10153085}}, {"type": "Feature", "geometry": {"type": "Point", "coordinates": [-88.8989078, 45.1215027]}, "properties": {"addr:city": "Elton", "addr:housenumber": "N2674", "addr:postcode": "54430", "addr:state": "WI", "addr:street": "Blackhawk Road", "name": "Camp Black Hawk", "operator": "Girl Scouts of Wisconsin - Badgerland Council", "tourism": "camp_site", "type": "multipolygon", "osm_id": 10409841}}, {"type": "Feature", "geometry": {"type": "Point", "coordinates": [-89.1784796, 44.2956358]}, "properties": {"addr:city": "Waupaca", "addr:housenumber": "E989", "addr:postcode": "54981", "addr:state": "WI", "addr:street": "Stratton Lake Road", "name": "Camp Young Judea Midwest", "religion": "jewish", "tourism": "camp_site", "type": "multipolygon", "website": "https://www.cyjmid.org/", "osm_id": 10441721}}, {"type": "Feature", "geometry": {"type": "Point", "coordinates": [-89.3148018, 44.4886669]}, "properties": {"addr:city": "Nelsonville", "addr:housenumber": "9289", "addr:postcode": "54458", "addr:state": "WI", "addr:street": "Pavlevski Road", "name": "YMCA Camp Glacier Hollow", "tourism": "camp_site", "type": "multipolygon", "website": "https://www.glacierhollow.com/", "osm_id": 10442051}}, {"type": "Feature", "geometry": {"type": "Point", "coordinates": [-88.5523347, 42.7946107]}, "properties": {"addr:city": "East Troy", "addr:housenumber": "W5091", "addr:postcode": "53120", "addr:state": "WI", "addr:street": "State Highway 20", "name": "Camp Juniper Knoll", "operator": "Girl Scouts of Greater Chicago and Northwest Indiana", "tourism": "camp_site", "type": "multipolygon", "osm_id": 10481013}}, {"type": "Feature", "geometry": {"type": "Point", "coordinates": [-88.5576502, 42.7777086]}, "properties": {"access": "customers", "caravans": "no", "contact:facebook": "https://www.facebook.com/Lutherdale1944/", "contact:website": "https://www.lutherdale.org/", "contact:youtube": "https://www.youtube.com/user/lutherdale1944", "denomination": "lutheran", "fee": "yes", "name": "Lutherdale Ministries", "phone": "+1-262-742-2352", "religion": "christian", "static_caravans": "no", "tents": "no", "tourism": "camp_site", "type": "multipolygon", "osm_id": 10481015}}, {"type": "Feature", "geometry": {"type": "Point", "coordinates": [-88.5437251, 42.7821228]}, "properties": {"addr:city": "East Troy", "addr:housenumber": "N8005", "addr:postcode": "53120", "addr:state": "WI", "addr:street": "Pleasant Lake Road", "name": "Camp Pottawatomie Hills", "operator": "Girl Scouts of Wisconsin Southeast", "tourism": "camp_site", "type": "multipolygon", "osm_id": 10481016}}, {"type": "Feature", "geometry": {"type": "Point", "coordinates": [-88.6416373, 42.587925]}, "properties": {"addr:city": "Delavan", "addr:housenumber": "3300", "addr:postcode": "53115", "addr:state": "WI", "addr:street": "Bay Road", "name": "House in the Wood", "operator": "Northwestern Settlement", "tourism": "camp_site", "type": "multipolygon", "osm_id": 10484035}}, {"type": "Feature", "geometry": {"type": "Point", "coordinates": [-88.4244677, 42.8058915]}, "properties": {"addr:city": "East Troy", "addr:housenumber": "N8651", "addr:state": "WI", "addr:street": "Townline Road", "name": "Camp Alice Chester", "tourism": "camp_site", "type": "multipolygon", "osm_id": 10484437}}, {"type": "Feature", "geometry": {"type": "Point", "coordinates": [-88.3782001, 42.8167928]}, "properties": {"addr:city": "East Troy", "addr:housenumber": "N8901", "addr:postcode": "53120", "addr:state": "WI", "addr:street": "Army Lake Road", "alt_name": "Camp Edwards", "name": "Edwards YMCA Camp and Retreat Center", "tourism": "camp_site", "type": "multipolygon", "osm_id": 10484529}}, {"type": "Feature", "geometry": {"type": "Point", "coordinates": [-88.400401, 42.8157679]}, "properties": {"name": "Camp Charles Allis", "tourism": "camp_site", "type": "multipolygon", "osm_id": 10484558}}, {"type": "Feature", "geometry": {"type": "Point", "coordinates": [-88.5052774, 43.0734489]}, "properties": {"name": "Indian Mound Scout Reservation", "operator": "Three Harbors Council, Boy Scouts of America", "tourism": "camp_site", "type": "multipolygon", "osm_id": 10541852}}, {"type": "Feature", "geometry": {"type": "Point", "coordinates": [-88.5425462, 43.1408091]}, "properties": {"access": "private", "addr:city": "Lac La Belle", "addr:housenumber": "600", "addr:postcode": "53066", "addr:state": "WI", "addr:street": "Lac La Belle Drive", "leisure": "summer_camp", "name": "URJ Olin-Sang-Ruby Union Institute", "tourism": "camp_site", "type": "multipolygon", "website": "https://osrui.org/", "wikidata": "Q65120840", "wikipedia": "en:Olin Sang Ruby Union Institute", "osm_id": 10542071}}, {"type": "Feature", "geometry": {"type": "Point", "coordinates": [-88.323843, 43.1758019]}, "properties": {"addr:city": "Hartland", "addr:housenumber": "W294 N8436", "addr:state": "WI", "addr:street": "Camp Whitcomb Road", "name": "Camp Whitcomb/Mason", "operator": "Boys & Girls Clubs of Greater Milwaukee", "tourism": "camp_site", "type": "multipolygon", "osm_id": 10552523}}, {"type": "Feature", "geometry": {"type": "Point", "coordinates": [-89.2083125, 44.0514889]}, "properties": {"addr:city": "Wautoma", "addr:housenumber": "N1875", "addr:state": "WI", "addr:street": "21st Avenue", "name": "Camp Lakotah", "tourism": "camp_site", "type": "multipolygon", "website": "https://www.camplakotah.com/", "osm_id": 10563534}}, {"type": "Feature", "geometry": {"type": "Point", "coordinates": [-89.5201326, 45.5928289]}, "properties": {"addr:city": "Rhinelander", "addr:housenumber": "2750", "addr:postcode": "54501", "addr:state": "WI", "addr:street": "Bible Camp Road", "name": "Crescent Lake Bible Camp", "religion": "christian", "tourism": "camp_site", "type": "multipolygon", "website": "http://crescentlake.camp/", "osm_id": 10571810}}, {"type": "Feature", "geometry": {"type": "Point", "coordinates": [-88.9213802, 43.0671773]}, "properties": {"name": "Woodland Beach Resort", "tourism": "camp_site", "type": "multipolygon", "osm_id": 10660075}}, {"type": "Feature", "geometry": {"type": "Point", "coordinates": [-88.9225104, 43.0629027]}, "properties": {"name": "Topel's Lakeside Park", "tourism": "camp_site", "type": "multipolygon", "osm_id": 10660131}}, {"type": "Feature", "geometry": {"type": "Point", "coordinates": [-89.8485754, 43.7456181]}, "properties": {"addr:city": "Lyndon Station", "addr:housenumber": "N2884", "addr:postcode": "53944", "addr:state": "WI", "addr:street": "North 28th Avenue", "name": "Crockett's Resort", "operator": "Ho Chunk Nation", "tourism": "camp_site", "type": "multipolygon", "osm_id": 10664784}}, {"type": "Feature", "geometry": {"type": "Point", "coordinates": [-88.9895653, 42.9971387]}, "properties": {"addr:city": "Cambridge", "addr:housenumber": "N4189", "addr:state": "WI", "addr:street": "Island Lane", "name": "Hoard and Curtis Scout Camp", "tourism": "camp_site", "type": "multipolygon", "osm_id": 10736980}}, {"type": "Feature", "geometry": {"type": "Point", "coordinates": [-89.8236412, 44.3381033]}, "properties": {"addr:city": "Wisconsin Rapids", "addr:housenumber": "1053", "addr:postcode": "54494", "addr:state": "WI", "addr:street": "Camp Road", "name": "YMCA Camp Alexander", "operator": "South Wood County YMCA", "tourism": "camp_site", "type": "multipolygon", "osm_id": 10831070}}, {"type": "Feature", "geometry": {"type": "Point", "coordinates": [-89.3366341, 43.8145961]}, "properties": {"addr:city": "Montello", "addr:housenumber": "N4855", "addr:postcode": "53949", "addr:state": "WI", "addr:street": "County Road Y", "denomination": "free_methodist", "name": "Sky Lodge Christian Camp", "phone": "+1-608-297-2566", "religion": "christian", "tourism": "camp_site", "type": "multipolygon", "website": "https://www.skylodge.org/", "osm_id": 10856293}}, {"type": "Feature", "geometry": {"type": "Point", "coordinates": [-89.3789555, 44.0865556]}, "properties": {"name": "Camp Phillip", "tourism": "camp_site", "type": "multipolygon", "osm_id": 10865766}}, {"type": "Feature", "geometry": {"type": "Point", "coordinates": [-89.1671657, 45.8221648]}, "properties": {"name": "Camp Luther", "tourism": "camp_site", "type": "multipolygon", "osm_id": 10899783}}, {"type": "Feature", "geometry": {"type": "Point", "coordinates": [-84.3080979, 46.488643]}, "properties": {"addr:city": "Sault Saint Marie", "addr:housenumber": "1225", "addr:postcode": "49783", "addr:street": "Riverside Drive", "capacity": "100", "internet_access": "yes", "internet_access:fee": "no", "name": "Aune-Osborn Campground", "power_supply": "yes", "sanitary_dump_station": "no", "smoking": "no", "tents": "no", "tourism": "caravan_site", "type": "multipolygon", "website": "https://www.saultcity.com/aune-osborn-campground", "osm_id": 11083441}}, {"type": "Feature", "geometry": {"type": "Point", "coordinates": [-89.6506855, 45.8917505]}, "properties": {"name": "Madeline Lake Resort", "tourism": "caravan_site", "type": "multipolygon", "osm_id": 11168665}}, {"type": "Feature", "geometry": {"type": "Point", "coordinates": [-90.0575317, 46.167284]}, "properties": {"access": "customers", "addr:city": "Mercer", "addr:housenumber": "2580", "addr:postcode": "54547", "addr:state": "WI", "addr:street": "Margaret Street", "charge": "24 USD", "contact:website": "http://loonlagoon.org/", "fee": "yes", "name": "Loon Lagoon Campground and R.V. Park", "power_supply": "yes", "sanitary_dump_station": "yes", "tents": "yes", "tourism": "caravan_site", "type": "multipolygon", "osm_id": 11176542}}, {"type": "Feature", "geometry": {"type": "Point", "coordinates": [-88.0455309, 43.5187579]}, "properties": {"addr:city": "Fredonia", "addr:housenumber": "9009", "addr:state": "WI", "addr:street": "Camp Awana Road", "name": "Camp Awana", "tourism": "camp_site", "type": "multipolygon", "osm_id": 11300345}}, {"type": "Feature", "geometry": {"type": "Point", "coordinates": [-88.1110279, 43.4593832]}, "properties": {"name": "Lazy Days Campground", "tourism": "camp_site", "type": "multipolygon", "osm_id": 11341380}}, {"type": "Feature", "geometry": {"type": "Point", "coordinates": [-89.5187173, 43.3918461]}, "properties": {"name": "Lake Wisconsin Campground", "tourism": "camp_site", "type": "multipolygon", "osm_id": 11341752}}, {"type": "Feature", "geometry": {"type": "Point", "coordinates": [-88.1896167, 43.2211518]}, "properties": {"addr:city": "Hubertus", "addr:housenumber": "875", "addr:postcode": "53033", "addr:state": "WI", "addr:street": "Amy Belle Lane", "name": "YMCA Camp Minikani", "operator": "YMCA of Metropolitian Milwaukee", "owner": "YMCA of Metropolitian Milwaukee", "tourism": "camp_site", "type": "multipolygon", "website": "https://www.minikani.org/", "osm_id": 11488553}}, {"type": "Feature", "geometry": {"type": "Point", "coordinates": [-88.4382608, 45.1157538]}, "properties": {"access": "customers", "addr:city": "Suring", "addr:housenumber": "12101", "addr:postcode": "54174", "addr:state": "WI", "addr:street": "Y Camp Road", "name": "Camp U-Nah-Li-Ya", "tourism": "camp_site", "type": "multipolygon", "osm_id": 11491679}}, {"type": "Feature", "geometry": {"type": "Point", "coordinates": [-89.2672653, 45.6438554]}, "properties": {"name": "Camp Deerhorn", "tourism": "camp_site", "type": "multipolygon", "osm_id": 11506153}}, {"type": "Feature", "geometry": {"type": "Point", "coordinates": [-89.1507333, 45.9098045]}, "properties": {"addr:city": "Eagle River", "addr:housenumber": "3165", "addr:postcode": "54521", "addr:state": "WI", "addr:street": "Campground Road", "brand": "KOA", "brand:wikidata": "Q16988635", "name": "Chain O\u2019 Lakes Resort & Campground", "operator": "KOA", "short_name": "KOA", "tourism": "caravan_site", "type": "multipolygon", "osm_id": 11593727}}, {"type": "Feature", "geometry": {"type": "Point", "coordinates": [-89.5199336, 45.9256212]}, "properties": {"fee": "yes", "internet_access": "yes", "internet_access:fee": "yes", "name": "Lynn Anne's Campground", "tourism": "camp_site", "type": "multipolygon", "osm_id": 11695479}}, {"type": "Feature", "geometry": {"type": "Point", "coordinates": [-89.428015, 45.9193222]}, "properties": {"addr:city": "St. Germain", "addr:housenumber": "1467", "addr:postcode": "54558", "addr:state": "WI", "addr:street": "Moon Beach Road", "name": "Moon Beach", "operator": "United Church Camps", "tourism": "camp_site", "type": "multipolygon", "osm_id": 11696745}}, {"type": "Feature", "geometry": {"type": "Point", "coordinates": [-89.27671, 45.6645038]}, "properties": {"name": "Camp Horsehoe", "tourism": "camp_site", "type": "multipolygon", "website": "https://www.camphorseshoe.com/", "osm_id": 11948952}}, {"type": "Feature", "geometry": {"type": "Point", "coordinates": [-89.6426624, 45.8420108]}, "properties": {"access": "customers", "name": "Indian Shores Camping and Cottage Resort", "tourism": "camp_site", "type": "multipolygon", "website": "https://www.indian-shores.com/", "osm_id": 11959441}}, {"type": "Feature", "geometry": {"type": "Point", "coordinates": [-89.8088448, 43.580779]}, "properties": {"name": "Camp Delton Club", "tourism": "camp_site", "type": "multipolygon", "osm_id": 12322385}}, {"type": "Feature", "geometry": {"type": "Point", "coordinates": [-89.8000709, 43.5766598]}, "properties": {"addr:city": "Baraboo", "addr:housenumber": "S1915", "addr:postcode": "53913", "addr:state": "WI", "addr:street": "Ishnala Road", "brand": "Yogi Bear's Jellystone Park", "brand:wikidata": "Q8054389", "name": "Yogi Bear's Jellystone Park", "official_name": "Yogi Bear's Jellystone Park Camp-Resorts", "phone": "+1-800-462-9644", "source": "Yogi Bear's Jellystone Campground", "tourism": "caravan_site", "type": "multipolygon", "website": "https://dellsjellystone.com/", "wikipedia": "en:Yogi Bear's Jellystone Park Camp-Resorts", "osm_id": 12332012}}, {"type": "Feature", "geometry": {"type": "Point", "coordinates": [-86.7045752, 46.439031]}, "properties": {"addr:city": "Christmas", "addr:housenumber": "7793", "addr:postcode": "49862", "addr:state": "MI", "addr:street": "Scrooge's Alley", "backcountry": "no", "caravans": "no", "fee": "yes", "group_only": "no", "name": "Paddler's Village", "operator": "Uncle Ducky Outdoors LLC", "tents": "yes", "tourism": "camp_site", "type": "multipolygon", "website": "https://www.paddlingmichigan.com/lodging/paddlers-village/", "osm_id": 12752173}}, {"type": "Feature", "geometry": {"type": "Point", "coordinates": [-84.4649798, 45.5180998]}, "properties": {"addr:city": "Cheboygan", "addr:housenumber": "4347", "addr:postcode": "49721", "addr:state": "MI", "addr:street": "Third Street", "name": "Aloha State Park Campground", "phone": "+1-231-625-2522", "tourism": "camp_site", "type": "multipolygon", "website": "https://www2.dnr.state.mi.us/parksandtrails/details.aspx?id=434&type=SPRK", "osm_id": 13348217}}, {"type": "Feature", "geometry": {"type": "Point", "coordinates": [-89.8580373, 46.0311784]}, "properties": {"access": "private", "addr:city": "Lac du Flambeau", "addr:housenumber": "13400", "addr:postcode": "54538", "addr:state": "WI", "addr:street": "Camp Nawakwa Lane", "fee": "yes", "name": "YMCA Family Camp Nawakwa", "operator": "YMCA of Metro Chicago", "tourism": "camp_site", "type": "multipolygon", "website": "https://www.ymcachicago.org/nawakwa/", "osm_id": 13592936}}, {"type": "Feature", "geometry": {"type": "Point", "coordinates": [-88.9723371, 45.3691546]}, "properties": {"access": "private", "addr:city": "Pearson", "addr:housenumber": "W6500", "addr:postcode": "54462", "addr:state": "WI", "addr:street": "Spring Lake Road", "boundary": "protected_area", "caravans": "no", "description": "For Scout groups and invited guests only.  Please go to www.Makajawan.com or www.neic.org to learn more.", "group_only": "yes", "leisure": "nature_reserve", "name": "Ma-Ka-Ja-Wan Scout Reservation", "operator": "Northeast Illinois Council, BSA", "owner": "Northeast Illinois Council, Boy Scouts of America", "scout": "yes", "static_caravans": "no", "tents": "no", "tourism": "camp_site", "type": "multipolygon", "website": "https://makajawan.com/", "wikidata": "Q106613389", "osm_id": 13899901}}, {"type": "Feature", "geometry": {"type": "Point", "coordinates": [-87.8162823, 45.4180391]}, "properties": {"ele": "215", "gnis:feature_id": "2099841", "leisure": "park", "name": "Shakey Lakes County Park", "operator": "Menominee County", "tourism": "camp_site", "type": "multipolygon", "website": "https://www.menomineecounty.com/departments/?department=0bcae89629ee&subdepartment=76254c404220", "wikidata": "Q49560294", "osm_id": 13933473}}, {"type": "Feature", "geometry": {"type": "Point", "coordinates": [-89.9131369, 45.9699859]}, "properties": {"caravans": "yes", "drinking_water": "yes", "fee": "yes", "name": "Lac du Flambeau Tribal Campground", "operator": "Lac du Flambeau Band of Lake Superior Chippewa Indians", "reservation": "yes", "shower": "yes", "source": "Local knowledge", "tents": "yes", "toilets": "yes", "tourism": "camp_site", "type": "multipolygon", "osm_id": 14033249}}, {"type": "Feature", "geometry": {"type": "Point", "coordinates": [-88.5172717, 44.2513051]}, "properties": {"description": "Campground open during EAA Airventure.", "fee": "yes", "internet_access": "yes", "name": "Camp Flying Fox", "operator": "Appleton International Airport", "start_date": "July, 2017", "tourism": "camp_site", "type": "multipolygon", "website": "https://www.platinumflightcenter.com/camping-at-atw/", "osm_id": 14260050}}, {"type": "Feature", "geometry": {"type": "Point", "coordinates": [-86.5788506, 41.9416417]}, "properties": {"gnis:feature_id": "2377551", "name": "Weko Beach Campground", "tents": "yes", "tourism": "camp_site", "type": "multipolygon", "website": "http://www.bridgman.org/?page_id=547", "osm_id": 14462036}}, {"type": "Feature", "geometry": {"type": "Point", "coordinates": [-82.6781481, 41.807738]}, "properties": {"addr:housenumber": "11", "addr:street": "West Shore Road", "caravans": "yes", "name": "The Main Station RV Park", "tourism": "camp_site", "type": "multipolygon", "osm_id": 14474956}}, {"type": "Feature", "geometry": {"type": "Point", "coordinates": [-86.3332578, 41.9527328]}, "properties": {"ele": "188", "gnis:feature_id": "2377610", "leisure": "park", "name": "Shamrock Park", "name:fa": "\u067e\u0627\u0631\u06a9 \u0634\u0645\u0631\u0648\u06a9", "operator": "Village of Berrien Springs", "operator:wikidata": "Q2207190", "tourism": "caravan_site", "type": "multipolygon", "wikidata": "Q49560333", "osm_id": 14610884}}, {"type": "Feature", "geometry": {"type": "Point", "coordinates": [-84.2449049, 42.2041295]}, "properties": {"boundary": "landuse", "group_only": "yes", "name": "Sassafras", "tourism": "camp_site", "type": "boundary", "osm_id": 14618728}}, {"type": "Feature", "geometry": {"type": "Point", "coordinates": [-82.4448791, 42.0881708]}, "properties": {"name": "Boosey Creek Campground", "tourism": "camp_site", "type": "multipolygon", "osm_id": 15259862}}, {"type": "Feature", "geometry": {"type": "Point", "coordinates": [-82.4514392, 42.0888805]}, "properties": {"name": "Highlands Campground", "tourism": "camp_site", "type": "multipolygon", "osm_id": 15259863}}, {"type": "Feature", "geometry": {"type": "Point", "coordinates": [-82.4494965, 42.0870224]}, "properties": {"name": "Middle Creek Campground", "tourism": "camp_site", "type": "multipolygon", "osm_id": 15259864}}, {"type": "Feature", "geometry": {"type": "Point", "coordinates": [-82.4483156, 42.0848434]}, "properties": {"name": "Two Creeks Campground", "tourism": "camp_site", "type": "multipolygon", "osm_id": 15259865}}, {"type": "Feature", "geometry": {"type": "Point", "coordinates": [-82.4094878, 42.4760058]}, "properties": {"name": "Mitchell's Bay Marine Park Campground", "source": "NRCan-CanVec-10.0", "tourism": "camp_site", "type": "multipolygon", "osm_id": 15466975}}, {"type": "Feature", "geometry": {"type": "Point", "coordinates": [-90.1736583, 42.0560972]}, "properties": {"access": "yes", "addr:city": "Sabula", "addr:housenumber": "1516", "addr:postcode": "52070", "addr:state": "IA", "addr:street": "South Avenue", "capacity": "39", "charge": "22 USD", "check_date": "2025-10-04", "ele": "180", "fee": "yes", "gnis:feature_id": "463871", "leisure": "park", "name": "South Sabula Lake Park", "opening_hours": "Mo-Su 06:30-22:00", "operator": "Jackson County Conservation", "operator:type": "public", "operator:wikidata": "Q110064391", "phone": "+1-563-652-3783", "reservation": "yes", "sanitary_dump_station": "yes", "shower": "yes", "toilets": "yes", "tourism": "camp_site", "type": "multipolygon", "website": "https://www.mycountyparks.com/County/Jackson/Park/South-Sabula-Lake-Park", "osm_id": 15916047}}, {"type": "Feature", "geometry": {"type": "Point", "coordinates": [-84.8313818, 43.0604303]}, "properties": {"addr:city": "Pewamo", "addr:housenumber": "15420", "addr:postcode": "48873", "addr:state": "MI", "addr:street": "French Road", "gnis:feature_id": "2573879", "name": "Maple River Campground", "opening_hours": "May-Nov", "phone": "+1-989-981-6792", "tents": "yes", "tourism": "caravan_site", "type": "multipolygon", "website": "https://www.maplerivercampground.com/", "osm_id": 16058608}}, {"type": "Feature", "geometry": {"type": "Point", "coordinates": [-86.3660569, 41.6990395]}, "properties": {"name": "Camp Ray Bird", "tourism": "camp_site", "type": "multipolygon", "website": "https://www.raybird.org", "osm_id": 16323129}}, {"type": "Feature", "geometry": {"type": "Point", "coordinates": [-89.1301102, 45.930626]}, "properties": {"access": "private", "addr:city": "Eagle River", "addr:housenumber": "1767", "addr:postcode": "54521", "addr:state": "WI", "addr:street": "East Bass Lake Road", "fee": "yes", "name": "Camp Balsams", "operator": "Middleton Community United Church of Christ", "tourism": "camp_site", "type": "multipolygon", "osm_id": 16519433}}, {"type": "Feature", "geometry": {"type": "Point", "coordinates": [-85.7536281, 46.6666441]}, "properties": {"access": "yes", "camp_site": "standard", "capacity:tents": "31", "caravans": "yes", "county": "Luce", "description": "Tents and small camping trailers", "fee": "yes", "midnr:park_id": "670", "name": "Blind Sucker No. 2 State Forest Campground", "operator": "Michigan Department of Natural Resources", "source": "Michigan DNR", "static_caravans": "no", "tents": "yes", "tourism": "camp_site", "type": "multipolygon", "website": "https://www.michigandnr.com/parksandtrails/Details.aspx?id=670&type=SFCG", "osm_id": 16707511}}, {"type": "Feature", "geometry": {"type": "Point", "coordinates": [-85.2652013, 43.0485874]}, "properties": {"addr:city": "Belding", "addr:housenumber": "4424N", "addr:postcode": "48809", "addr:street": "Whites Bridge Road", "name": "Double R Ranch", "phone": "+1 616 794 0520", "tourism": "caravan_site", "type": "multipolygon", "website": "https://www.doublerranch.com/", "osm_id": 16775219}}, {"type": "Feature", "geometry": {"type": "Point", "coordinates": [-84.570686, 44.1418048]}, "properties": {"gnis:feature_id": "2515982", "name": "House Lake State Forest Campground", "operator": "Michigan Department of Natural Resources", "ownership": "state", "phone": "+1-989-539-3021", "tourism": "camp_site", "type": "multipolygon", "website": "https://www2.dnr.state.mi.us/parksandtrails/Details.aspx?id=574&type=SFCG", "osm_id": 16791184}}, {"type": "Feature", "geometry": {"type": "Point", "coordinates": [-84.5654377, 44.1349487]}, "properties": {"capacity:tents": "35", "caravans": "no", "gnis:feature_id": "2515981", "name": "Trout Lake State Forest Campground", "operator": "Michigan Department of Natural Resources", "ownership": "state", "phone": "+1-989-539-3021", "tents": "yes", "tourism": "camp_site", "type": "multipolygon", "website": "https://www2.dnr.state.mi.us/parksandtrails/Details.aspx?id=575&type=SFCG", "osm_id": 16794289}}, {"type": "Feature", "geometry": {"type": "Point", "coordinates": [-85.0268298, 41.9975321]}, "properties": {"addr:city": "Coldwater", "addr:housenumber": "790", "addr:postcode": "49036", "addr:state": "MI", "addr:street": "North Union City Road", "gnis:feature_id": "2435235", "name": "Waffle Farm Campgrounds", "phone": "+1-517-278-4315", "tents": "yes", "tourism": "caravan_site", "type": "multipolygon", "website": "https://www.wafflefarm.com/", "osm_id": 16855501}}, {"type": "Feature", "geometry": {"type": "Point", "coordinates": [-83.8556999, 42.7462429]}, "properties": {"name": "Hidden Park Campground", "tourism": "camp_site", "type": "multipolygon", "osm_id": 16928130}}, {"type": "Feature", "geometry": {"type": "Point", "coordinates": [-84.2169195, 42.0788216]}, "properties": {"addr:city": "Brooklyn", "addr:housenumber": "1124", "addr:postcode": "49230", "addr:street": "Ventura Drive", "alt_name": "Camp De Sales", "gnis:feature_id": "622562", "leisure": "resort", "name": "De Sales Center", "operator": "Oblate Fathers of St. Francis", "operator:type": "religious", "resort": "kids_camp", "tourism": "camp_site", "type": "multipolygon", "website": "https://www.desales.org/", "osm_id": 16928251}}, {"type": "Feature", "geometry": {"type": "Point", "coordinates": [-84.1849026, 44.4024534]}, "properties": {"addr:city": "Rose City", "addr:housenumber": "2374", "addr:postcode": "48654", "addr:state": "MI", "addr:street": "Lentz Road", "email": "info@ogemawsport.com", "fee": "yes", "name": "Ogemaw Sport and Trail Center \u2013 Motocross and ATV Campground", "phone": "+1-989-685-2999", "tourism": "camp_site", "type": "multipolygon", "website": "https://ogemawsport.com/", "osm_id": 17318448}}, {"type": "Feature", "geometry": {"type": "Point", "coordinates": [-85.7915164, 46.1757822]}, "properties": {"access": "yes", "capacity:tents": "30", "charge": "20 USD", "county": "Mackinac", "drinking_water": "yes", "fee": "yes", "gnis:feature_id": "638383", "midnr:park_id": "685", "name": "South Manistique Lake State Forest Campground", "operator": "Michigan Department of Natural Resources", "payment:cash": "yes", "payment:cheque": "yes", "phone": "+1-906-492-3415", "source": "Michigan DNR", "tents": "yes", "tourism": "camp_site", "type": "multipolygon", "website": "https://www.michigandnr.com/parksandtrails/Details.aspx?id=685&type=SFCG", "osm_id": 17332583}}, {"type": "Feature", "geometry": {"type": "Point", "coordinates": [-89.08309, 46.26727]}, "properties": {"access": "yes", "capacity:caravans": "39", "caravans": "yes", "charge": "16 USD", "drinking_water": "yes", "fee": "yes", "gnis:feature_id": "1622294", "name": "Marion Lake Campground", "operator": "Northwoods Property Management", "owner": "United States Forest Service", "payment:cash": "yes", "payment:cheque": "yes", "phone": "+1-906-396-5428", "tents": "yes", "tourism": "camp_site", "type": "multipolygon", "website": "https://www.fs.usda.gov/recarea/ottawa/recreation/camping-cabins/recarea/?recid=12334&actid=29", "osm_id": 17342645}}, {"type": "Feature", "geometry": {"type": "Point", "coordinates": [-89.0743786, 46.219145]}, "properties": {"access": "yes", "capacity:caravans": "22", "caravans": "yes", "charge": "16 USD", "drinking_water": "yes", "fee": "yes", "gnis:feature_id": "1622347", "name": "Imp Lake Campground", "operator": "Northwoods Property Management", "owner": "United States Forest Service", "payment:cash": "yes", "payment:cheque": "yes", "phone": "+1-906-396-5428", "tourism": "camp_site", "type": "multipolygon", "website": "https://www.fs.usda.gov/recarea/ottawa/recreation/camping-cabins/recarea/?recid=12333&actid=29", "osm_id": 17342739}}, {"type": "Feature", "geometry": {"type": "Point", "coordinates": [-86.0432852, 43.5734343]}, "properties": {"access": "customers", "addr:city": "Hesperia", "addr:housenumber": "155", "addr:postcode": "49421", "addr:state": "MI", "addr:street": "West Michigan Avenue", "email": "riverrockcampgroundmi@gmail.com", "name": "River Rock Campground", "operator": "River Rock Campground LLC", "phone": "+1-989-402-3025", "tourism": "caravan_site", "type": "multipolygon", "osm_id": 17370091}}, {"type": "Feature", "geometry": {"type": "Point", "coordinates": [-83.9649439, 44.0789487]}, "properties": {"addr:city": "Omer", "addr:housenumber": "133", "addr:postcode": "48749", "addr:state": "MI", "addr:street": "Grove Road", "gnis:feature_id": "2515068", "name": "Crystal Creek Campground", "phone": "+1-989-653-2644", "tourism": "camp_site", "type": "multipolygon", "website": "https://www.russellcanoe.com/", "osm_id": 17372302}}, {"type": "Feature", "geometry": {"type": "Point", "coordinates": [-83.8549693, 44.0506939]}, "properties": {"addr:city": "Omer", "addr:housenumber": "146", "addr:postcode": "48749", "addr:state": "MI", "addr:street": "Carrington Street", "gnis:feature_id": "2515064", "name": "Russell Canoes and Campgrounds", "phone": "+1-989-653-2644", "tourism": "camp_site", "type": "multipolygon", "website": "https://www.russellcanoe.com/", "osm_id": 17372360}}, {"type": "Feature", "geometry": {"type": "Point", "coordinates": [-86.2450854, 42.2075557]}, "properties": {"addr:city": "Watervliet", "addr:housenumber": "5355", "addr:postcode": "49098", "addr:state": "MI", "addr:street": "M-140", "gnis:feature_id": "2377456", "name": "Paw Paw River Campgrounds", "phone": "+1-269-463-5454", "tourism": "camp_site", "type": "multipolygon", "website": "https://pawpawrivercampgroundandcanoes.com/", "osm_id": 17405942}}, {"type": "Feature", "geometry": {"type": "Point", "coordinates": [-86.4775934, 43.6720777]}, "properties": {"addr:city": "Mears", "addr:housenumber": "1441", "addr:postcode": "49436", "addr:state": "MI", "addr:street": "North 34th Avenue", "gnis:feature_id": "2515824", "name": "Silver Creek RV Resort", "phone": "+1-231-873-9200", "tourism": "caravan_site", "type": "multipolygon", "osm_id": 17414397}}, {"type": "Feature", "geometry": {"type": "Point", "coordinates": [-84.0502424, 42.8895097]}, "properties": {"addr:city": "Bancroft", "addr:housenumber": "5721", "addr:postcode": "48414", "addr:state": "MI", "addr:street": "Exchange Road", "group_only": "yes", "leisure": "summer_camp", "name": "Camp Shiawassee", "operator": "YMCA", "tourism": "camp_site", "type": "multipolygon", "website": "https://www.shiawasseeymca.org/camp-shiawassee.html", "osm_id": 17422295}}, {"type": "Feature", "geometry": {"type": "Point", "coordinates": [-84.1661308, 45.2311468]}, "properties": {"capacity:caravans": "25", "caravans": "yes", "charge": "20 USD", "drinking_water": "yes", "fee": "yes", "gnis:feature_id": "2374315", "name": "Tomahawk Lake State Forest Campground", "operator": "Michigan Department of Natural Resources", "payment:cash": "yes", "payment:cheque": "yes", "phone": "+1-989-733-8279", "tourism": "camp_site", "type": "multipolygon", "website": "https://www2.dnr.state.mi.us/parksandtrails/Details.aspx?id=630&type=SFCG", "osm_id": 17520882}}, {"type": "Feature", "geometry": {"type": "Point", "coordinates": [-82.5741628, 43.5121828]}, "properties": {"access": "yes", "addr:city": "Carsonville", "addr:housenumber": "2820", "addr:postcode": "48419", "addr:state": "MI", "addr:street": "North Lakeshore Road", "ele": "178", "email": "forestrv@hotmail.com", "gnis:feature_id": "1618420", "leisure": "park", "name": "Forester Park", "operator": "Sanilac County", "operator:type": "public", "operator:wikidata": "Q82510", "phone": "+1-810-622-8715", "tourism": "camp_site", "type": "multipolygon", "website": "http://www.sanilaccountyparks.com/forester-park/#", "wikidata": "Q49557608", "osm_id": 17533631}}, {"type": "Feature", "geometry": {"type": "Point", "coordinates": [-86.2266102, 43.3177201]}, "properties": {"addr:city": "Muskegon", "addr:housenumber": "3500", "addr:postcode": "49445", "addr:state": "MI", "addr:street": "Strand Road", "gnis:feature_id": "2571873", "name": "Muskegon KOA Campground", "phone": "+1-231-766-3900", "tents": "yes", "tourism": "caravan_site", "type": "multipolygon", "website": "https://koa.com/campgrounds/muskegon/", "osm_id": 17597473}}, {"type": "Feature", "geometry": {"type": "Point", "coordinates": [-87.33522, 45.7006758]}, "properties": {"name": "Island Resort and Casino RV Park", "phone": "+1-877-475-7375", "tourism": "caravan_site", "type": "multipolygon", "website": "https://www.islandresortandcasino.com/hotel/rv-park", "osm_id": 17687674}}, {"type": "Feature", "geometry": {"type": "Point", "coordinates": [-86.5363428, 41.7102614]}, "properties": {"name": "Lakeside RV Resort", "tourism": "caravan_site", "type": "multipolygon", "osm_id": 17823527}}, {"type": "Feature", "geometry": {"type": "Point", "coordinates": [-87.9960836, 43.7930127]}, "properties": {"name": "Camping Zone 4 West", "tourism": "camp_site", "type": "multipolygon", "osm_id": 17976892}}, {"type": "Feature", "geometry": {"type": "Point", "coordinates": [-85.1564496, 43.8037773]}, "properties": {"access": "yes", "capacity:caravans": "146", "caravans": "yes", "email": "MerrillLake@MecostaCountyParks.com", "name": "Merrill-Gorrel County Park Campground", "operator": "Mecosta County", "phone": "+1-989-382-7158", "tourism": "camp_site", "type": "multipolygon", "website": "https://www.mecostacountyparks.com/merrill-gorrel-campground.html", "osm_id": 18063448}}, {"type": "Feature", "geometry": {"type": "Point", "coordinates": [-82.5311045, 42.5918982]}, "properties": {"addr:housenumber": "1288", "addr:street": "River Road", "name": "Chematogen Camp", "tourism": "caravan_site", "type": "multipolygon", "osm_id": 18182526}}, {"type": "Feature", "geometry": {"type": "Point", "coordinates": [-82.6182998, 43.7738013]}, "properties": {"access": "yes", "addr:city": "Harbor Beach", "addr:housenumber": "2671", "addr:postcode": "48441", "addr:state": "MI", "addr:street": "South Lakeshore Road", "cabins": "yes", "capacity:caravans": "101", "capacity:tents": "4", "caravans": "yes", "fee": "yes", "name": "Wagener County Park Campground", "operator": "Huron County", "phone": "+1-888-265-2583", "tents": "yes", "tourism": "camp_site", "type": "multipolygon", "website": "https://huroncountyparks.com/wagener-county-park", "osm_id": 18254233}}, {"type": "Feature", "geometry": {"type": "Point", "coordinates": [-82.7123526, 43.9456493]}, "properties": {"access": "yes", "addr:city": "Port Hope", "addr:housenumber": "4451", "addr:postcode": "48468", "addr:state": "MI", "addr:street": "West Huron Street", "capacity:caravans": "73", "capacity:tents": "20", "caravans": "yes", "name": "Stafford County Park Campground", "operator": "Huron County", "operator:wikidata": "Q74633", "tents": "yes", "tourism": "camp_site", "type": "multipolygon", "website": "https://huroncountyparks.com/stafford-county-park", "osm_id": 18256817}}, {"type": "Feature", "geometry": {"type": "Point", "coordinates": [-85.746808, 41.9376141]}, "properties": {"addr:city": "Three Rivers", "addr:housenumber": "59149", "addr:postcode": "49093", "addr:state": "MI", "addr:street": "Camp Wakeshama Road", "gnis:feature_id": "1624437", "group_only": "yes", "name": "Camp Wakeshma", "operator": "YMCA", "phone": "+1-269-244-5891", "start_date": "1925", "tourism": "camp_site", "type": "multipolygon", "website": "https://campwakeshma.com/", "osm_id": 18483370}}, {"type": "Feature", "geometry": {"type": "Point", "coordinates": [-85.7894055, 42.1331439]}, "properties": {"addr:city": "Lawton", "addr:housenumber": "23715", "addr:postcode": "49065", "addr:state": "MI", "addr:street": "County Road 354", "gnis:feature_id": "2574720", "name": "Pioneer Point Campground", "phone": "+1-269-624-1583", "tents": "yes", "tourism": "caravan_site", "type": "multipolygon", "website": "https://www.pioneerpoint.net/", "osm_id": 18487352}}, {"type": "Feature", "geometry": {"type": "Point", "coordinates": [-86.2653447, 43.4565906]}, "properties": {"addr:city": "Montague", "addr:housenumber": "735", "addr:postcode": "49437", "addr:state": "MI", "addr:street": "West Fruitvale Road", "gnis:feature_id": "2571934", "name": "White River Campground", "phone": "+1-231-894-4708", "tourism": "caravan_site", "type": "multipolygon", "website": "https://whiterivercampground.com/", "osm_id": 18818011}}, {"type": "Feature", "geometry": {"type": "Point", "coordinates": [-84.6419528, 43.9573087]}, "properties": {"addr:city": "Gladwin", "addr:housenumber": "2165", "addr:postcode": "48624", "addr:state": "MI", "addr:street": "South Bailey Lake Avenue", "gnis:feature_id": "2516443", "name": "River Valley RV Park", "phone": "+1-989-386-7844", "tourism": "caravan_site", "type": "multipolygon", "website": "https://rivervalleyrv.com/", "osm_id": 19053333}}, {"type": "Feature", "geometry": {"type": "Point", "coordinates": [-85.0358193, 44.1124717]}, "properties": {"access": "private", "name": "Family Motorcycle Club", "tourism": "camp_site", "type": "multipolygon", "osm_id": 19066381}}, {"type": "Feature", "geometry": {"type": "Point", "coordinates": [-84.9914644, 44.6155787]}, "properties": {"name": "CCC Bridge State Forest Campground", "tourism": "camp_site", "type": "multipolygon", "osm_id": 19153539}}, {"type": "Feature", "geometry": {"type": "Point", "coordinates": [-88.3781907, 42.8118979]}, "properties": {"addr:city": "East Troy", "addr:postcode": "53120", "addr:state": "WI", "name": "Army Lake Camp", "operator": "Salvation Army", "religion": "christian", "tourism": "camp_site", "type": "multipolygon", "osm_id": 19186722}}, {"type": "Feature", "geometry": {"type": "Point", "coordinates": [-85.9912059, 42.9991502]}, "properties": {"addr:city": "Allendale", "addr:housenumber": "8275", "addr:postcode": "49401", "addr:state": "MI", "addr:street": "Warner Street", "gnis:feature_id": "2571617", "name": "Allendale/West Grand Rapids KOA", "old_name": "River Pines RV Park and Campground", "phone": "+1-616-895-6601", "tourism": "caravan_site", "type": "multipolygon", "website": "https://koa.com/campgrounds/allendale/", "osm_id": 19560763}}]}