{"type": "FeatureCollection", "features": [{"type": "Feature", "geometry": {"type": "Point", "coordinates": [-90.5773931, 38.8202045]}, "properties": {"area": "yes", "name": "370 Lakeside Park RV Campground", "sanitary_dump_station": "yes", "tourism": "caravan_site", "type": "multipolygon", "osm_id": 8113877}}, {"type": "Feature", "geometry": {"type": "Point", "coordinates": [-90.5779403, 38.8200875]}, "properties": {"area": "yes", "caravans": "no", "fee": "yes", "group_only": "yes", "name": "Lakeside 370 Primitive Campground", "tents": "yes", "tourism": "camp_site", "type": "multipolygon", "osm_id": 8113878}}, {"type": "Feature", "geometry": {"type": "Point", "coordinates": [-93.3307008, 36.6658317]}, "properties": {"name": "Silverdollar City Campground", "tourism": "camp_site", "type": "multipolygon", "osm_id": 12256295}}, {"type": "Feature", "geometry": {"type": "Point", "coordinates": [-92.7596808, 38.1559934]}, "properties": {"name": "Deer Valley Park", "tourism": "camp_site", "type": "multipolygon", "osm_id": 12445730}}, {"type": "Feature", "geometry": {"type": "Point", "coordinates": [-89.3264786, 38.6548779]}, "properties": {"cabins": "yes", "capacity": "328", "caravans": "yes", "fee": "yes", "name": "Illini Campground", "permanent_camping": "no", "power_supply": "yes", "sanitary_dump_station": "yes", "tents": "yes", "tourism": "caravan_site", "type": "multipolygon", "water_point": "yes", "osm_id": 14756730}}, {"type": "Feature", "geometry": {"type": "Point", "coordinates": [-93.987436, 39.0467429]}, "properties": {"name": "Odessa Hills Camp Ground", "tourism": "camp_site", "type": "multipolygon", "osm_id": 15683623}}, {"type": "Feature", "geometry": {"type": "Point", "coordinates": [-89.1196496, 37.7384536]}, "properties": {"access": "yes", "caravans": "yes", "fee": "yes", "name": "Crab Orchard Campground", "static_caravans": "no", "tents": "yes", "tourism": "camp_site", "type": "multipolygon", "website": "https://www.recreation.gov/camping/campgrounds/10238027", "osm_id": 17935779}}, {"type": "Feature", "geometry": {"type": "Point", "coordinates": [-89.1451022, 37.6421572]}, "properties": {"access": "yes", "addr:city": "Makanda", "addr:housenumber": "788", "addr:postcode": "62958", "addr:state": "IL", "addr:street": "Hidden Bay Lane", "fee": "yes", "name": "Little Grassy Campground & Marina", "phone": "+1-618-457-6655", "tourism": "camp_site", "type": "multipolygon", "url:map": "http://www.littlegrassylakecampground.com/Campground_20map_final.pdf", "website": "http://www.littlegrassylakecampground.com", "osm_id": 17936291}}, {"type": "Feature", "geometry": {"type": "Point", "coordinates": [-89.1375074, 37.6378033]}, "properties": {"caravans": "no", "fee": "yes", "leisure": "summer_camp", "name": "Pine Ridge Scout Camp", "operator": "Boy Scouts of America", "scout": "yes", "static_caravans": "no", "tents": "yes", "tourism": "camp_site", "type": "multipolygon", "website": "https://stlbsa.org/properties/all-properties/camp-pine-ridge/", "osm_id": 17942939}}, {"type": "Feature", "geometry": {"type": "Point", "coordinates": [-95.4806825, 39.140195]}, "properties": {"name": "Catfish Alley", "tourism": "camp_site", "type": "multipolygon", "osm_id": 18123583}}, {"type": "Feature", "geometry": {"type": "Point", "coordinates": [-95.4828694, 39.1408184]}, "properties": {"name": "Mulberry Grove", "tourism": "camp_site", "type": "multipolygon", "osm_id": 18123584}}, {"type": "Feature", "geometry": {"type": "Point", "coordinates": [-94.9260215, 38.6591053]}, "properties": {"name": "Crappie Cove Campground", "tourism": "camp_site", "type": "multipolygon", "osm_id": 18207173}}, {"type": "Feature", "geometry": {"type": "Point", "coordinates": [-95.7354553, 38.5154206]}, "properties": {"name": "Sailboat Beach Campground", "tourism": "camp_site", "type": "multipolygon", "osm_id": 19065011}}, {"type": "Feature", "geometry": {"type": "Point", "coordinates": [-93.3086429, 37.9017731]}, "properties": {"name": "Dam Site Park Campground", "tourism": "camp_site", "type": "multipolygon", "osm_id": 19319550}}, {"type": "Feature", "geometry": {"type": "Point", "coordinates": [-93.274785, 37.8612788]}, "properties": {"name": "Nemo Park Campground", "tourism": "camp_site", "type": "multipolygon", "osm_id": 19321886}}]}