{"type": "FeatureCollection", "features": [{"type": "Feature", "geometry": {"type": "Point", "coordinates": [-90.4157207, 34.8180399]}, "properties": {"created_by": "Potlatch 0.10", "name": "Sam's Town RV Park", "tourism": "caravan_site", "osm_id": 280815404}}, {"type": "Feature", "geometry": {"type": "Point", "coordinates": [-89.7075049, 30.3021307]}, "properties": {"name": "WMA camp site (free)", "tourism": "camp_site", "osm_id": 2853059361}}, {"type": "Feature", "geometry": {"type": "Point", "coordinates": [-89.1473987, 33.2751188]}, "properties": {"capacity": "18", "fee": "yes", "name": "Tombigbee National Forest - Choctaw Lake Campground", "operator": "US Forest Service", "shower": "yes", "tourism": "camp_site", "website": "https://www.fs.usda.gov/recarea/mississippi/recreation/camping-cabins/recarea/?recid=28861&actid=29", "osm_id": 3134333351}}, {"type": "Feature", "geometry": {"type": "Point", "coordinates": [-88.8205393, 32.2288186]}, "properties": {"addr:city": "Enterprise", "addr:housenumber": "6890", "addr:postcode": "39930", "addr:state": "MS", "addr:street": "Dunns Falls Road", "contact:website": "http://www.phwd.net/dunns/dunns.html", "name": "Dunn's Falls Water Park", "operator": "Pat Harrison Waterway District", "phone": "+1 601-655-8550", "tourism": "camp_site", "website": "http://www.phwd.net/dunns/dunns.html", "osm_id": 3216120803}}, {"type": "Feature", "geometry": {"type": "Point", "coordinates": [-89.3521217, 34.4368766]}, "properties": {"addr:state": "MS", "charge": "7 USD", "fee": "yes", "payment:cash": "yes", "tourism": "camp_site", "osm_id": 3253581410}}, {"type": "Feature", "geometry": {"type": "Point", "coordinates": [-88.1495459, 31.755621]}, "properties": {"tourism": "camp_site", "osm_id": 3264344560}}, {"type": "Feature", "geometry": {"type": "Point", "coordinates": [-91.4155884, 30.6898616]}, "properties": {"name": "Jim's Place", "tourism": "camp_site", "osm_id": 3489274159}}, {"type": "Feature", "geometry": {"type": "Point", "coordinates": [-89.4048928, 30.269938]}, "properties": {"tourism": "camp_site", "osm_id": 3489274160}}, {"type": "Feature", "geometry": {"type": "Point", "coordinates": [-88.7421727, 30.843389]}, "properties": {"backcountry": "yes", "tents": "yes", "tourism": "camp_site", "osm_id": 3627627245}}, {"type": "Feature", "geometry": {"type": "Point", "coordinates": [-88.7614032, 30.8726912]}, "properties": {"backcountry": "yes", "tents": "yes", "tourism": "camp_site", "osm_id": 3627629203}}, {"type": "Feature", "geometry": {"type": "Point", "coordinates": [-89.7576006, 30.2418866]}, "properties": {"name": "Pine Crest RV Park", "tourism": "caravan_site", "osm_id": 4134190737}}, {"type": "Feature", "geometry": {"type": "Point", "coordinates": [-90.3741876, 30.5627083]}, "properties": {"name:en": "Camp living water", "tourism": "camp_site", "osm_id": 4382331490}}, {"type": "Feature", "geometry": {"type": "Point", "coordinates": [-89.4596812, 34.5280424]}, "properties": {"addr:street": "County Road 297", "name": "Graham Lake", "tourism": "camp_site", "osm_id": 4413926198}}, {"type": "Feature", "geometry": {"type": "Point", "coordinates": [-89.0220447, 31.7937303]}, "properties": {"addr:city": "Sandersville", "addr:housenumber": "925", "addr:postcode": "39477", "addr:state": "MS", "addr:street": "North Front Street", "contact:website": "http://www.gofishrvpark.com/", "internet_access": "wlan", "name": "Go Fish R. V. Park", "pets": "yes", "phone": "+1 601-470-4443", "power_supply": "yes", "source": "survey 2015-11-28;Mapillary", "tourism": "caravan_site", "website": "http://www.gofishrvpark.com/", "osm_id": 4635066386}}, {"type": "Feature", "geometry": {"type": "Point", "coordinates": [-88.7959077, 30.397347]}, "properties": {"name": "RV Campground", "tourism": "caravan_site", "osm_id": 4831269970}}, {"type": "Feature", "geometry": {"type": "Point", "coordinates": [-88.4366919, 30.6347566]}, "properties": {"name": "Camp ground", "name:en": "Camp ground", "tourism": "camp_site", "osm_id": 4880354423}}, {"type": "Feature", "geometry": {"type": "Point", "coordinates": [-89.7901954, 34.1267993]}, "properties": {"tourism": "camp_site", "osm_id": 5235293392}}, {"type": "Feature", "geometry": {"type": "Point", "coordinates": [-90.1142584, 34.7745283]}, "properties": {"caravans": "yes", "fee": "yes", "internet_access": "no", "motor_vehicle": "yes", "name": "Dub Patton Campground", "openfire": "yes", "operator": "US Army Corps of Engineers", "tents": "yes", "tourism": "camp_site", "osm_id": 5645872378}}, {"type": "Feature", "geometry": {"type": "Point", "coordinates": [-89.6948216, 34.4288976]}, "properties": {"addr:state": "MS", "fee": "yes", "name": "Clear Creek Campground", "tourism": "camp_site", "osm_id": 5700308238}}, {"type": "Feature", "geometry": {"type": "Point", "coordinates": [-89.6954275, 34.4257271]}, "properties": {"name": "Toby Tubby BSA Camp", "tourism": "camp_site", "osm_id": 5700329421}}, {"type": "Feature", "geometry": {"type": "Point", "coordinates": [-89.6947852, 34.4243656]}, "properties": {"addr:state": "MS", "tourism": "camp_site", "osm_id": 5700329422}}, {"type": "Feature", "geometry": {"type": "Point", "coordinates": [-89.7392208, 34.3389993]}, "properties": {"addr:state": "MS", "name": "Rebel Campground", "tourism": "camp_site", "osm_id": 5706500592}}, {"type": "Feature", "geometry": {"type": "Point", "coordinates": [-89.9868186, 30.6946845]}, "properties": {"addr:city": "Bogalusa", "addr:housenumber": "12101", "addr:postcode": "70427", "addr:state": "LA", "addr:street": "George Jenkins Rd E", "name": "Berry Creek Cabins", "phone": "+1-985-730-4395", "tourism": "camp_site", "website": "http://www.berrycreekcabins.com", "osm_id": 5722850050}}, {"type": "Feature", "geometry": {"type": "Point", "coordinates": [-89.5843391, 34.4935266]}, "properties": {"tourism": "camp_site", "osm_id": 5743723771}}, {"type": "Feature", "geometry": {"type": "Point", "coordinates": [-89.5790678, 33.037809]}, "properties": {"caravans": "no", "motor_vehicle": "no", "name": "Kosciusko Bicycle-only Campground, milepost 160", "tents": "yes", "tourism": "camp_site", "website": "https://www.nps.gov/natr/kosciusko-bicycle-only-campground.htm", "osm_id": 6264759345}}, {"type": "Feature", "geometry": {"type": "Point", "coordinates": [-88.9402596, 33.9114635]}, "properties": {"caravans": "no", "motor_vehicle": "no", "name": "Witch Dance Bicycle-only Campground, at milepost 234", "operator": "National Park Service", "tents": "yes", "tourism": "camp_site", "website": "https://www.nps.gov/natr/witch-dance-bicycle-only-campground.htm", "osm_id": 6264777129}}, {"type": "Feature", "geometry": {"type": "Point", "coordinates": [-91.1688572, 34.8874046]}, "properties": {"tourism": "camp_site", "osm_id": 6278707040}}, {"type": "Feature", "geometry": {"type": "Point", "coordinates": [-88.3278563, 34.5680375]}, "properties": {"capacity": "141", "caravans": "yes", "drinking_water": "yes", "fee": "yes", "name": "Piney Grove Campground", "opening_hours": "Mar 01-Nov 14 unknown; Nov 15-Feb 29 closed", "operator": "U.S. Army Corps of Engineers", "phone": "+1-662-728-1134", "power_supply": "yes", "shower": "yes", "tourism": "camp_site", "website": "https://www.recreation.gov/camping/campgrounds/232673", "osm_id": 6405590678}}, {"type": "Feature", "geometry": {"type": "Point", "coordinates": [-89.8106332, 32.3310095]}, "properties": {"addr:city": "Pelahatchie", "addr:housenumber": "143", "addr:postcode": "39145", "addr:street": "Campground Road", "internet_access": "wlan", "name": "Yogi On The Lake Jellystone Park", "note": "Recreational activities include swimming pools, water slides, outdoor theater, seasonal haunted trail and mini golf.", "phone": "+1 601 854 6859", "toilets": "yes", "tourism": "caravan_site", "website": "https://www.jellystonems.com", "wheelchair": "limited", "osm_id": 7636810285}}, {"type": "Feature", "geometry": {"type": "Point", "coordinates": [-90.6968569, 34.711289]}, "properties": {"addr:city": "Marianna", "addr:housenumber": "2955", "addr:postcode": "72360", "addr:state": "AR", "addr:street": "State Hwy 44", "capacity": "17", "charge": "34 USD", "fee": "yes", "name": "Mississippi River SP - Beech Point", "phone": "+1-870-295-4040", "shower": "yes", "tents": "yes", "tourism": "camp_site", "osm_id": 7874303647}}, {"type": "Feature", "geometry": {"type": "Point", "coordinates": [-90.323275, 32.5142636]}, "properties": {"addr:city": "Flora", "addr:state": "MS", "capacity": "15", "charge": "22 USD", "fee": "yes", "name": "Mississippi Petrified Forest", "phone": "+1-601-879-8189", "power_supply": "yes", "tourism": "camp_site", "osm_id": 7874303648}}, {"type": "Feature", "geometry": {"type": "Point", "coordinates": [-89.3386965, 34.7310256]}, "properties": {"addr:city": "Holly Springs", "addr:state": "MS", "capacity": "36", "charge": "20 USD", "fee": "yes", "name": "Chewalla Lake Campground", "phone": "+1-662-236-6550", "power_supply": "yes", "shower": "yes", "tourism": "camp_site", "osm_id": 7885560368}}, {"type": "Feature", "geometry": {"type": "Point", "coordinates": [-88.9544349, 34.7951499]}, "properties": {"addr:city": "Raipley", "addr:state": "MS", "capacity": "22", "charge": "18 USD", "fee": "yes", "name": "Tippah County Lake - MDWFP", "phone": "+1 662-837-9850", "power_supply": "yes", "toilets": "yes", "tourism": "camp_site", "osm_id": 7885560369}}, {"type": "Feature", "geometry": {"type": "Point", "coordinates": [-88.7115724, 34.3318422]}, "properties": {"addr:city": "Tupeol", "addr:state": "MS", "backcountry": "yes", "drinking_water": "yes", "fee": "free for cyclitst", "name": "Natchez Trace NP - Tupelo Bicycle CG", "phone": "+1-800-305-7417", "reservation": "no", "tents": "only", "toilets": "yes", "tourism": "camp_site", "osm_id": 7885560370}}, {"type": "Feature", "geometry": {"type": "Point", "coordinates": [-88.9363654, 33.9846463]}, "properties": {"addr:city": "Okolona", "addr:state": "MS", "backcountry": "yes", "drinking_water": "no", "fee": "no", "name": "Paynatha Trail Head - USFS", "toilets": "vault", "tourism": "camp_site", "osm_id": 7885560371}}, {"type": "Feature", "geometry": {"type": "Point", "coordinates": [-90.1445662, 32.3283308]}, "properties": {"addr:city": "Jackson", "addr:state": "MS", "capacity": "36", "charge": "22 USD", "fee": "yes", "name": "Lefleur's Bluff State Park", "power_supply": "yes", "reservation": "yes", "shower": "yes", "tourism": "camp_site", "osm_id": 7888578704}}, {"type": "Feature", "geometry": {"type": "Point", "coordinates": [-90.7987222, 32.089135]}, "properties": {"addr:city": "Port Gibson", "addr:state": "MS", "fee": "no", "name": "Rocky Springs", "opening_hours:covid19": "self-contained camping only", "operator": "Natchez Trace NP - Rocky Springs", "toilets": "yes", "tourism": "camp_site", "osm_id": 7907160271}}, {"type": "Feature", "geometry": {"type": "Point", "coordinates": [-90.1475876, 30.773275]}, "properties": {"addr:city": "Franklinton", "addr:state": "LA", "capacity": "100", "fee": "yes", "name": "Bogue Chitto SP - Bottomland", "phone": "+1-985-839-5707", "power_supply": "yes", "reservation": "yes", "tourism": "camp_site", "osm_id": 7933397220}}, {"type": "Feature", "geometry": {"type": "Point", "coordinates": [-89.1165649, 31.051202]}, "properties": {"capacity": "4", "name": "Moody's Landing - USFS", "tourism": "camp_site", "osm_id": 7933397221}}, {"type": "Feature", "geometry": {"type": "Point", "coordinates": [-89.4594141, 30.9173625]}, "properties": {"access": "private", "name": "King's Arrow Ranch", "tourism": "camp_site", "osm_id": 7948462909}}, {"type": "Feature", "geometry": {"type": "Point", "coordinates": [-89.4549376, 30.9124465]}, "properties": {"access": "private", "name": "King's Arrow Ranch", "tourism": "camp_site", "osm_id": 7948462914}}, {"type": "Feature", "geometry": {"type": "Point", "coordinates": [-88.3015801, 33.235567]}, "properties": {"addr:city": "Pickensville", "addr:housenumber": "61", "addr:postcode": "35447", "addr:state": "AL", "addr:street": "Camping Road", "capacity": "176", "charge": "24 USD", "fee": "yes", "laundry_service": "coin", "name": "Pickensville Corp of Engineers", "operator": "Corp of Engineers", "phone": "+1-205-373-6328", "power_supply": "yes", "reservation": "yes", "sanitary_dump_station": "yes", "shower": "yes", "toilets": "no", "tourism": "camp_site", "osm_id": 8611118516}}, {"type": "Feature", "geometry": {"type": "Point", "coordinates": [-88.2655752, 33.0832708]}, "properties": {"addr:city": "Aliceville", "addr:postcode": "35442", "addr:state": "AL", "capacity": "60", "charge": "18 USD", "fee": "yes", "name": "Cochrane Corp of Engineers", "operator": "Corp of Engineers", "phone": "+1-205-373-8806", "reservation": "no", "toilets": "flush", "tourism": "camp_site", "osm_id": 8611188617}}, {"type": "Feature", "geometry": {"type": "Point", "coordinates": [-91.5126798, 34.8082716]}, "properties": {"backcountry": "yes", "name": "Wattensaw WMA", "tourism": "camp_site", "osm_id": 9376430603}}, {"type": "Feature", "geometry": {"type": "Point", "coordinates": [-88.7224101, 31.6545427]}, "properties": {"tourism": "camp_site", "osm_id": 9895511505}}, {"type": "Feature", "geometry": {"type": "Point", "coordinates": [-89.902144, 34.1367525]}, "properties": {"tourism": "camp_site", "osm_id": 9906496749}}, {"type": "Feature", "geometry": {"type": "Point", "coordinates": [-89.8925056, 34.1637047]}, "properties": {"tourism": "camp_site", "osm_id": 9906497583}}, {"type": "Feature", "geometry": {"type": "Point", "coordinates": [-89.8849995, 34.1352337]}, "properties": {"tourism": "camp_site", "osm_id": 9906514387}}, {"type": "Feature", "geometry": {"type": "Point", "coordinates": [-88.6070269, 32.3090445]}, "properties": {"name": "Camp Meridale", "tourism": "camp_site", "osm_id": 9979009114}}, {"type": "Feature", "geometry": {"type": "Point", "coordinates": [-88.5273705, 32.3198946]}, "properties": {"leisure": "summer_camp", "name": "Camp Binachi", "tourism": "camp_site", "website": "http://www.cacbsa.org/cacbsa/index.cfm/camp-information1/", "osm_id": 9979026565}}, {"type": "Feature", "geometry": {"type": "Point", "coordinates": [-91.5891648, 30.7340261]}, "properties": {"addr:street": "641 LA-1, Morganza, LA 70759", "name": "Maxey Care RV Park", "phone": "+1-225-694-3929", "tourism": "caravan_site", "website": "https://maxeycarervpark.yolasite.com/", "osm_id": 10826904247}}, {"type": "Feature", "geometry": {"type": "Point", "coordinates": [-88.2060739, 34.4931211]}, "properties": {"addr:city": "Belmont", "addr:housenumber": "10", "addr:postcode": "38827", "addr:state": "MS", "addr:street": "Airpark Rd", "name": "Belmont RV park", "tourism": "caravan_site", "osm_id": 12420621520}}, {"type": "Feature", "geometry": {"type": "Point", "coordinates": [-88.6434684, 32.4272958]}, "properties": {"tourism": "caravan_site", "osm_id": 12551636730}}, {"type": "Feature", "geometry": {"type": "Point", "coordinates": [-91.4345385, 31.5561902]}, "properties": {"tourism": "caravan_site", "osm_id": 12556771789}}, {"type": "Feature", "geometry": {"type": "Point", "coordinates": [-89.1587072, 32.7294577]}, "properties": {"tourism": "caravan_site", "osm_id": 12596131102}}, {"type": "Feature", "geometry": {"type": "Point", "coordinates": [-88.3301354, 34.8227092]}, "properties": {"addr:city": "Burnsville", "addr:housenumber": "507", "addr:postcode": "38833", "addr:state": "MS", "addr:street": "Highway 365", "name": "The Hydeaway", "tourism": "camp_site", "osm_id": 12600983332}}, {"type": "Feature", "geometry": {"type": "Point", "coordinates": [-88.2974166, 34.9047143]}, "properties": {"addr:city": "Iuka", "addr:housenumber": "1170", "addr:postcode": "38852", "addr:state": "MS", "addr:street": "Highway 365", "name": "CASTON", "tourism": "camp_site", "osm_id": 12604311280}}, {"type": "Feature", "geometry": {"type": "Point", "coordinates": [-90.8490064, 30.8881595]}, "properties": {"access": "yes", "addr:city": "Clinton", "addr:housenumber": "19099", "addr:postcode": "70722", "addr:state": "LA", "addr:street": "Hwy 10", "camp_site": "cabins", "name": "The Point Bar, LLC", "operator": "Richard Davis", "tourism": "camp_site", "osm_id": 12758377710}}, {"type": "Feature", "geometry": {"type": "Point", "coordinates": [-88.8523352, 30.4639984]}, "properties": {"tourism": "caravan_site", "osm_id": 12845059854}}, {"type": "Feature", "geometry": {"type": "Point", "coordinates": [-91.4222735, 31.3500545]}, "properties": {"addr:city": "Sibley", "addr:country": "US", "addr:state": "MS", "name": "St Catherine Creek National Wildlife Refuge Campground", "operator": "St Catherine Creek National Wildlife Refuge", "source": "https://catalog.data.gov/dataset/national-wildlife-refuge-campgrounds", "tourism": "camp_site", "website": "https://www.fws.gov/refuge/St_Catherine_Creek/", "osm_id": 12926110908}}, {"type": "Feature", "geometry": {"type": "Point", "coordinates": [-90.9361698, 33.1635999]}, "properties": {"motorhome": "yes", "ref": "10", "tourism": "camp_site", "osm_id": 13048347918}}, {"type": "Feature", "geometry": {"type": "Point", "coordinates": [-90.936425, 33.1636203]}, "properties": {"motorhome": "yes", "ref": "8", "tourism": "camp_site", "osm_id": 13048347919}}, {"type": "Feature", "geometry": {"type": "Point", "coordinates": [-90.9362684, 33.1635624]}, "properties": {"motorhome": "yes", "ref": "9", "tourism": "camp_site", "osm_id": 13048347920}}, {"type": "Feature", "geometry": {"type": "Point", "coordinates": [-90.9363433, 33.1647779]}, "properties": {"motorhome": "yes", "ref": "1", "tourism": "camp_site", "osm_id": 13048347921}}, {"type": "Feature", "geometry": {"type": "Point", "coordinates": [-90.9362857, 33.1644936]}, "properties": {"motorhome": "yes", "ref": "2", "tourism": "camp_site", "osm_id": 13048347922}}, {"type": "Feature", "geometry": {"type": "Point", "coordinates": [-90.9363267, 33.1643604]}, "properties": {"motorhome": "yes", "ref": "3", "tourism": "camp_site", "osm_id": 13048347923}}, {"type": "Feature", "geometry": {"type": "Point", "coordinates": [-90.936343, 33.1641858]}, "properties": {"motorhome": "yes", "ref": "4", "tourism": "camp_site", "osm_id": 13048347924}}, {"type": "Feature", "geometry": {"type": "Point", "coordinates": [-90.9363711, 33.1640506]}, "properties": {"motorhome": "yes", "ref": "5", "tourism": "camp_site", "osm_id": 13048347925}}, {"type": "Feature", "geometry": {"type": "Point", "coordinates": [-90.936415, 33.1639421]}, "properties": {"motorhome": "yes", "ref": "6", "tourism": "camp_site", "osm_id": 13048347926}}, {"type": "Feature", "geometry": {"type": "Point", "coordinates": [-90.9364676, 33.1637771]}, "properties": {"motorhome": "yes", "ref": "7", "tourism": "camp_site", "osm_id": 13048347927}}, {"type": "Feature", "geometry": {"type": "Point", "coordinates": [-90.9362458, 33.1641972]}, "properties": {"motorhome": "yes", "ref": "13", "tourism": "camp_site", "osm_id": 13048347928}}, {"type": "Feature", "geometry": {"type": "Point", "coordinates": [-90.9361547, 33.1651999]}, "properties": {"motorhome": "yes", "ref": "16", "tourism": "camp_site", "osm_id": 13048347929}}, {"type": "Feature", "geometry": {"type": "Point", "coordinates": [-90.9361391, 33.163868]}, "properties": {"motorhome": "yes", "ref": "11", "tourism": "camp_site", "osm_id": 13048347930}}, {"type": "Feature", "geometry": {"type": "Point", "coordinates": [-90.9362082, 33.1639799]}, "properties": {"motorhome": "yes", "ref": "12", "tourism": "camp_site", "osm_id": 13048347931}}, {"type": "Feature", "geometry": {"type": "Point", "coordinates": [-90.9361986, 33.1647285]}, "properties": {"motorhome": "yes", "ref": "14", "tourism": "camp_site", "osm_id": 13048347932}}, {"type": "Feature", "geometry": {"type": "Point", "coordinates": [-90.9362633, 33.1648284]}, "properties": {"motorhome": "yes", "ref": "15", "tourism": "camp_site", "osm_id": 13048347933}}, {"type": "Feature", "geometry": {"type": "Point", "coordinates": [-90.1448913, 32.3288909]}, "properties": {"ref": "25", "tourism": "camp_site", "osm_id": 13048502878}}, {"type": "Feature", "geometry": {"type": "Point", "coordinates": [-90.1451985, 32.3287588]}, "properties": {"ref": "20", "tourism": "camp_site", "osm_id": 13048502879}}, {"type": "Feature", "geometry": {"type": "Point", "coordinates": [-90.1452587, 32.3288232]}, "properties": {"ref": "22", "tourism": "camp_site", "osm_id": 13048502880}}, {"type": "Feature", "geometry": {"type": "Point", "coordinates": [-90.1458347, 32.3289935]}, "properties": {"ref": "17", "tourism": "camp_site", "osm_id": 13048502881}}, {"type": "Feature", "geometry": {"type": "Point", "coordinates": [-90.1458523, 32.3288471]}, "properties": {"ref": "18", "tourism": "camp_site", "osm_id": 13048502882}}, {"type": "Feature", "geometry": {"type": "Point", "coordinates": [-90.1448756, 32.3293535]}, "properties": {"ref": "11", "tourism": "camp_site", "osm_id": 13048502883}}, {"type": "Feature", "geometry": {"type": "Point", "coordinates": [-90.1454216, 32.3287869]}, "properties": {"ref": "21", "tourism": "camp_site", "osm_id": 13048502884}}, {"type": "Feature", "geometry": {"type": "Point", "coordinates": [-90.1455047, 32.3287201]}, "properties": {"ref": "19", "tourism": "camp_site", "osm_id": 13048502885}}, {"type": "Feature", "geometry": {"type": "Point", "coordinates": [-90.1438841, 32.3286622]}, "properties": {"ref": "28", "tourism": "camp_site", "osm_id": 13048502886}}, {"type": "Feature", "geometry": {"type": "Point", "coordinates": [-90.1439875, 32.3285951]}, "properties": {"ref": "29", "tourism": "camp_site", "osm_id": 13048502887}}, {"type": "Feature", "geometry": {"type": "Point", "coordinates": [-90.144301, 32.3288275]}, "properties": {"ref": "27", "tourism": "camp_site", "osm_id": 13048502888}}, {"type": "Feature", "geometry": {"type": "Point", "coordinates": [-90.1445159, 32.3288994]}, "properties": {"ref": "26", "tourism": "camp_site", "osm_id": 13048502889}}, {"type": "Feature", "geometry": {"type": "Point", "coordinates": [-90.1447169, 32.3288556]}, "properties": {"ref": "24", "tourism": "camp_site", "osm_id": 13048502890}}, {"type": "Feature", "geometry": {"type": "Point", "coordinates": [-90.144932, 32.3288034]}, "properties": {"ref": "23", "tourism": "camp_site", "osm_id": 13048502891}}, {"type": "Feature", "geometry": {"type": "Point", "coordinates": [-90.145639, 32.3291708]}, "properties": {"ref": "16", "tourism": "camp_site", "osm_id": 13048502892}}, {"type": "Feature", "geometry": {"type": "Point", "coordinates": [-90.1455202, 32.3292446]}, "properties": {"ref": "15", "tourism": "camp_site", "osm_id": 13048502893}}, {"type": "Feature", "geometry": {"type": "Point", "coordinates": [-90.1453266, 32.3293481]}, "properties": {"ref": "14", "tourism": "camp_site", "osm_id": 13048502894}}, {"type": "Feature", "geometry": {"type": "Point", "coordinates": [-90.1451129, 32.3292956]}, "properties": {"ref": "13", "tourism": "camp_site", "osm_id": 13048502895}}, {"type": "Feature", "geometry": {"type": "Point", "coordinates": [-90.1446586, 32.3292243]}, "properties": {"ref": "8", "tourism": "camp_site", "osm_id": 13048502896}}, {"type": "Feature", "geometry": {"type": "Point", "coordinates": [-90.1448777, 32.3292681]}, "properties": {"ref": "10", "tourism": "camp_site", "osm_id": 13048502897}}, {"type": "Feature", "geometry": {"type": "Point", "coordinates": [-90.1443036, 32.329239]}, "properties": {"ref": "7", "tourism": "camp_site", "osm_id": 13048502898}}, {"type": "Feature", "geometry": {"type": "Point", "coordinates": [-90.1438189, 32.3289919]}, "properties": {"ref": "4", "tourism": "camp_site", "osm_id": 13048502899}}, {"type": "Feature", "geometry": {"type": "Point", "coordinates": [-90.1437099, 32.328864]}, "properties": {"ref": "2", "tourism": "camp_site", "osm_id": 13048502900}}, {"type": "Feature", "geometry": {"type": "Point", "coordinates": [-90.1439551, 32.3290976]}, "properties": {"ref": "6", "tourism": "camp_site", "osm_id": 13048554801}}, {"type": "Feature", "geometry": {"type": "Point", "coordinates": [-90.1441581, 32.3291038]}, "properties": {"ref": "5", "tourism": "camp_site", "osm_id": 13048554802}}, {"type": "Feature", "geometry": {"type": "Point", "coordinates": [-90.1439458, 32.3289698]}, "properties": {"ref": "3", "tourism": "camp_site", "osm_id": 13048554803}}, {"type": "Feature", "geometry": {"type": "Point", "coordinates": [-90.1438456, 32.3285704]}, "properties": {"ref": "30", "tourism": "camp_site", "osm_id": 13048554804}}, {"type": "Feature", "geometry": {"type": "Point", "coordinates": [-90.1436794, 32.3287453]}, "properties": {"ref": "1", "tourism": "camp_site", "osm_id": 13048554805}}, {"type": "Feature", "geometry": {"type": "Point", "coordinates": [-90.1450613, 32.3293863]}, "properties": {"ref": "12", "tourism": "camp_site", "osm_id": 13048554806}}, {"type": "Feature", "geometry": {"type": "Point", "coordinates": [-90.1446428, 32.3293274]}, "properties": {"ref": "9", "tourism": "camp_site", "osm_id": 13048554807}}, {"type": "Feature", "geometry": {"type": "Point", "coordinates": [-89.2475414, 31.1469414]}, "properties": {"ref": "55", "tourism": "camp_site", "osm_id": 13048644334}}, {"type": "Feature", "geometry": {"type": "Point", "coordinates": [-89.2474216, 31.1467903]}, "properties": {"ref": "54", "tourism": "camp_site", "osm_id": 13048644335}}, {"type": "Feature", "geometry": {"type": "Point", "coordinates": [-89.2460906, 31.1431789]}, "properties": {"ref": "5", "tourism": "camp_site", "osm_id": 13048644336}}, {"type": "Feature", "geometry": {"type": "Point", "coordinates": [-89.2480204, 31.1466647]}, "properties": {"ref": "61", "tourism": "camp_site", "osm_id": 13048644337}}, {"type": "Feature", "geometry": {"type": "Point", "coordinates": [-89.2438909, 31.1408257]}, "properties": {"ref": "106", "tourism": "camp_site", "osm_id": 13048644338}}, {"type": "Feature", "geometry": {"type": "Point", "coordinates": [-89.2439762, 31.1407904]}, "properties": {"ref": "107", "tourism": "camp_site", "osm_id": 13048644339}}, {"type": "Feature", "geometry": {"type": "Point", "coordinates": [-89.2440459, 31.1407605]}, "properties": {"ref": "108", "tourism": "camp_site", "osm_id": 13048644340}}, {"type": "Feature", "geometry": {"type": "Point", "coordinates": [-89.2478315, 31.1464688]}, "properties": {"ref": "826", "tourism": "camp_site", "osm_id": 13048644341}}, {"type": "Feature", "geometry": {"type": "Point", "coordinates": [-89.2455153, 31.1439966]}, "properties": {"ref": "822", "tourism": "camp_site", "osm_id": 13048644342}}, {"type": "Feature", "geometry": {"type": "Point", "coordinates": [-89.2436901, 31.140803]}, "properties": {"ref": "105", "tourism": "camp_site", "osm_id": 13048644343}}, {"type": "Feature", "geometry": {"type": "Point", "coordinates": [-89.2437239, 31.1408745]}, "properties": {"ref": "104", "tourism": "camp_site", "osm_id": 13048644344}}, {"type": "Feature", "geometry": {"type": "Point", "coordinates": [-89.2437555, 31.1409536]}, "properties": {"ref": "103", "tourism": "camp_site", "osm_id": 13048644345}}, {"type": "Feature", "geometry": {"type": "Point", "coordinates": [-89.2437749, 31.1410077]}, "properties": {"ref": "102", "tourism": "camp_site", "osm_id": 13048644346}}, {"type": "Feature", "geometry": {"type": "Point", "coordinates": [-89.2437913, 31.1410723]}, "properties": {"ref": "101", "tourism": "camp_site", "osm_id": 13048644347}}, {"type": "Feature", "geometry": {"type": "Point", "coordinates": [-89.2438095, 31.1411254]}, "properties": {"ref": "100", "tourism": "camp_site", "osm_id": 13048644348}}, {"type": "Feature", "geometry": {"type": "Point", "coordinates": [-89.2438206, 31.1411877]}, "properties": {"ref": "99", "tourism": "camp_site", "osm_id": 13048644349}}, {"type": "Feature", "geometry": {"type": "Point", "coordinates": [-89.2438309, 31.1412428]}, "properties": {"ref": "98", "tourism": "camp_site", "osm_id": 13048644350}}, {"type": "Feature", "geometry": {"type": "Point", "coordinates": [-89.2438386, 31.1412917]}, "properties": {"ref": "97", "tourism": "camp_site", "osm_id": 13048644351}}, {"type": "Feature", "geometry": {"type": "Point", "coordinates": [-89.2438597, 31.1413685]}, "properties": {"ref": "96", "tourism": "camp_site", "osm_id": 13048644352}}, {"type": "Feature", "geometry": {"type": "Point", "coordinates": [-89.2438849, 31.1414511]}, "properties": {"ref": "95", "tourism": "camp_site", "osm_id": 13048644353}}, {"type": "Feature", "geometry": {"type": "Point", "coordinates": [-89.2438935, 31.1414882]}, "properties": {"ref": "94", "tourism": "camp_site", "osm_id": 13048644354}}, {"type": "Feature", "geometry": {"type": "Point", "coordinates": [-89.2439158, 31.1415357]}, "properties": {"ref": "93", "tourism": "camp_site", "osm_id": 13048644355}}, {"type": "Feature", "geometry": {"type": "Point", "coordinates": [-89.2439356, 31.1415826]}, "properties": {"ref": "92", "tourism": "camp_site", "osm_id": 13048644356}}, {"type": "Feature", "geometry": {"type": "Point", "coordinates": [-89.2439539, 31.1416253]}, "properties": {"ref": "91", "tourism": "camp_site", "osm_id": 13048644357}}, {"type": "Feature", "geometry": {"type": "Point", "coordinates": [-89.2439797, 31.1416732]}, "properties": {"ref": "90", "tourism": "camp_site", "osm_id": 13048644358}}, {"type": "Feature", "geometry": {"type": "Point", "coordinates": [-89.2440053, 31.1417217]}, "properties": {"ref": "89", "tourism": "camp_site", "osm_id": 13048644359}}, {"type": "Feature", "geometry": {"type": "Point", "coordinates": [-89.2440287, 31.1417679]}, "properties": {"ref": "88", "tourism": "camp_site", "osm_id": 13048644360}}, {"type": "Feature", "geometry": {"type": "Point", "coordinates": [-89.2440547, 31.1418112]}, "properties": {"ref": "87", "tourism": "camp_site", "osm_id": 13048644361}}, {"type": "Feature", "geometry": {"type": "Point", "coordinates": [-89.2452636, 31.1497914]}, "properties": {"ref": "115", "tourism": "camp_site", "osm_id": 13048644362}}, {"type": "Feature", "geometry": {"type": "Point", "coordinates": [-89.2452926, 31.1496373]}, "properties": {"ref": "118", "tourism": "camp_site", "osm_id": 13048644363}}, {"type": "Feature", "geometry": {"type": "Point", "coordinates": [-89.2451934, 31.1495977]}, "properties": {"ref": "117", "tourism": "camp_site", "osm_id": 13048644364}}, {"type": "Feature", "geometry": {"type": "Point", "coordinates": [-89.2452187, 31.1494826]}, "properties": {"ref": "120", "tourism": "camp_site", "osm_id": 13048644365}}, {"type": "Feature", "geometry": {"type": "Point", "coordinates": [-89.2451418, 31.1493493]}, "properties": {"ref": "122", "tourism": "camp_site", "osm_id": 13048644366}}, {"type": "Feature", "geometry": {"type": "Point", "coordinates": [-89.2450957, 31.1494125]}, "properties": {"ref": "119", "tourism": "camp_site", "osm_id": 13048644367}}, {"type": "Feature", "geometry": {"type": "Point", "coordinates": [-89.2449616, 31.149234]}, "properties": {"ref": "121", "tourism": "camp_site", "osm_id": 13048644368}}, {"type": "Feature", "geometry": {"type": "Point", "coordinates": [-89.2450349, 31.1491419]}, "properties": {"ref": "123", "tourism": "camp_site", "osm_id": 13048644369}}, {"type": "Feature", "geometry": {"type": "Point", "coordinates": [-89.2447059, 31.149196]}, "properties": {"ref": "124", "tourism": "camp_site", "osm_id": 13048644370}}, {"type": "Feature", "geometry": {"type": "Point", "coordinates": [-89.2447221, 31.1492592]}, "properties": {"ref": "125", "tourism": "camp_site", "osm_id": 13048644371}}, {"type": "Feature", "geometry": {"type": "Point", "coordinates": [-89.2454449, 31.1499436]}, "properties": {"ref": "116", "tourism": "camp_site", "osm_id": 13048644372}}, {"type": "Feature", "geometry": {"type": "Point", "coordinates": [-89.2453204, 31.1500437]}, "properties": {"ref": "114", "tourism": "camp_site", "osm_id": 13048644373}}, {"type": "Feature", "geometry": {"type": "Point", "coordinates": [-89.2451666, 31.1501327]}, "properties": {"ref": "112", "tourism": "camp_site", "osm_id": 13048644374}}, {"type": "Feature", "geometry": {"type": "Point", "coordinates": [-89.2452022, 31.1500389]}, "properties": {"ref": "113", "tourism": "camp_site", "osm_id": 13048644375}}, {"type": "Feature", "geometry": {"type": "Point", "coordinates": [-89.2449187, 31.1500151]}, "properties": {"ref": "111", "tourism": "camp_site", "osm_id": 13048644376}}, {"type": "Feature", "geometry": {"type": "Point", "coordinates": [-89.2448067, 31.1497396]}, "properties": {"ref": "110", "tourism": "camp_site", "osm_id": 13048644377}}, {"type": "Feature", "geometry": {"type": "Point", "coordinates": [-89.2447149, 31.1495092]}, "properties": {"ref": "109", "tourism": "camp_site", "osm_id": 13048644378}}, {"type": "Feature", "geometry": {"type": "Point", "coordinates": [-89.2441203, 31.1485333]}, "properties": {"ref": "84", "tourism": "camp_site", "osm_id": 13048644379}}, {"type": "Feature", "geometry": {"type": "Point", "coordinates": [-89.2439982, 31.1484972]}, "properties": {"ref": "85", "tourism": "camp_site", "osm_id": 13048644380}}, {"type": "Feature", "geometry": {"type": "Point", "coordinates": [-89.2439635, 31.1483914]}, "properties": {"ref": "86", "tourism": "camp_site", "osm_id": 13048644381}}, {"type": "Feature", "geometry": {"type": "Point", "coordinates": [-89.244306, 31.1484512]}, "properties": {"ref": "83", "tourism": "camp_site", "osm_id": 13048644382}}, {"type": "Feature", "geometry": {"type": "Point", "coordinates": [-89.2444497, 31.1483591]}, "properties": {"ref": "82", "tourism": "camp_site", "osm_id": 13048644383}}, {"type": "Feature", "geometry": {"type": "Point", "coordinates": [-89.2446243, 31.1482843]}, "properties": {"ref": "81", "tourism": "camp_site", "osm_id": 13048644384}}, {"type": "Feature", "geometry": {"type": "Point", "coordinates": [-89.244753, 31.1482146]}, "properties": {"ref": "80", "tourism": "camp_site", "osm_id": 13048644385}}, {"type": "Feature", "geometry": {"type": "Point", "coordinates": [-89.244995, 31.1480942]}, "properties": {"ref": "79", "tourism": "camp_site", "osm_id": 13048644386}}, {"type": "Feature", "geometry": {"type": "Point", "coordinates": [-89.2452148, 31.1479437]}, "properties": {"ref": "76", "tourism": "camp_site", "osm_id": 13048644387}}, {"type": "Feature", "geometry": {"type": "Point", "coordinates": [-89.2451667, 31.1478545]}, "properties": {"ref": "77", "tourism": "camp_site", "osm_id": 13048644388}}, {"type": "Feature", "geometry": {"type": "Point", "coordinates": [-89.2450918, 31.1479045]}, "properties": {"ref": "78", "tourism": "camp_site", "osm_id": 13048644389}}, {"type": "Feature", "geometry": {"type": "Point", "coordinates": [-89.2454236, 31.1477507]}, "properties": {"ref": "75", "tourism": "camp_site", "osm_id": 13048644390}}, {"type": "Feature", "geometry": {"type": "Point", "coordinates": [-89.245534, 31.1476374]}, "properties": {"ref": "74", "tourism": "camp_site", "osm_id": 13048644391}}, {"type": "Feature", "geometry": {"type": "Point", "coordinates": [-89.2456896, 31.1474825]}, "properties": {"ref": "73", "tourism": "camp_site", "osm_id": 13048644392}}, {"type": "Feature", "geometry": {"type": "Point", "coordinates": [-89.2458021, 31.1473443]}, "properties": {"ref": "72", "tourism": "camp_site", "osm_id": 13048644393}}, {"type": "Feature", "geometry": {"type": "Point", "coordinates": [-89.2459416, 31.1471416]}, "properties": {"ref": "70", "tourism": "camp_site", "osm_id": 13048644394}}, {"type": "Feature", "geometry": {"type": "Point", "coordinates": [-89.246019, 31.1470221]}, "properties": {"ref": "68", "tourism": "camp_site", "osm_id": 13048644395}}, {"type": "Feature", "geometry": {"type": "Point", "coordinates": [-89.245862, 31.1471197]}, "properties": {"ref": "71", "tourism": "camp_site", "osm_id": 13048644396}}, {"type": "Feature", "geometry": {"type": "Point", "coordinates": [-89.2459547, 31.1469603]}, "properties": {"ref": "69", "tourism": "camp_site", "osm_id": 13048644397}}, {"type": "Feature", "geometry": {"type": "Point", "coordinates": [-89.2460947, 31.1467841]}, "properties": {"ref": "67", "tourism": "camp_site", "osm_id": 13048644398}}, {"type": "Feature", "geometry": {"type": "Point", "coordinates": [-89.2462377, 31.1467977]}, "properties": {"ref": "66", "tourism": "camp_site", "osm_id": 13048644399}}, {"type": "Feature", "geometry": {"type": "Point", "coordinates": [-89.2462309, 31.146699]}, "properties": {"ref": "65", "tourism": "camp_site", "osm_id": 13048644400}}, {"type": "Feature", "geometry": {"type": "Point", "coordinates": [-89.2465833, 31.1467637]}, "properties": {"ref": "64", "tourism": "camp_site", "osm_id": 13048653701}}, {"type": "Feature", "geometry": {"type": "Point", "coordinates": [-89.2477938, 31.1470148]}, "properties": {"ref": "56", "tourism": "camp_site", "osm_id": 13048653702}}, {"type": "Feature", "geometry": {"type": "Point", "coordinates": [-89.2480317, 31.14656]}, "properties": {"ref": "63", "tourism": "camp_site", "osm_id": 13048653703}}, {"type": "Feature", "geometry": {"type": "Point", "coordinates": [-89.2478643, 31.1469559]}, "properties": {"ref": "58", "tourism": "camp_site", "osm_id": 13048653704}}, {"type": "Feature", "geometry": {"type": "Point", "coordinates": [-89.247946, 31.1470103]}, "properties": {"ref": "57", "tourism": "camp_site", "osm_id": 13048653705}}, {"type": "Feature", "geometry": {"type": "Point", "coordinates": [-89.2480411, 31.1468636]}, "properties": {"ref": "59", "tourism": "camp_site", "osm_id": 13048653706}}, {"type": "Feature", "geometry": {"type": "Point", "coordinates": [-89.248095, 31.1466429]}, "properties": {"ref": "60", "tourism": "camp_site", "osm_id": 13048653707}}, {"type": "Feature", "geometry": {"type": "Point", "coordinates": [-89.2481192, 31.1463731]}, "properties": {"ref": "62", "tourism": "camp_site", "osm_id": 13048653708}}, {"type": "Feature", "geometry": {"type": "Point", "coordinates": [-89.2474032, 31.1454564]}, "properties": {"ref": "43", "tourism": "camp_site", "osm_id": 13048653709}}, {"type": "Feature", "geometry": {"type": "Point", "coordinates": [-89.2473163, 31.1454498]}, "properties": {"ref": "48", "tourism": "camp_site", "osm_id": 13048653710}}, {"type": "Feature", "geometry": {"type": "Point", "coordinates": [-89.2474182, 31.1456162]}, "properties": {"ref": "50", "tourism": "camp_site", "osm_id": 13048653711}}, {"type": "Feature", "geometry": {"type": "Point", "coordinates": [-89.2475162, 31.1456362]}, "properties": {"ref": "45", "tourism": "camp_site", "osm_id": 13048653712}}, {"type": "Feature", "geometry": {"type": "Point", "coordinates": [-89.2476241, 31.1458012]}, "properties": {"ref": "47", "tourism": "camp_site", "osm_id": 13048653713}}, {"type": "Feature", "geometry": {"type": "Point", "coordinates": [-89.2477131, 31.1460445]}, "properties": {"ref": "53", "tourism": "camp_site", "osm_id": 13048653714}}, {"type": "Feature", "geometry": {"type": "Point", "coordinates": [-89.2477816, 31.145979]}, "properties": {"ref": "49", "tourism": "camp_site", "osm_id": 13048653715}}, {"type": "Feature", "geometry": {"type": "Point", "coordinates": [-89.2475441, 31.1458317]}, "properties": {"ref": "51", "tourism": "camp_site", "osm_id": 13048653716}}, {"type": "Feature", "geometry": {"type": "Point", "coordinates": [-89.2473685, 31.1450887]}, "properties": {"ref": "44", "tourism": "camp_site", "osm_id": 13048653717}}, {"type": "Feature", "geometry": {"type": "Point", "coordinates": [-89.2475543, 31.1450591]}, "properties": {"ref": "42", "tourism": "camp_site", "osm_id": 13048653718}}, {"type": "Feature", "geometry": {"type": "Point", "coordinates": [-89.247584, 31.1451318]}, "properties": {"ref": "39", "tourism": "camp_site", "osm_id": 13048653719}}, {"type": "Feature", "geometry": {"type": "Point", "coordinates": [-89.2473554, 31.1452941]}, "properties": {"ref": "41", "tourism": "camp_site", "osm_id": 13048653720}}, {"type": "Feature", "geometry": {"type": "Point", "coordinates": [-89.2472813, 31.1452624]}, "properties": {"ref": "46", "tourism": "camp_site", "osm_id": 13048653721}}, {"type": "Feature", "geometry": {"type": "Point", "coordinates": [-89.2477132, 31.1450905]}, "properties": {"ref": "40", "tourism": "camp_site", "osm_id": 13048653722}}, {"type": "Feature", "geometry": {"type": "Point", "coordinates": [-89.247731, 31.1452345]}, "properties": {"ref": "37", "tourism": "camp_site", "osm_id": 13048653723}}, {"type": "Feature", "geometry": {"type": "Point", "coordinates": [-89.2478412, 31.145232]}, "properties": {"ref": "38", "tourism": "camp_site", "osm_id": 13048653724}}, {"type": "Feature", "geometry": {"type": "Point", "coordinates": [-89.2478512, 31.1453781]}, "properties": {"ref": "35", "tourism": "camp_site", "osm_id": 13048653725}}, {"type": "Feature", "geometry": {"type": "Point", "coordinates": [-89.2479231, 31.1453623]}, "properties": {"ref": "36", "tourism": "camp_site", "osm_id": 13048653726}}, {"type": "Feature", "geometry": {"type": "Point", "coordinates": [-89.2480247, 31.145563]}, "properties": {"ref": "34", "tourism": "camp_site", "osm_id": 13048653727}}, {"type": "Feature", "geometry": {"type": "Point", "coordinates": [-89.2479537, 31.1456105]}, "properties": {"ref": "33", "tourism": "camp_site", "osm_id": 13048653728}}, {"type": "Feature", "geometry": {"type": "Point", "coordinates": [-89.2480728, 31.1457301]}, "properties": {"ref": "32", "tourism": "camp_site", "osm_id": 13048653729}}, {"type": "Feature", "geometry": {"type": "Point", "coordinates": [-89.2479983, 31.1457854]}, "properties": {"ref": "31", "tourism": "camp_site", "osm_id": 13048653730}}, {"type": "Feature", "geometry": {"type": "Point", "coordinates": [-89.2481298, 31.145946]}, "properties": {"ref": "30", "tourism": "camp_site", "osm_id": 13048653731}}, {"type": "Feature", "geometry": {"type": "Point", "coordinates": [-89.2458014, 31.1440435]}, "properties": {"ref": "12", "tourism": "camp_site", "osm_id": 13048653732}}, {"type": "Feature", "geometry": {"type": "Point", "coordinates": [-89.2457889, 31.1442321]}, "properties": {"ref": "13", "tourism": "camp_site", "osm_id": 13048653733}}, {"type": "Feature", "geometry": {"type": "Point", "coordinates": [-89.2458179, 31.1446847]}, "properties": {"ref": "14", "tourism": "camp_site", "osm_id": 13048653734}}, {"type": "Feature", "geometry": {"type": "Point", "coordinates": [-89.2461909, 31.1446132]}, "properties": {"ref": "20", "tourism": "camp_site", "osm_id": 13048653735}}, {"type": "Feature", "geometry": {"type": "Point", "coordinates": [-89.2461633, 31.1447147]}, "properties": {"ref": "19", "tourism": "camp_site", "osm_id": 13048653736}}, {"type": "Feature", "geometry": {"type": "Point", "coordinates": [-89.2459854, 31.1448702]}, "properties": {"ref": "18", "tourism": "camp_site", "osm_id": 13048653737}}, {"type": "Feature", "geometry": {"type": "Point", "coordinates": [-89.2458211, 31.1449801]}, "properties": {"ref": "17", "tourism": "camp_site", "osm_id": 13048653738}}, {"type": "Feature", "geometry": {"type": "Point", "coordinates": [-89.2457045, 31.1449585]}, "properties": {"ref": "16", "tourism": "camp_site", "osm_id": 13048653739}}, {"type": "Feature", "geometry": {"type": "Point", "coordinates": [-89.2456666, 31.1448742]}, "properties": {"ref": "15", "tourism": "camp_site", "osm_id": 13048653740}}, {"type": "Feature", "geometry": {"type": "Point", "coordinates": [-89.2459556, 31.1435785]}, "properties": {"ref": "8", "tourism": "camp_site", "osm_id": 13048653741}}, {"type": "Feature", "geometry": {"type": "Point", "coordinates": [-89.2460734, 31.1433691]}, "properties": {"ref": "6", "tourism": "camp_site", "osm_id": 13048653742}}, {"type": "Feature", "geometry": {"type": "Point", "coordinates": [-89.2462317, 31.1431304]}, "properties": {"ref": "4", "tourism": "camp_site", "osm_id": 13048653743}}, {"type": "Feature", "geometry": {"type": "Point", "coordinates": [-89.2463599, 31.144573]}, "properties": {"ref": "21", "tourism": "camp_site", "osm_id": 13048653744}}, {"type": "Feature", "geometry": {"type": "Point", "coordinates": [-89.2468775, 31.1443714]}, "properties": {"ref": "22", "tourism": "camp_site", "osm_id": 13048653745}}, {"type": "Feature", "geometry": {"type": "Point", "coordinates": [-89.2470148, 31.1441364]}, "properties": {"ref": "24", "tourism": "camp_site", "osm_id": 13048653746}}, {"type": "Feature", "geometry": {"type": "Point", "coordinates": [-89.2470106, 31.1442587]}, "properties": {"ref": "23", "tourism": "camp_site", "osm_id": 13048653747}}, {"type": "Feature", "geometry": {"type": "Point", "coordinates": [-89.2469228, 31.1439371]}, "properties": {"ref": "25", "tourism": "camp_site", "osm_id": 13048653748}}, {"type": "Feature", "geometry": {"type": "Point", "coordinates": [-89.2467795, 31.1438699]}, "properties": {"ref": "29", "tourism": "camp_site", "osm_id": 13048653749}}, {"type": "Feature", "geometry": {"type": "Point", "coordinates": [-89.2466664, 31.1442288]}, "properties": {"ref": "28", "tourism": "camp_site", "osm_id": 13048653750}}, {"type": "Feature", "geometry": {"type": "Point", "coordinates": [-89.2461662, 31.1443781]}, "properties": {"ref": "26", "tourism": "camp_site", "osm_id": 13048653751}}, {"type": "Feature", "geometry": {"type": "Point", "coordinates": [-89.2464163, 31.1443168]}, "properties": {"ref": "27", "tourism": "camp_site", "osm_id": 13048653752}}, {"type": "Feature", "geometry": {"type": "Point", "coordinates": [-89.2458244, 31.1436135]}, "properties": {"ref": "9", "tourism": "camp_site", "osm_id": 13048653753}}, {"type": "Feature", "geometry": {"type": "Point", "coordinates": [-89.2458907, 31.1437311]}, "properties": {"ref": "10", "tourism": "camp_site", "osm_id": 13048653754}}, {"type": "Feature", "geometry": {"type": "Point", "coordinates": [-89.2457497, 31.1437904]}, "properties": {"ref": "11", "tourism": "camp_site", "osm_id": 13048653755}}, {"type": "Feature", "geometry": {"type": "Point", "coordinates": [-89.2461824, 31.1430316]}, "properties": {"ref": "3", "tourism": "camp_site", "osm_id": 13048653756}}, {"type": "Feature", "geometry": {"type": "Point", "coordinates": [-89.2466998, 31.1430284]}, "properties": {"ref": "1", "tourism": "camp_site", "osm_id": 13048653757}}, {"type": "Feature", "geometry": {"type": "Point", "coordinates": [-89.2463791, 31.1428734]}, "properties": {"ref": "2", "tourism": "camp_site", "osm_id": 13048653758}}, {"type": "Feature", "geometry": {"type": "Point", "coordinates": [-89.2459596, 31.1434073]}, "properties": {"ref": "7", "tourism": "camp_site", "osm_id": 13048653759}}, {"type": "Feature", "geometry": {"type": "Point", "coordinates": [-89.2464027, 31.148988]}, "properties": {"cabins": "no", "caravans": "no", "motorhome": "no", "ref": "10;5", "tents": "yes", "tourism": "camp_site", "osm_id": 13048662314}}, {"type": "Feature", "geometry": {"type": "Point", "coordinates": [-89.2462775, 31.1490524]}, "properties": {"cabins": "no", "caravans": "no", "motorhome": "no", "ref": "9", "tents": "yes", "tourism": "camp_site", "osm_id": 13048662315}}, {"type": "Feature", "geometry": {"type": "Point", "coordinates": [-89.2461774, 31.1491356]}, "properties": {"cabins": "no", "caravans": "no", "motorhome": "no", "ref": "8", "tents": "yes", "tourism": "camp_site", "osm_id": 13048662316}}, {"type": "Feature", "geometry": {"type": "Point", "coordinates": [-89.2460672, 31.149228]}, "properties": {"cabins": "no", "caravans": "no", "motorhome": "no", "ref": "7", "tents": "yes", "tourism": "camp_site", "osm_id": 13048662317}}, {"type": "Feature", "geometry": {"type": "Point", "coordinates": [-89.245968, 31.1493289]}, "properties": {"cabins": "no", "caravans": "no", "motorhome": "no", "ref": "6", "tents": "yes", "tourism": "camp_site", "osm_id": 13048662318}}, {"type": "Feature", "geometry": {"type": "Point", "coordinates": [-89.2463859, 31.1492865]}, "properties": {"cabins": "no", "caravans": "no", "motorhome": "no", "ref": "14", "tents": "yes", "tourism": "camp_site", "osm_id": 13048662319}}, {"type": "Feature", "geometry": {"type": "Point", "coordinates": [-89.2463055, 31.1493792]}, "properties": {"cabins": "no", "caravans": "no", "motorhome": "no", "ref": "13", "tents": "yes", "tourism": "camp_site", "osm_id": 13048662320}}, {"type": "Feature", "geometry": {"type": "Point", "coordinates": [-89.2462314, 31.1494541]}, "properties": {"cabins": "no", "caravans": "no", "motorhome": "no", "ref": "12", "tents": "yes", "tourism": "camp_site", "osm_id": 13048662321}}, {"type": "Feature", "geometry": {"type": "Point", "coordinates": [-89.2461501, 31.1495273]}, "properties": {"cabins": "no", "caravans": "no", "motorhome": "no", "ref": "11", "tents": "yes", "tourism": "camp_site", "osm_id": 13048662322}}, {"type": "Feature", "geometry": {"type": "Point", "coordinates": [-89.2460908, 31.1489857]}, "properties": {"cabins": "no", "caravans": "no", "motorhome": "no", "ref": "4", "tents": "yes", "tourism": "camp_site", "osm_id": 13048662324}}, {"type": "Feature", "geometry": {"type": "Point", "coordinates": [-89.2459938, 31.1490532]}, "properties": {"cabins": "no", "caravans": "no", "motorhome": "no", "ref": "3", "tents": "yes", "tourism": "camp_site", "osm_id": 13048662325}}, {"type": "Feature", "geometry": {"type": "Point", "coordinates": [-89.2459086, 31.1490908]}, "properties": {"cabins": "no", "caravans": "no", "motorhome": "no", "ref": "2", "tents": "yes", "tourism": "camp_site", "osm_id": 13048662326}}, {"type": "Feature", "geometry": {"type": "Point", "coordinates": [-89.245818, 31.149155]}, "properties": {"cabins": "no", "caravans": "no", "motorhome": "no", "ref": "1", "tents": "yes", "tourism": "camp_site", "osm_id": 13048662327}}, {"type": "Feature", "geometry": {"type": "Point", "coordinates": [-89.9995518, 34.9427072]}, "properties": {"tourism": "caravan_site", "osm_id": 13119698877}}, {"type": "Feature", "geometry": {"type": "Point", "coordinates": [-88.9230751, 30.5379765]}, "properties": {"tourism": "caravan_site", "osm_id": 13156775343}}, {"type": "Feature", "geometry": {"type": "Point", "coordinates": [-89.1256718, 30.5819327]}, "properties": {"tourism": "caravan_site", "osm_id": 13156775391}}, {"type": "Feature", "geometry": {"type": "Point", "coordinates": [-89.0248027, 30.4018717]}, "properties": {"tourism": "caravan_site", "osm_id": 13156936424}}, {"type": "Feature", "geometry": {"type": "Point", "coordinates": [-88.9422026, 30.4049012]}, "properties": {"tourism": "caravan_site", "osm_id": 13156936453}}, {"type": "Feature", "geometry": {"type": "Point", "coordinates": [-89.1041894, 30.3833256]}, "properties": {"tourism": "caravan_site", "osm_id": 13156936588}}, {"type": "Feature", "geometry": {"type": "Point", "coordinates": [-88.973081, 30.4582017]}, "properties": {"tourism": "caravan_site", "osm_id": 13174570155}}, {"type": "Feature", "geometry": {"type": "Point", "coordinates": [-88.9774019, 30.4583731]}, "properties": {"tourism": "caravan_site", "osm_id": 13174570157}}, {"type": "Feature", "geometry": {"type": "Point", "coordinates": [-91.2669833, 34.0303171]}, "properties": {"tourism": "camp_site", "osm_id": 13272027027}}, {"type": "Feature", "geometry": {"type": "Point", "coordinates": [-91.2636372, 34.0318991]}, "properties": {"tourism": "camp_site", "osm_id": 13272027070}}, {"type": "Feature", "geometry": {"type": "Point", "coordinates": [-91.2675318, 34.0332594]}, "properties": {"tourism": "camp_site", "osm_id": 13272027071}}, {"type": "Feature", "geometry": {"type": "Point", "coordinates": [-91.2478347, 34.0318339]}, "properties": {"tourism": "camp_site", "osm_id": 13272027102}}, {"type": "Feature", "geometry": {"type": "Point", "coordinates": [-90.7579207, 34.5538198]}, "properties": {"access": "yes", "camp_site": "basic", "caravans": "no", "drinking_water": "yes", "fee": "yes", "name": "Delta Heritage Trail State Park Campground", "operator": "Arkansas State Parks", "operator:wikidata": "Q109319503", "phone": "+1-870-572-2352", "reservation": "yes", "static_caravans": "no", "tents": "yes", "toilets": "yes", "tourism": "camp_site", "website": "https://reserve.arkansasstateparks.com/delta-heritage/camping", "osm_id": 13280137866}}, {"type": "Feature", "geometry": {"type": "Point", "coordinates": [-91.2843721, 30.3205732]}, "properties": {"tourism": "caravan_site", "osm_id": 13343341774}}, {"type": "Feature", "geometry": {"type": "Point", "coordinates": [-89.9946738, 34.9932348]}, "properties": {"tourism": "caravan_site", "osm_id": 13363727893}}, {"type": "Feature", "geometry": {"type": "Point", "coordinates": [-89.9675321, 34.6953669]}, "properties": {"tourism": "caravan_site", "osm_id": 13446615727}}, {"type": "Feature", "geometry": {"type": "Point", "coordinates": [-88.4355329, 33.5039807]}, "properties": {"tourism": "caravan_site", "osm_id": 13446850409}}, {"type": "Feature", "geometry": {"type": "Point", "coordinates": [-88.7186061, 33.4615036]}, "properties": {"tourism": "caravan_site", "osm_id": 13446850532}}, {"type": "Feature", "geometry": {"type": "Point", "coordinates": [-88.7330516, 33.4667397]}, "properties": {"tourism": "caravan_site", "osm_id": 13446850602}}, {"type": "Feature", "geometry": {"type": "Point", "coordinates": [-88.1574389, 30.4277923]}, "properties": {"tourism": "caravan_site", "osm_id": 13462594293}}, {"type": "Feature", "geometry": {"type": "Point", "coordinates": [-88.1252895, 30.4710742]}, "properties": {"tourism": "caravan_site", "osm_id": 13462621441}}, {"type": "Feature", "geometry": {"type": "Point", "coordinates": [-88.5101898, 30.3943326]}, "properties": {"tourism": "caravan_site", "osm_id": 13462718986}}, {"type": "Feature", "geometry": {"type": "Point", "coordinates": [-90.2125663, 33.5317883]}, "properties": {"tourism": "caravan_site", "osm_id": 233676009}}, {"type": "Feature", "geometry": {"type": "Point", "coordinates": [-90.7595381, 33.7375508]}, "properties": {"tourism": "camp_site", "osm_id": 321050983}}, {"type": "Feature", "geometry": {"type": "Point", "coordinates": [-89.7273963, 32.6310304]}, "properties": {"source": "bing;USGS", "tourism": "caravan_site", "osm_id": 442398226}}, {"type": "Feature", "geometry": {"type": "Point", "coordinates": [-89.0208014, 34.2346885]}, "properties": {"tourism": "caravan_site", "osm_id": 479978539}}, {"type": "Feature", "geometry": {"type": "Point", "coordinates": [-90.0388806, 30.3404628]}, "properties": {"internet_access": "yes", "internet_access:fee": "no", "name": "Fontainebleau Campground", "operator": "Fontainebleau State Park", "sanitary_dump_station": "customers", "stars": "4", "tourism": "camp_site", "wheelchair": "yes", "osm_id": 482565876}}, {"type": "Feature", "geometry": {"type": "Point", "coordinates": [-91.4913196, 32.4823332]}, "properties": {"name": "Poverty Point Reservoir State Park Campground", "tourism": "camp_site", "osm_id": 489054238}}, {"type": "Feature", "geometry": {"type": "Point", "coordinates": [-88.8865165, 30.4096691]}, "properties": {"fee": "yes", "internet_access": "yes", "internet_access:fee": "no", "level": "0", "name": "Boomtown RV Park", "operator": "Boomtown Casino", "phone": "+1 800-946-2442", "power_supply": "yes", "sanitary_dump_station": "customers", "smoking": "outside", "tourism": "caravan_site", "website": "https://www.boomtownbiloxi.com/", "osm_id": 547479947}}, {"type": "Feature", "geometry": {"type": "Point", "coordinates": [-88.9559783, 30.4078315]}, "properties": {"tourism": "caravan_site", "osm_id": 548932579}}, {"type": "Feature", "geometry": {"type": "Point", "coordinates": [-89.146492, 31.3607334]}, "properties": {"addr:city": "Petal", "addr:housenumber": "1870", "addr:postcode": "39465", "addr:state": "MS", "addr:street": "MS 42", "contact:website": "https://www.wagonwheelms.com/", "landuse": "commercial", "name": "Wagon Wheel Motel & RV Park", "opening_hours": "24/7", "payment:american_express": "yes", "payment:cash": "yes", "payment:discover_card": "yes", "payment:mastercard": "yes", "payment:visa": "yes", "phone": "+1-601-582-8477", "tourism": "motel;caravan_site", "website": "https://www.wagonwheelms.com/", "osm_id": 621310697}}, {"type": "Feature", "geometry": {"type": "Point", "coordinates": [-90.3492059, 30.5212915]}, "properties": {"leisure": "park", "name": "Yogi bear Jellystone Park Campground", "tourism": "camp_site", "osm_id": 627645500}}, {"type": "Feature", "geometry": {"type": "Point", "coordinates": [-91.5187885, 34.6837191]}, "properties": {"tourism": "caravan_site", "osm_id": 654134263}}, {"type": "Feature", "geometry": {"type": "Point", "coordinates": [-88.970196, 30.3961515]}, "properties": {"name": "Fox's RV Park", "tourism": "caravan_site", "osm_id": 666406281}}, {"type": "Feature", "geometry": {"type": "Point", "coordinates": [-88.4175529, 34.2922208]}, "properties": {"capacity": "60", "drinking_water": "yes", "fee": "yes", "name": "Whitten Park Campground", "operator": "U.S. Army Corps of Engineers", "power_supply": "yes", "tourism": "camp_site", "website": "https://www.recreation.gov/camping/campgrounds/232743", "osm_id": 669383309}}, {"type": "Feature", "geometry": {"type": "Point", "coordinates": [-88.4765047, 33.5955202]}, "properties": {"capacity": "110", "caravans": "yes", "fee": "yes", "name": "Dewayne Hayes Campground", "phone": "+1-662-434-6939", "tents": "yes", "tourism": "camp_site", "website": "https://www.recreation.gov/camping/campgrounds/232574", "osm_id": 670042765}}, {"type": "Feature", "geometry": {"type": "Point", "coordinates": [-91.216144, 31.5968909]}, "properties": {"caravans": "yes", "charge": "24 USD", "drinking_water": "yes", "fee": "yes", "name": "Natchez State Park Campground", "phone": "+1-601-442-2658", "power_supply": "yes", "shower": "yes", "tents": "yes", "tourism": "camp_site", "osm_id": 683740031}}, {"type": "Feature", "geometry": {"type": "Point", "coordinates": [-90.7987545, 32.0888961]}, "properties": {"capacity": "22", "caravans": "yes", "drinking_water": "yes", "name": "Rocky Springs Campground, milepost 54.8", "operator": "National Park Service", "phone": "+1-800-305-7417", "power_supply": "no", "tents": "yes", "toilets": "yes", "tourism": "camp_site", "osm_id": 683746121}}, {"type": "Feature", "geometry": {"type": "Point", "coordinates": [-89.2672281, 33.4172298]}, "properties": {"capacity": "18", "caravans": "yes", "drinking_water": "yes", "name": "Jeff Busby Campground, milepost 193.1", "opening_hours:covid19": "self-contained camping only", "operator": "U.S. National Park Park Service", "phone": "+1-800-305-7417", "power_supply": "no", "tents": "yes", "toilets": "yes", "tourism": "camp_site", "osm_id": 683748204}}, {"type": "Feature", "geometry": {"type": "Point", "coordinates": [-88.5305095, 31.1336713]}, "properties": {"access": "customers", "addr:city": "Leakesville", "addr:housenumber": "17421", "addr:postcode": "39451", "addr:state": "MS", "addr:street": "MS 63", "area": "yes", "contact:facebook": "https://www.facebook.com/WildCountryMS/", "fee": "yes", "name": "Wild Country Off-road", "phone": "+1-601-689-4200", "tourism": "camp_site", "osm_id": 709025943}}, {"type": "Feature", "geometry": {"type": "Point", "coordinates": [-91.5654502, 34.8212523]}, "properties": {"check_date": "2024-09-09", "tourism": "caravan_site", "osm_id": 759718635}}, {"type": "Feature", "geometry": {"type": "Point", "coordinates": [-90.9900548, 30.3374288]}, "properties": {"addr:city": "Prairieville", "addr:housenumber": "17867", "addr:postcode": "70769", "addr:state": "LA", "addr:street": "Airline Highway", "tourism": "caravan_site", "osm_id": 830542747}}, {"type": "Feature", "geometry": {"type": "Point", "coordinates": [-90.9622527, 30.4474395]}, "properties": {"addr:city": "Denham Springs", "addr:housenumber": "7628", "addr:postcode": "70726", "addr:state": "LA", "addr:street": "Vincent Road", "brand": "KOA", "brand:wikidata": "Q16988635", "internet_access": "wlan", "name": "Baton Rouge KOA Holiday", "phone": "+1 225 664 7281", "short_name": "KOA", "tourism": "caravan_site", "osm_id": 864835014}}, {"type": "Feature", "geometry": {"type": "Point", "coordinates": [-91.1366306, 30.4165048]}, "properties": {"addr:housenumber": "3145", "addr:street": "Old Forge Drive", "operator": "College Drive Mini Storage", "phone": "+1-225-927-6111", "tourism": "caravan_site", "osm_id": 881006552}}, {"type": "Feature", "geometry": {"type": "Point", "coordinates": [-89.3698698, 31.4104734]}, "properties": {"operator": "Pep's Point Water Park", "tourism": "caravan_site", "osm_id": 888511183}}, {"type": "Feature", "geometry": {"type": "Point", "coordinates": [-89.407433, 31.4197224]}, "properties": {"addr:housenumber": "7836", "addr:street": "US 49", "name": "Shady Cove RV Park", "phone": "+1-601-268-1077", "tourism": "caravan_site", "osm_id": 900479173}}, {"type": "Feature", "geometry": {"type": "Point", "coordinates": [-90.9634359, 32.0142507]}, "properties": {"addr:city": "Port Gibson", "addr:housenumber": "1125", "addr:postcode": "39150", "addr:state": "MS", "addr:street": "Grand-Gulf Road", "tourism": "caravan_site", "osm_id": 900764908}}, {"type": "Feature", "geometry": {"type": "Point", "coordinates": [-90.1387118, 30.5763963]}, "properties": {"name": "Land-O-Pines Family Campground", "tourism": "camp_site", "osm_id": 923176354}}, {"type": "Feature", "geometry": {"type": "Point", "coordinates": [-89.7587868, 30.2393642]}, "properties": {"name": "Pine Crest RV Park and Campground", "tourism": "caravan_site", "osm_id": 923181487}}, {"type": "Feature", "geometry": {"type": "Point", "coordinates": [-89.3404451, 31.6877893]}, "properties": {"addr:city": "Soso", "addr:housenumber": "2", "addr:postcode": "39480", "addr:state": "MS", "addr:street": "Big Creek Water Park", "alt_name": "Big Creek Water Park", "amenity": "camping", "contact:website": "http://www.phwd.net/big/big.html", "fee": "yes", "name": "Big Creek", "opening_hours": "closed", "operator": "Pat Harrison Waterway District", "phone": "+1 601-763-8555", "tourism": "camp_site", "website": "http://www.phwd.net/big/big.html", "osm_id": 927267658}}, {"type": "Feature", "geometry": {"type": "Point", "coordinates": [-89.9260443, 32.5030944]}, "properties": {"addr:city": "Brandon", "addr:housenumber": "4248", "addr:postcode": "39047", "addr:state": "MS", "addr:street": "Hwy 43 North", "charge": "28 USD", "fee": "yes", "laundry_service": "coin", "name": "Goshen Springs Campground", "phone": "+1-877-829-2751", "reservation": "yes", "tourism": "camp_site", "osm_id": 928978551}}, {"type": "Feature", "geometry": {"type": "Point", "coordinates": [-91.3033676, 30.8034321]}, "properties": {"addr:city": "St Francisville", "addr:housenumber": "11907", "addr:state": "LA", "addr:street": "LA 965", "amenity": "public_bath", "amenity_1": "laundry", "capacity": "42", "internet_access": "wlan", "internet_access:fee": "customers", "name": "Peaceful Pines RV Park", "phone": "+1 225-635-4903", "power_supply": "yes", "reservation": "required", "sanitary_dump_station": "yes", "tourism": "caravan_site", "website": "https://www.peacefulpinesrvpark.com/", "osm_id": 991053122}}, {"type": "Feature", "geometry": {"type": "Point", "coordinates": [-89.1338289, 30.7935909]}, "properties": {"name": "Perk Beach RV Park", "tourism": "caravan_site", "osm_id": 997253354}}, {"type": "Feature", "geometry": {"type": "Point", "coordinates": [-90.5356458, 30.4804041]}, "properties": {"addr:city": "Hammond", "addr:housenumber": "43037", "addr:postcode": "70403", "addr:state": "LA", "addr:street": "N Billville Rd", "name": "Punkin Lakeside RV park", "tourism": "caravan_site", "osm_id": 1032771718}}, {"type": "Feature", "geometry": {"type": "Point", "coordinates": [-90.0138803, 34.9452354]}, "properties": {"tourism": "camp_site", "osm_id": 1049493234}}, {"type": "Feature", "geometry": {"type": "Point", "coordinates": [-88.6494358, 32.3690359]}, "properties": {"name": "Bonita Lakes RV Park", "tourism": "caravan_site", "osm_id": 1066898395}}, {"type": "Feature", "geometry": {"type": "Point", "coordinates": [-88.6511119, 32.4185659]}, "properties": {"tourism": "caravan_site", "osm_id": 1068356754}}, {"type": "Feature", "geometry": {"type": "Point", "coordinates": [-89.1502194, 32.7600634]}, "properties": {"tourism": "caravan_site", "osm_id": 1076332941}}, {"type": "Feature", "geometry": {"type": "Point", "coordinates": [-88.4789067, 32.0230756]}, "properties": {"tourism": "camp_site", "osm_id": 1080634096}}, {"type": "Feature", "geometry": {"type": "Point", "coordinates": [-89.781092, 33.8055104]}, "properties": {"tourism": "camp_site", "osm_id": 1080804031}}, {"type": "Feature", "geometry": {"type": "Point", "coordinates": [-89.7775864, 33.8472165]}, "properties": {"name": "North Abutment Campground", "tourism": "camp_site", "osm_id": 1080819411}}, {"type": "Feature", "geometry": {"type": "Point", "coordinates": [-91.2772169, 33.2963626]}, "properties": {"addr:housenumber": "3768", "fee": "yes", "name": "Pecan Grove RV Park", "phone": "+1-870-265-3005", "tourism": "camp_site", "website": "http://www.pecangrove.net/", "osm_id": 1080835716}}, {"type": "Feature", "geometry": {"type": "Point", "coordinates": [-91.4947868, 32.4368732]}, "properties": {"tourism": "caravan_site", "osm_id": 1087333157}}, {"type": "Feature", "geometry": {"type": "Point", "coordinates": [-89.1341477, 30.7904861]}, "properties": {"tourism": "caravan_site", "osm_id": 1107193378}}, {"type": "Feature", "geometry": {"type": "Point", "coordinates": [-90.6432666, 33.4487241]}, "properties": {"name": "Willie's Last Resort", "tourism": "caravan_site", "osm_id": 1111617507}}, {"type": "Feature", "geometry": {"type": "Point", "coordinates": [-89.1479279, 33.275165]}, "properties": {"name": "Choctaw Lake Recreation Area", "tourism": "camp_site", "osm_id": 1161947157}}, {"type": "Feature", "geometry": {"type": "Point", "coordinates": [-89.9161893, 32.5072655]}, "properties": {"access": "private", "club": "outdoor", "name": "Cane Creek Outdoor CLub", "tourism": "caravan_site", "osm_id": 1184085801}}, {"type": "Feature", "geometry": {"type": "Point", "coordinates": [-89.9337459, 32.505296]}, "properties": {"name": "Sunset RV Park", "tourism": "camp_site", "osm_id": 1184086303}}, {"type": "Feature", "geometry": {"type": "Point", "coordinates": [-90.9212917, 32.2382687]}, "properties": {"name": "Rivertown Rose Campground", "tourism": "camp_site", "osm_id": 1184372114}}, {"type": "Feature", "geometry": {"type": "Point", "coordinates": [-90.8958602, 32.2998638]}, "properties": {"name": "Quilly's Magnolia RV Park", "tourism": "caravan_site", "osm_id": 1184372758}}, {"type": "Feature", "geometry": {"type": "Point", "coordinates": [-90.8957074, 32.3153837]}, "properties": {"addr:city": "Vicksburg", "addr:housenumber": "725", "addr:postcode": "39183", "addr:state": "MS", "addr:street": "Lucy Bryson Street", "name": "Ameristar RV Park", "tourism": "caravan_site", "osm_id": 1184374213}}, {"type": "Feature", "geometry": {"type": "Point", "coordinates": [-90.6282668, 32.3685484]}, "properties": {"name": "Askew's Landing RV Campground", "tourism": "camp_site", "osm_id": 1184551546}}, {"type": "Feature", "geometry": {"type": "Point", "coordinates": [-89.3148206, 31.1903083]}, "properties": {"addr:city": "Hattiesburg", "addr:country": "US", "addr:housenumber": "67", "addr:postcode": "39401", "addr:state": "MS", "addr:street": "Lomas Road", "cabins": "yes", "capacity:cabins": "6", "contact:website": "https://www.mselks.com/elks-camp", "group_only": "yes", "name": "Mississippi Elks Camp", "operator": "Elks Lodge", "tourism": "camp_site", "osm_id": 1184855391}}, {"type": "Feature", "geometry": {"type": "Point", "coordinates": [-88.8180621, 34.1450997]}, "properties": {"name": "Natchez Trace RV Park", "tourism": "caravan_site", "osm_id": 1185857927}}, {"type": "Feature", "geometry": {"type": "Point", "coordinates": [-91.2859984, 31.5733485]}, "properties": {"addr:city": "Natchez", "addr:housenumber": "91", "addr:postcode": "39120", "addr:state": "MS", "addr:street": "Old U.S. 84", "addr:unit": "1", "name": "Lee Estates RV Park", "opening_hours": "Mo-Su 09:00-17:00", "phone": "+1-601-431-4424", "tourism": "caravan_site", "website": "https://www.leervpark.com/", "osm_id": 1186108452}}, {"type": "Feature", "geometry": {"type": "Point", "coordinates": [-90.0837202, 32.6090448]}, "properties": {"name": "Movietown RV Park", "tourism": "caravan_site", "osm_id": 1187716215}}, {"type": "Feature", "geometry": {"type": "Point", "coordinates": [-90.0776578, 32.5900177]}, "properties": {"tourism": "caravan_site", "osm_id": 1187716825}}, {"type": "Feature", "geometry": {"type": "Point", "coordinates": [-88.41701, 30.8611186]}, "properties": {"tourism": "caravan_site", "osm_id": 1191281297}}, {"type": "Feature", "geometry": {"type": "Point", "coordinates": [-89.0502297, 33.3412553]}, "properties": {"fee": "yes", "fixme": "needs border verification", "internet_access": "no", "power_supply": "yes", "reservation": "yes", "sanitary_dump_station": "yes", "tourism": "caravan_site", "osm_id": 1220649463}}, {"type": "Feature", "geometry": {"type": "Point", "coordinates": [-89.8401597, 33.8623476]}, "properties": {"tourism": "caravan_site", "osm_id": 1261931022}}, {"type": "Feature", "geometry": {"type": "Point", "coordinates": [-90.2939855, 34.8443746]}, "properties": {"name": "Mid-South RV Park (Closed)", "tourism": "caravan_site", "osm_id": 1285721140}}, {"type": "Feature", "geometry": {"type": "Point", "coordinates": [-88.130731, 30.710895]}, "properties": {"tourism": "caravan_site", "osm_id": 1290053285}}, {"type": "Feature", "geometry": {"type": "Point", "coordinates": [-88.1065813, 30.6529872]}, "properties": {"tourism": "caravan_site", "osm_id": 1291163963}}, {"type": "Feature", "geometry": {"type": "Point", "coordinates": [-88.1556755, 30.6167621]}, "properties": {"tourism": "caravan_site", "osm_id": 1291892851}}, {"type": "Feature", "geometry": {"type": "Point", "coordinates": [-88.1583202, 30.6081656]}, "properties": {"tourism": "caravan_site", "osm_id": 1291892859}}, {"type": "Feature", "geometry": {"type": "Point", "coordinates": [-88.1805907, 30.5785503]}, "properties": {"tourism": "caravan_site", "osm_id": 1292153987}}, {"type": "Feature", "geometry": {"type": "Point", "coordinates": [-88.1984435, 30.5722465]}, "properties": {"tourism": "caravan_site", "osm_id": 1292179883}}, {"type": "Feature", "geometry": {"type": "Point", "coordinates": [-88.2035061, 30.5707273]}, "properties": {"tourism": "caravan_site", "osm_id": 1292179884}}, {"type": "Feature", "geometry": {"type": "Point", "coordinates": [-88.2186696, 30.5762693]}, "properties": {"tourism": "caravan_site", "osm_id": 1292188394}}, {"type": "Feature", "geometry": {"type": "Point", "coordinates": [-88.1798505, 30.5608088]}, "properties": {"tourism": "caravan_site", "osm_id": 1292846521}}, {"type": "Feature", "geometry": {"type": "Point", "coordinates": [-88.1924651, 30.5592167]}, "properties": {"tourism": "caravan_site", "osm_id": 1292846526}}, {"type": "Feature", "geometry": {"type": "Point", "coordinates": [-88.1001292, 30.5482852]}, "properties": {"name": "Riverchase Mobile Home Park", "tourism": "caravan_site", "osm_id": 1293508996}}, {"type": "Feature", "geometry": {"type": "Point", "coordinates": [-88.3946506, 30.6165044]}, "properties": {"name": "Camp Huck-a-Berry", "tourism": "camp_site", "osm_id": 1303935524}}, {"type": "Feature", "geometry": {"type": "Point", "coordinates": [-88.099374, 30.7774287]}, "properties": {"name": "RV Camping", "tourism": "caravan_site", "osm_id": 1363866556}}, {"type": "Feature", "geometry": {"type": "Point", "coordinates": [-88.1010227, 30.7799411]}, "properties": {"name": "Tent Camping", "tourism": "camp_site", "osm_id": 1363866557}}, {"type": "Feature", "geometry": {"type": "Point", "coordinates": [-89.1056549, 30.4864962]}, "properties": {"addr:city": "Gulfport", "addr:housenumber": "14031", "addr:postcode": "39503", "addr:state": "MS", "addr:street": "US 49", "brand": "KOA", "brand:wikidata": "Q16988635", "internet_access": "wlan", "name": "KOA Holiday", "power_supply": "yes", "tourism": "caravan_site", "website": "https://koa.com/campgrounds/gulfport/", "osm_id": 1366705124}}, {"type": "Feature", "geometry": {"type": "Point", "coordinates": [-91.1367693, 31.8718312]}, "properties": {"tourism": "caravan_site", "osm_id": 1374856208}}, {"type": "Feature", "geometry": {"type": "Point", "coordinates": [-88.1937213, 32.6218766]}, "properties": {"tourism": "caravan_site", "osm_id": 1424496572}}, {"type": "Feature", "geometry": {"type": "Point", "coordinates": [-91.1481224, 30.3497296]}, "properties": {"addr:city": "Baton Rouge", "addr:housenumber": "15001", "addr:postcode": "70820", "addr:state": "LA", "addr:street": "River Road", "name": "Tiger's Trail RV Resort", "tourism": "caravan_site", "website": "https://tigerstrailrvresort.com/", "osm_id": 1473699599}}, {"type": "Feature", "geometry": {"type": "Point", "coordinates": [-89.1363733, 30.8758172]}, "properties": {"boundary": "camp_site", "fee": "yes", "name": "Flint Creek Water Park Campground", "power_supply": "yes", "tourism": "camp_site", "type": "boundary", "osm_id": 7681389}}, {"type": "Feature", "geometry": {"type": "Point", "coordinates": [-88.1962506, 34.6183274]}, "properties": {"capacity:caravans": "62", "caravans": "yes", "charge": "22 USD", "drinking_water": "yes", "fee": "yes", "name": "Tishamingo State Park Campground", "power_supply": "yes", "shower": "yes", "tents": "yes", "tourism": "camp_site", "type": "multipolygon", "website": "https://www.mdwfp.com/parks-destinations/state-parks/tishomingo/camping/", "osm_id": 9485657}}, {"type": "Feature", "geometry": {"type": "Point", "coordinates": [-88.9405146, 34.0457048]}, "properties": {"capacity": "26", "fee": "yes", "name": "Davis Lake Campground", "operator": "United States Forest Service", "operator:short": "USFS", "operator:type": "public", "operator:wikidata": "Q1891156", "ownership": "national", "power_supply": "yes", "sanitary_dump_station": "yes", "shower": "yes", "tourism": "camp_site", "type": "multipolygon", "website": "https://www.fs.usda.gov/recarea/mississippi/recreation/recarea/?recid=28863", "osm_id": 12492016}}, {"type": "Feature", "geometry": {"type": "Point", "coordinates": [-90.0410025, 32.3878581]}, "properties": {"name": "Timberlake Campground", "tourism": "camp_site", "type": "multipolygon", "osm_id": 16059530}}, {"type": "Feature", "geometry": {"type": "Point", "coordinates": [-88.1378746, 30.7720463]}, "properties": {"tourism": "caravan_site", "type": "multipolygon", "osm_id": 17748320}}, {"type": "Feature", "geometry": {"type": "Point", "coordinates": [-88.1590537, 30.8125951]}, "properties": {"tourism": "caravan_site", "type": "multipolygon", "osm_id": 17766425}}, {"type": "Feature", "geometry": {"type": "Point", "coordinates": [-88.2318408, 30.6982128]}, "properties": {"tourism": "caravan_site", "type": "multipolygon", "osm_id": 17796922}}, {"type": "Feature", "geometry": {"type": "Point", "coordinates": [-88.2037115, 30.7520097]}, "properties": {"tourism": "caravan_site", "type": "multipolygon", "osm_id": 17807967}}, {"type": "Feature", "geometry": {"type": "Point", "coordinates": [-88.2548206, 30.7806002]}, "properties": {"tourism": "caravan_site", "type": "multipolygon", "osm_id": 17808112}}, {"type": "Feature", "geometry": {"type": "Point", "coordinates": [-88.2229828, 30.768901]}, "properties": {"tourism": "caravan_site", "type": "multipolygon", "osm_id": 17810774}}, {"type": "Feature", "geometry": {"type": "Point", "coordinates": [-88.2219928, 30.7611938]}, "properties": {"tourism": "caravan_site", "type": "multipolygon", "osm_id": 17810778}}, {"type": "Feature", "geometry": {"type": "Point", "coordinates": [-88.2362519, 30.6706872]}, "properties": {"tourism": "caravan_site", "type": "multipolygon", "osm_id": 17871400}}, {"type": "Feature", "geometry": {"type": "Point", "coordinates": [-88.2275471, 30.6631047]}, "properties": {"tourism": "caravan_site", "type": "multipolygon", "osm_id": 17871404}}, {"type": "Feature", "geometry": {"type": "Point", "coordinates": [-88.2583377, 30.3828773]}, "properties": {"alt_name": "Dockside RV Resort & Alabama Gulf Coast Campground", "name": "Dockside RV Resort", "tourism": "camp_site", "type": "multipolygon", "osm_id": 17874039}}, {"type": "Feature", "geometry": {"type": "Point", "coordinates": [-88.1141727, 30.3679462]}, "properties": {"tourism": "caravan_site", "type": "multipolygon", "osm_id": 17874859}}, {"type": "Feature", "geometry": {"type": "Point", "coordinates": [-88.2285672, 30.7171519]}, "properties": {"tourism": "caravan_site", "type": "multipolygon", "osm_id": 17889661}}, {"type": "Feature", "geometry": {"type": "Point", "coordinates": [-88.339695, 30.4909135]}, "properties": {"tourism": "caravan_site", "type": "multipolygon", "osm_id": 18728263}}]}