{"type": "FeatureCollection", "features": [{"type": "Feature", "geometry": {"type": "Point", "coordinates": [-119.0905565, 37.6824214]}, "properties": {"attribution": "Mono County GIS", "fee": "yes", "name": "Agnew Meadows Campground", "reservation": "no", "tourism": "camp_site", "type": "multipolygon", "website": "https://www.fs.usda.gov/recarea/inyo/recarea/?recid=20508", "osm_id": 288298}}, {"type": "Feature", "geometry": {"type": "Point", "coordinates": [-119.0765509, 37.6530106]}, "properties": {"HostOnSite": "Yes", "addr:street": "203", "attribution": "Mono County GIS", "name": "Soda Springs Campground", "tourism": "camp_site", "type": "multipolygon", "osm_id": 288299}}, {"type": "Feature", "geometry": {"type": "Point", "coordinates": [-118.8125125, 36.6345084]}, "properties": {"gnis:feature_id": "259500", "name": "Dorst Creek Campground", "tourism": "camp_site", "type": "multipolygon", "wikidata": "Q63686097", "osm_id": 3169900}}, {"type": "Feature", "geometry": {"type": "Point", "coordinates": [-118.7232051, 36.6051478]}, "properties": {"name": "Lodgepole Campground", "tourism": "camp_site", "type": "multipolygon", "wikidata": "Q63686113", "osm_id": 3170026}}, {"type": "Feature", "geometry": {"type": "Point", "coordinates": [-119.1568083, 37.0707414]}, "properties": {"capacity": "128", "fee": "yes", "name": "Dinkey Creek Campground", "reservation": "recommended", "tourism": "camp_site", "type": "multipolygon", "website": "https://www.fs.usda.gov/recarea/sierra/recarea/?recid=45430", "osm_id": 13100844}}, {"type": "Feature", "geometry": {"type": "Point", "coordinates": [-119.9628992, 39.5142137]}, "properties": {"addr:city": "Verdi", "addr:county": "Washoe", "addr:housenumber": "2100", "addr:postcode": "89439", "addr:state": "NV", "addr:street": "Interstate 80 West", "branch": "Reno", "brand": "KOA", "brand:wikidata": "Q16988635", "capacity:caravans": "203", "email": "reno@koa.com", "emergency:phone": "+1-775-345-8709", "fax": "+1-775-345-2451", "fee": "yes", "internet_access": "wlan", "internet_access:fee": "no", "internet_access:ssid": "KOA-Wifi", "name": "Reno KOA Journey At Boomtown", "operator": "KOA", "phone": "+1-775-345-2444", "power_supply": "yes", "sanitary_dump_station": "yes", "short_name": "KOA", "tents": "no", "tourism": "caravan_site", "type": "multipolygon", "osm_id": 14375719}}, {"type": "Feature", "geometry": {"type": "Point", "coordinates": [-119.0249146, 36.9209762]}, "properties": {"name": "Blackrock Reservoir Campground", "tourism": "camp_site", "type": "multipolygon", "osm_id": 14519799}}, {"type": "Feature", "geometry": {"type": "Point", "coordinates": [-119.1997049, 40.7754181]}, "properties": {"addr:street": "4:00 & E", "capacity:persons": "400", "check_date": "2025-07-24", "contact:facebook": "https://facebook.com/groups/AlternativeEnergyZone", "contact:instagram": "https://instagram.com/explore/tags/alternativeenergyzone", "end_date": "2025-09-04", "full_name": "The Alternative Energy Zone", "name": "Alternative Energy Zone (AEZ)", "short_name": "AEZ", "tourism": "camp_site", "type": "multipolygon", "website": "https://aezone.wixsite.com/ae-zone", "osm_id": 19455286}}, {"type": "Feature", "geometry": {"type": "Point", "coordinates": [-119.3571582, 37.8721532]}, "properties": {"addr:city": "Yosemite Valley", "addr:postcode": "95389", "addr:state": "CA", "addr:street": "Tioga Pass Road", "description": "NPS campground, undergoing rehabilitation. Closed to all traffic, closed to the public. No camping, no through fare.", "fee": "yes", "name": "Tuolumne Meadows Campground", "operator": "National Park Service", "reservation": "required", "tourism": "camp_site", "type": "multipolygon", "wikidata": "Q63707340", "osm_id": 19463112}}]}