{"type": "FeatureCollection", "features": [{"type": "Feature", "geometry": {"type": "Point", "coordinates": [-98.4714831, 35.1653402]}, "properties": {"access": "yes", "name": "Eagle Nest Campground/ Ft Cobb SP", "operator": "Ft Cobb State Park", "tourism": "camp_site", "osm_id": 144853921}}, {"type": "Feature", "geometry": {"type": "Point", "coordinates": [-98.4076104, 36.3417556]}, "properties": {"tourism": "camp_site", "osm_id": 940353484}}, {"type": "Feature", "geometry": {"type": "Point", "coordinates": [-98.4049925, 36.3401481]}, "properties": {"tourism": "camp_site", "osm_id": 940353485}}, {"type": "Feature", "geometry": {"type": "Point", "coordinates": [-98.4034261, 36.3403642]}, "properties": {"tourism": "camp_site", "osm_id": 940353486}}, {"type": "Feature", "geometry": {"type": "Point", "coordinates": [-98.4027288, 36.3407358]}, "properties": {"tourism": "camp_site", "osm_id": 940353509}}, {"type": "Feature", "geometry": {"type": "Point", "coordinates": [-98.4026215, 36.3437778]}, "properties": {"tourism": "camp_site", "osm_id": 940353689}}, {"type": "Feature", "geometry": {"type": "Point", "coordinates": [-98.4065268, 36.3432074]}, "properties": {"tourism": "camp_site", "osm_id": 940353757}}, {"type": "Feature", "geometry": {"type": "Point", "coordinates": [-98.4078786, 36.3457826]}, "properties": {"tourism": "camp_site", "osm_id": 940353863}}, {"type": "Feature", "geometry": {"type": "Point", "coordinates": [-98.4078249, 36.3444864]}, "properties": {"tourism": "camp_site", "osm_id": 940353933}}, {"type": "Feature", "geometry": {"type": "Point", "coordinates": [-98.4075353, 36.3423259]}, "properties": {"tourism": "camp_site", "osm_id": 940353990}}, {"type": "Feature", "geometry": {"type": "Point", "coordinates": [-98.406913, 36.3412457]}, "properties": {"tourism": "camp_site", "osm_id": 940354045}}, {"type": "Feature", "geometry": {"type": "Point", "coordinates": [-98.4064087, 36.3418679]}, "properties": {"tourism": "camp_site", "osm_id": 940354100}}, {"type": "Feature", "geometry": {"type": "Point", "coordinates": [-98.4071919, 36.3406494]}, "properties": {"tourism": "camp_site", "osm_id": 940354191}}, {"type": "Feature", "geometry": {"type": "Point", "coordinates": [-98.4078786, 36.3410296]}, "properties": {"tourism": "camp_site", "osm_id": 940354257}}, {"type": "Feature", "geometry": {"type": "Point", "coordinates": [-98.4066984, 36.3443654]}, "properties": {"tourism": "camp_site", "osm_id": 940354430}}, {"type": "Feature", "geometry": {"type": "Point", "coordinates": [-98.4069988, 36.3429827]}, "properties": {"tourism": "camp_site", "osm_id": 940354470}}, {"type": "Feature", "geometry": {"type": "Point", "coordinates": [-98.4026966, 36.337953]}, "properties": {"tourism": "camp_site", "osm_id": 940354686}}, {"type": "Feature", "geometry": {"type": "Point", "coordinates": [-98.4030077, 36.3391283]}, "properties": {"tourism": "camp_site", "osm_id": 940354746}}, {"type": "Feature", "geometry": {"type": "Point", "coordinates": [-102.8858419, 36.840753]}, "properties": {"name": "West Canyon Area", "operator": "Black Mesa State Park", "tourism": "camp_site", "website": "https://okstateparks.reserveamerica.com/camping/black-mesa-state-park/r/campgroundDetails.do?contractCode=OK&parkId=1260033", "osm_id": 1346174074}}, {"type": "Feature", "geometry": {"type": "Point", "coordinates": [-102.8823705, 36.8475173]}, "properties": {"name": "youth group camp", "tourism": "camp_site", "osm_id": 1346174086}}, {"type": "Feature", "geometry": {"type": "Point", "coordinates": [-102.8824303, 36.8424477]}, "properties": {"tourism": "camp_site", "osm_id": 1346174118}}, {"type": "Feature", "geometry": {"type": "Point", "coordinates": [-102.8820339, 36.8412628]}, "properties": {"sanitary_dump_station": "yes", "tourism": "camp_site", "osm_id": 1346174122}}, {"type": "Feature", "geometry": {"type": "Point", "coordinates": [-102.8823119, 36.840425]}, "properties": {"name": "Black Mesa State Park Campground", "tourism": "camp_site", "osm_id": 1346174177}}, {"type": "Feature", "geometry": {"type": "Point", "coordinates": [-102.877918, 36.8463137]}, "properties": {"capacity:tents": "6", "caravans": "no", "name": "Lakeview Area", "operator": "Black Mesa State Park", "static_caravans": "no", "tents": "yes", "tourism": "camp_site", "osm_id": 1346174188}}, {"type": "Feature", "geometry": {"type": "Point", "coordinates": [-96.1724502, 36.374457]}, "properties": {"designation": "MSE BO2", "name": "BO2 Base Camp", "source": "GPS", "tourism": "camp_site", "osm_id": 1400364657}}, {"type": "Feature", "geometry": {"type": "Point", "coordinates": [-95.676174, 35.9459137]}, "properties": {"name": "Home Base", "tourism": "camp_site", "osm_id": 1502427244}}, {"type": "Feature", "geometry": {"type": "Point", "coordinates": [-97.2384755, 35.2482684]}, "properties": {"caravans": "yes", "email": "susie.snider@travelok.com", "fee": "yes", "name": "Hog Creek Campground", "phone": "+1 405 360 3572", "reservation": "recommended", "sanitary_dump_station": "no", "shower": "no", "tents": "yes", "toilets": "yes", "tourism": "camp_site", "website": "https://www.travelok.com/state-parks/4386", "osm_id": 2152530437}}, {"type": "Feature", "geometry": {"type": "Point", "coordinates": [-94.9313245, 34.5282421]}, "properties": {"name": "Christ's 40 Acres", "tourism": "camp_site", "osm_id": 2273730551}}, {"type": "Feature", "geometry": {"type": "Point", "coordinates": [-99.722498, 35.721427]}, "properties": {"name": "Black Kettle Campground", "operator": "USFS", "source": "www.fs.usda.gov", "tourism": "camp_site", "uuid": "sonora_20130605", "osm_id": 2333697949}}, {"type": "Feature", "geometry": {"type": "Point", "coordinates": [-100.864771, 35.2121795]}, "properties": {"name": "East Bluff #1 Campground", "operator": "USFS", "source": "www.fs.usda.gov", "tourism": "camp_site", "uuid": "sonora_20130605", "osm_id": 2333697961}}, {"type": "Feature", "geometry": {"type": "Point", "coordinates": [-100.857724, 35.206211]}, "properties": {"name": "East Bluff #2 Campground", "operator": "USFS", "source": "www.fs.usda.gov", "tourism": "camp_site", "uuid": "sonora_20130605", "osm_id": 2333697962}}, {"type": "Feature", "geometry": {"type": "Point", "coordinates": [-100.859403, 35.204536]}, "properties": {"name": "East Bluff #3 Campground", "operator": "USFS", "source": "www.fs.usda.gov", "tourism": "camp_site", "uuid": "sonora_20130605", "osm_id": 2333697964}}, {"type": "Feature", "geometry": {"type": "Point", "coordinates": [-100.1806359, 35.886002]}, "properties": {"name": "Lake Marvin Campground", "operator": "USFS", "source": "www.fs.usda.gov", "tourism": "camp_site", "uuid": "sonora_20130605", "osm_id": 2333697981}}, {"type": "Feature", "geometry": {"type": "Point", "coordinates": [-100.8736514, 35.2049733]}, "properties": {"name": "Lake McClellan Campground", "operator": "USFS", "source": "www.fs.usda.gov", "tourism": "camp_site", "uuid": "sonora_20130605", "osm_id": 2333697983}}, {"type": "Feature", "geometry": {"type": "Point", "coordinates": [-100.864008, 35.21]}, "properties": {"name": "Mcdowell Campground", "operator": "USFS", "source": "www.fs.usda.gov", "tourism": "camp_site", "uuid": "sonora_20130605", "osm_id": 2333697989}}, {"type": "Feature", "geometry": {"type": "Point", "coordinates": [-99.879331, 35.636531]}, "properties": {"caravans": "yes", "drinking_water": "yes", "name": "Skipout Campground", "operator": "United States Forest Service", "power_supply": "no", "shower": "no", "source": "www.fs.usda.gov", "tents": "yes", "toilets": "yes", "tourism": "camp_site", "uuid": "sonora_20130605", "website": "https://www.fs.usda.gov/recarea/cibola/recarea/?recid=64094", "osm_id": 2333697995}}, {"type": "Feature", "geometry": {"type": "Point", "coordinates": [-99.834603, 35.770385]}, "properties": {"name": "Spring Creek Campground", "operator": "USFS", "source": "www.fs.usda.gov", "tourism": "camp_site", "uuid": "sonora_20130605", "osm_id": 2333697999}}, {"type": "Feature", "geometry": {"type": "Point", "coordinates": [-95.9738, 33.7372]}, "properties": {"name": "East Coffee Mill Lake Recreation Area", "operator": "USFS", "source": "www.fs.usda.gov", "tourism": "camp_site", "uuid": "sonora_20130614", "osm_id": 2344725088}}, {"type": "Feature", "geometry": {"type": "Point", "coordinates": [-95.9218, 33.73763]}, "properties": {"name": "East Lake Crockett Recreation Area", "operator": "USFS", "source": "www.fs.usda.gov", "tourism": "camp_site", "uuid": "sonora_20130614", "osm_id": 2344725089}}, {"type": "Feature", "geometry": {"type": "Point", "coordinates": [-95.9285, 33.7368]}, "properties": {"name": "West Lake Crockett Recreation Area", "operator": "USFS", "source": "www.fs.usda.gov", "tourism": "camp_site", "uuid": "sonora_20130614", "osm_id": 2344725099}}, {"type": "Feature", "geometry": {"type": "Point", "coordinates": [-96.6133379, 33.8197294]}, "properties": {"name": "Cedar Hollow Group Trailer Area", "tourism": "caravan_site", "osm_id": 2918199875}}, {"type": "Feature", "geometry": {"type": "Point", "coordinates": [-101.156196, 36.6535471]}, "properties": {"leisure": "park", "name": "Hardesty Park", "tourism": "camp_site", "osm_id": 2926939804}}, {"type": "Feature", "geometry": {"type": "Point", "coordinates": [-101.1635203, 36.6719805]}, "properties": {"leisure": "park", "name": "Prairie Dog Point", "tourism": "camp_site", "osm_id": 2926939805}}, {"type": "Feature", "geometry": {"type": "Point", "coordinates": [-98.6452937, 34.7174611]}, "properties": {"name": "Doris Camp", "tourism": "camp_site", "osm_id": 3252990098}}, {"type": "Feature", "geometry": {"type": "Point", "coordinates": [-97.2053142, 36.1192703]}, "properties": {"tourism": "caravan_site", "osm_id": 3409244613}}, {"type": "Feature", "geometry": {"type": "Point", "coordinates": [-97.2115106, 36.1275745]}, "properties": {"tourism": "caravan_site", "osm_id": 3409244664}}, {"type": "Feature", "geometry": {"type": "Point", "coordinates": [-97.1923482, 36.1444758]}, "properties": {"tourism": "caravan_site", "osm_id": 3409244665}}, {"type": "Feature", "geometry": {"type": "Point", "coordinates": [-97.0503685, 35.9844622]}, "properties": {"tourism": "caravan_site", "osm_id": 3409244666}}, {"type": "Feature", "geometry": {"type": "Point", "coordinates": [-97.143434, 36.114651]}, "properties": {"tourism": "caravan_site", "osm_id": 3409244808}}, {"type": "Feature", "geometry": {"type": "Point", "coordinates": [-97.1676105, 36.1153026]}, "properties": {"tourism": "caravan_site", "osm_id": 3409244809}}, {"type": "Feature", "geometry": {"type": "Point", "coordinates": [-97.2062186, 36.1207483]}, "properties": {"tourism": "caravan_site", "osm_id": 3409244810}}, {"type": "Feature", "geometry": {"type": "Point", "coordinates": [-97.2041862, 36.123359]}, "properties": {"tourism": "caravan_site", "osm_id": 3409244811}}, {"type": "Feature", "geometry": {"type": "Point", "coordinates": [-97.2091488, 36.1245059]}, "properties": {"tourism": "caravan_site", "osm_id": 3409244812}}, {"type": "Feature", "geometry": {"type": "Point", "coordinates": [-97.2126974, 36.128262]}, "properties": {"tourism": "caravan_site", "osm_id": 3409244813}}, {"type": "Feature", "geometry": {"type": "Point", "coordinates": [-97.1907894, 36.1698718]}, "properties": {"tourism": "caravan_site", "osm_id": 3409244814}}, {"type": "Feature", "geometry": {"type": "Point", "coordinates": [-97.0057675, 36.1285426]}, "properties": {"tourism": "caravan_site", "osm_id": 3409244815}}, {"type": "Feature", "geometry": {"type": "Point", "coordinates": [-97.2303857, 36.1020668]}, "properties": {"tourism": "caravan_site", "osm_id": 3409245386}}, {"type": "Feature", "geometry": {"type": "Point", "coordinates": [-97.2151469, 36.1297074]}, "properties": {"tourism": "caravan_site", "osm_id": 3409245387}}, {"type": "Feature", "geometry": {"type": "Point", "coordinates": [-97.2186386, 36.1284213]}, "properties": {"tourism": "caravan_site", "osm_id": 3409245388}}, {"type": "Feature", "geometry": {"type": "Point", "coordinates": [-97.2202244, 36.1300503]}, "properties": {"tourism": "caravan_site", "osm_id": 3409245389}}, {"type": "Feature", "geometry": {"type": "Point", "coordinates": [-97.2011234, 36.1164356]}, "properties": {"tourism": "caravan_site", "osm_id": 3409245390}}, {"type": "Feature", "geometry": {"type": "Point", "coordinates": [-97.199555, 36.1188608]}, "properties": {"tourism": "caravan_site", "osm_id": 3409245391}}, {"type": "Feature", "geometry": {"type": "Point", "coordinates": [-97.1996124, 36.1223967]}, "properties": {"tourism": "caravan_site", "osm_id": 3409245392}}, {"type": "Feature", "geometry": {"type": "Point", "coordinates": [-97.0502458, 36.0875138]}, "properties": {"tourism": "caravan_site", "osm_id": 3409245564}}, {"type": "Feature", "geometry": {"type": "Point", "coordinates": [-97.0471731, 36.0227556]}, "properties": {"tourism": "caravan_site", "osm_id": 3409245565}}, {"type": "Feature", "geometry": {"type": "Point", "coordinates": [-96.7716036, 33.8104134]}, "properties": {"addr:city": "Pottsboro", "addr:housenumber": "418", "addr:postcode": "75076", "addr:state": "TX", "addr:street": "Stanton Way", "name": "All Saints Camp & Conference Center", "operator": "Episcopal Diocese of Dallas, Texas", "phone": "+1-903-786-3148", "tourism": "camp_site", "website": "https://www.campallsaints.com/", "osm_id": 3524689367}}, {"type": "Feature", "geometry": {"type": "Point", "coordinates": [-96.5631411, 35.80687]}, "properties": {"addr:city": "Depew", "addr:housenumber": "24601", "addr:postcode": "74028", "addr:state": "OK", "addr:street": "Milfay Road", "name": "Oaklake Trails Naturist Park", "phone": "+1-918-324-5999", "tourism": "camp_site", "website": "http://www.OaklakeTrails.com/", "osm_id": 3559659352}}, {"type": "Feature", "geometry": {"type": "Point", "coordinates": [-97.4380896, 35.2335281]}, "properties": {"name": "Cleveland County Fair RV Site", "tourism": "caravan_site", "osm_id": 3649298000}}, {"type": "Feature", "geometry": {"type": "Point", "coordinates": [-96.2468618, 36.1496071]}, "properties": {"tourism": "caravan_site", "osm_id": 3700498959}}, {"type": "Feature", "geometry": {"type": "Point", "coordinates": [-96.226219, 36.209133]}, "properties": {"tourism": "caravan_site", "osm_id": 3700499429}}, {"type": "Feature", "geometry": {"type": "Point", "coordinates": [-95.8299332, 34.407729]}, "properties": {"tourism": "camp_site", "osm_id": 3793018326}}, {"type": "Feature", "geometry": {"type": "Point", "coordinates": [-95.8806573, 34.3174943]}, "properties": {"name": "Unimproved Camping Area", "tourism": "camp_site", "osm_id": 3793661148}}, {"type": "Feature", "geometry": {"type": "Point", "coordinates": [-95.8775245, 34.3189653]}, "properties": {"name": "Unimproved Camping Area", "tourism": "camp_site", "osm_id": 3793661150}}, {"type": "Feature", "geometry": {"type": "Point", "coordinates": [-95.8764489, 34.3179392]}, "properties": {"name": "Buster Hight RV Camping", "tourism": "camp_site", "osm_id": 3793661151}}, {"type": "Feature", "geometry": {"type": "Point", "coordinates": [-94.426217, 36.8918782]}, "properties": {"tourism": "caravan_site", "osm_id": 3811393448}}, {"type": "Feature", "geometry": {"type": "Point", "coordinates": [-94.4328998, 36.9707465]}, "properties": {"tourism": "caravan_site", "osm_id": 3811393612}}, {"type": "Feature", "geometry": {"type": "Point", "coordinates": [-94.4266691, 36.9738071]}, "properties": {"tourism": "caravan_site", "osm_id": 3811393650}}, {"type": "Feature", "geometry": {"type": "Point", "coordinates": [-94.4137258, 36.7678882]}, "properties": {"tourism": "caravan_site", "osm_id": 3812030088}}, {"type": "Feature", "geometry": {"type": "Point", "coordinates": [-95.3449566, 34.9823896]}, "properties": {"tourism": "camp_site", "osm_id": 4024179767}}, {"type": "Feature", "geometry": {"type": "Point", "coordinates": [-95.3633078, 35.0032854]}, "properties": {"tourism": "camp_site", "osm_id": 4024180425}}, {"type": "Feature", "geometry": {"type": "Point", "coordinates": [-100.5136758, 36.8408499]}, "properties": {"name": "Beaver Dunes", "tourism": "camp_site", "osm_id": 4432988555}}, {"type": "Feature", "geometry": {"type": "Point", "coordinates": [-101.737068, 35.5465475]}, "properties": {"name": "McBride Canyon", "tourism": "camp_site", "osm_id": 4485808883}}, {"type": "Feature", "geometry": {"type": "Point", "coordinates": [-101.7344564, 35.5443793]}, "properties": {"name": "McBride Canyon", "tourism": "camp_site", "osm_id": 4485808885}}, {"type": "Feature", "geometry": {"type": "Point", "coordinates": [-101.7298466, 35.5416788]}, "properties": {"name": "McBride Canyon", "tourism": "camp_site", "osm_id": 4487733255}}, {"type": "Feature", "geometry": {"type": "Point", "coordinates": [-101.7319562, 35.542465]}, "properties": {"name": "McBride Canyon", "tourism": "camp_site", "osm_id": 4487733256}}, {"type": "Feature", "geometry": {"type": "Point", "coordinates": [-101.7330613, 35.5433991]}, "properties": {"name": "McBride Canyon", "tourism": "camp_site", "osm_id": 4487733257}}, {"type": "Feature", "geometry": {"type": "Point", "coordinates": [-101.7367198, 35.5521966]}, "properties": {"tourism": "camp_site", "osm_id": 4487734290}}, {"type": "Feature", "geometry": {"type": "Point", "coordinates": [-101.6422406, 35.6918686]}, "properties": {"name": "Chimney Hollow Campground", "tourism": "camp_site", "osm_id": 4487874323}}, {"type": "Feature", "geometry": {"type": "Point", "coordinates": [-101.753244, 35.526216]}, "properties": {"tourism": "camp_site", "osm_id": 4497647797}}, {"type": "Feature", "geometry": {"type": "Point", "coordinates": [-99.2134917, 35.4271595]}, "properties": {"addr:city": "Foss", "addr:housenumber": "21167", "addr:postcode": "73647", "addr:state": "OK", "addr:street": "Route 66 North", "drinking_water": "yes", "fee": "yes", "internet_access": "wlan", "name": "Elk City / Clinton KOA", "phone": "+1 580-592-4409", "power_supply": "yes", "tents": "yes", "tourism": "caravan_site", "website": "https://koa.com/campgrounds/elk-city/", "osm_id": 4641713140}}, {"type": "Feature", "geometry": {"type": "Point", "coordinates": [-101.1094581, 34.4481253]}, "properties": {"name": "South Prong Primitive Camping Area", "tourism": "camp_site", "osm_id": 4677598988}}, {"type": "Feature", "geometry": {"type": "Point", "coordinates": [-101.0821076, 34.4567599]}, "properties": {"name": "North Prong Primitive Camping Area", "tourism": "camp_site", "osm_id": 4677599120}}, {"type": "Feature", "geometry": {"type": "Point", "coordinates": [-101.0923912, 34.4408812]}, "properties": {"name": "55", "tourism": "camp_site", "osm_id": 4677599121}}, {"type": "Feature", "geometry": {"type": "Point", "coordinates": [-101.0925602, 34.4407363]}, "properties": {"name": "54", "tourism": "camp_site", "osm_id": 4677599122}}, {"type": "Feature", "geometry": {"type": "Point", "coordinates": [-101.092587, 34.4406202]}, "properties": {"name": "53", "tourism": "camp_site", "osm_id": 4677599123}}, {"type": "Feature", "geometry": {"type": "Point", "coordinates": [-101.0927345, 34.4405969]}, "properties": {"name": "52", "tourism": "camp_site", "osm_id": 4677599124}}, {"type": "Feature", "geometry": {"type": "Point", "coordinates": [-101.0927345, 34.4405129]}, "properties": {"name": "51", "tourism": "camp_site", "osm_id": 4677599125}}, {"type": "Feature", "geometry": {"type": "Point", "coordinates": [-101.0927882, 34.440306]}, "properties": {"name": "50", "tourism": "camp_site", "osm_id": 4677599126}}, {"type": "Feature", "geometry": {"type": "Point", "coordinates": [-101.0930296, 34.4401202]}, "properties": {"name": "49", "tourism": "camp_site", "osm_id": 4677599127}}, {"type": "Feature", "geometry": {"type": "Point", "coordinates": [-101.0931999, 34.4399278]}, "properties": {"name": "48", "tourism": "camp_site", "osm_id": 4677599128}}, {"type": "Feature", "geometry": {"type": "Point", "coordinates": [-101.0933233, 34.4398083]}, "properties": {"name": "47", "tourism": "camp_site", "osm_id": 4677599129}}, {"type": "Feature", "geometry": {"type": "Point", "coordinates": [-101.0936304, 34.43993]}, "properties": {"name": "46", "tourism": "camp_site", "osm_id": 4677599130}}, {"type": "Feature", "geometry": {"type": "Point", "coordinates": [-101.0937793, 34.4400019]}, "properties": {"name": "45", "tourism": "camp_site", "osm_id": 4677599131}}, {"type": "Feature", "geometry": {"type": "Point", "coordinates": [-101.0938852, 34.4401446]}, "properties": {"name": "44", "tourism": "camp_site", "osm_id": 4677599132}}, {"type": "Feature", "geometry": {"type": "Point", "coordinates": [-101.0939657, 34.440285]}, "properties": {"name": "43", "tourism": "camp_site", "osm_id": 4677599133}}, {"type": "Feature", "geometry": {"type": "Point", "coordinates": [-101.0940233, 34.440389]}, "properties": {"name": "42", "tourism": "camp_site", "osm_id": 4677599134}}, {"type": "Feature", "geometry": {"type": "Point", "coordinates": [-101.0942943, 34.4405505]}, "properties": {"name": "41", "tourism": "camp_site", "osm_id": 4677599135}}, {"type": "Feature", "geometry": {"type": "Point", "coordinates": [-101.093916, 34.4406456]}, "properties": {"name": "39", "tourism": "camp_site", "osm_id": 4677599136}}, {"type": "Feature", "geometry": {"type": "Point", "coordinates": [-101.0941883, 34.4407009]}, "properties": {"name": "40", "tourism": "camp_site", "osm_id": 4677599137}}, {"type": "Feature", "geometry": {"type": "Point", "coordinates": [-101.093904, 34.4409088]}, "properties": {"name": "38", "tourism": "camp_site", "osm_id": 4677599138}}, {"type": "Feature", "geometry": {"type": "Point", "coordinates": [-101.0936451, 34.4408867]}, "properties": {"name": "37", "tourism": "camp_site", "osm_id": 4677599139}}, {"type": "Feature", "geometry": {"type": "Point", "coordinates": [-101.0934064, 34.4410427]}, "properties": {"name": "36", "tourism": "camp_site", "osm_id": 4677599140}}, {"type": "Feature", "geometry": {"type": "Point", "coordinates": [-101.0524986, 34.4222415]}, "properties": {"name": "35", "tourism": "camp_site", "osm_id": 4704782369}}, {"type": "Feature", "geometry": {"type": "Point", "coordinates": [-101.0527387, 34.4220003]}, "properties": {"name": "34", "tourism": "camp_site", "osm_id": 4704782370}}, {"type": "Feature", "geometry": {"type": "Point", "coordinates": [-101.0522961, 34.4220556]}, "properties": {"name": "33", "tourism": "camp_site", "osm_id": 4704782371}}, {"type": "Feature", "geometry": {"type": "Point", "coordinates": [-101.0521044, 34.4216076]}, "properties": {"name": "31", "tourism": "camp_site", "osm_id": 4704782372}}, {"type": "Feature", "geometry": {"type": "Point", "coordinates": [-101.0527374, 34.4217669]}, "properties": {"name": "32", "tourism": "camp_site", "osm_id": 4704782373}}, {"type": "Feature", "geometry": {"type": "Point", "coordinates": [-101.0527293, 34.4216275]}, "properties": {"name": "30", "tourism": "camp_site", "osm_id": 4704782374}}, {"type": "Feature", "geometry": {"type": "Point", "coordinates": [-101.0526153, 34.4215467]}, "properties": {"name": "28", "tourism": "camp_site", "osm_id": 4704782375}}, {"type": "Feature", "geometry": {"type": "Point", "coordinates": [-101.0522063, 34.4213642]}, "properties": {"name": "29", "tourism": "camp_site", "osm_id": 4704782376}}, {"type": "Feature", "geometry": {"type": "Point", "coordinates": [-101.0524048, 34.4210522]}, "properties": {"name": "27", "tourism": "camp_site", "osm_id": 4704782377}}, {"type": "Feature", "geometry": {"type": "Point", "coordinates": [-101.0527239, 34.4213996]}, "properties": {"name": "26", "tourism": "camp_site", "osm_id": 4704782378}}, {"type": "Feature", "geometry": {"type": "Point", "coordinates": [-101.0529157, 34.4212525]}, "properties": {"name": "25", "tourism": "camp_site", "osm_id": 4704782379}}, {"type": "Feature", "geometry": {"type": "Point", "coordinates": [-101.0533288, 34.4210511]}, "properties": {"name": "23", "tourism": "camp_site", "osm_id": 4704782380}}, {"type": "Feature", "geometry": {"type": "Point", "coordinates": [-101.0531115, 34.4206982]}, "properties": {"name": "24", "tourism": "camp_site", "osm_id": 4704782381}}, {"type": "Feature", "geometry": {"type": "Point", "coordinates": [-101.0532523, 34.4204958]}, "properties": {"name": "22", "tourism": "camp_site", "osm_id": 4704782382}}, {"type": "Feature", "geometry": {"type": "Point", "coordinates": [-101.0536185, 34.4208221]}, "properties": {"name": "21", "tourism": "camp_site", "osm_id": 4704782383}}, {"type": "Feature", "geometry": {"type": "Point", "coordinates": [-101.0534937, 34.4202059]}, "properties": {"name": "20", "tourism": "camp_site", "osm_id": 4704782384}}, {"type": "Feature", "geometry": {"type": "Point", "coordinates": [-101.0538089, 34.4199703]}, "properties": {"name": "18", "tourism": "camp_site", "osm_id": 4704782385}}, {"type": "Feature", "geometry": {"type": "Point", "coordinates": [-101.0541562, 34.4199006]}, "properties": {"name": "16", "tourism": "camp_site", "osm_id": 4704782386}}, {"type": "Feature", "geometry": {"type": "Point", "coordinates": [-101.0544969, 34.4198132]}, "properties": {"name": "14", "tourism": "camp_site", "osm_id": 4704782387}}, {"type": "Feature", "geometry": {"type": "Point", "coordinates": [-101.0537687, 34.4206153]}, "properties": {"name": "19", "tourism": "camp_site", "osm_id": 4704782388}}, {"type": "Feature", "geometry": {"type": "Point", "coordinates": [-101.0539926, 34.4203807]}, "properties": {"name": "17", "tourism": "camp_site", "osm_id": 4704782389}}, {"type": "Feature", "geometry": {"type": "Point", "coordinates": [-101.0543078, 34.42028]}, "properties": {"name": "15", "tourism": "camp_site", "osm_id": 4704782390}}, {"type": "Feature", "geometry": {"type": "Point", "coordinates": [-101.0544795, 34.420248]}, "properties": {"name": "13", "tourism": "camp_site", "osm_id": 4704782391}}, {"type": "Feature", "geometry": {"type": "Point", "coordinates": [-101.0548416, 34.4201595]}, "properties": {"name": "11", "tourism": "camp_site", "osm_id": 4704782392}}, {"type": "Feature", "geometry": {"type": "Point", "coordinates": [-101.0551111, 34.4200909]}, "properties": {"name": "9", "tourism": "camp_site", "osm_id": 4704782393}}, {"type": "Feature", "geometry": {"type": "Point", "coordinates": [-101.0555242, 34.4199659]}, "properties": {"name": "7", "tourism": "camp_site", "osm_id": 4704782394}}, {"type": "Feature", "geometry": {"type": "Point", "coordinates": [-101.0546605, 34.4196948]}, "properties": {"name": "12", "tourism": "camp_site", "osm_id": 4704782395}}, {"type": "Feature", "geometry": {"type": "Point", "coordinates": [-101.0550025, 34.4196782]}, "properties": {"name": "10", "tourism": "camp_site", "osm_id": 4704782396}}, {"type": "Feature", "geometry": {"type": "Point", "coordinates": [-101.0554222, 34.419551]}, "properties": {"name": "8", "tourism": "camp_site", "osm_id": 4704782397}}, {"type": "Feature", "geometry": {"type": "Point", "coordinates": [-101.0557294, 34.4194536]}, "properties": {"name": "6", "tourism": "camp_site", "osm_id": 4704782398}}, {"type": "Feature", "geometry": {"type": "Point", "coordinates": [-101.0557729, 34.4198823]}, "properties": {"name": "5", "tourism": "camp_site", "osm_id": 4704782399}}, {"type": "Feature", "geometry": {"type": "Point", "coordinates": [-101.0560003, 34.4198912]}, "properties": {"name": "3", "tourism": "camp_site", "osm_id": 4704782400}}, {"type": "Feature", "geometry": {"type": "Point", "coordinates": [-101.0560576, 34.4194747]}, "properties": {"name": "4", "tourism": "camp_site", "osm_id": 4704782401}}, {"type": "Feature", "geometry": {"type": "Point", "coordinates": [-101.0565699, 34.419686]}, "properties": {"name": "2", "tourism": "camp_site", "osm_id": 4704782402}}, {"type": "Feature", "geometry": {"type": "Point", "coordinates": [-101.0561535, 34.4198851]}, "properties": {"name": "1", "tourism": "camp_site", "osm_id": 4704782403}}, {"type": "Feature", "geometry": {"type": "Point", "coordinates": [-101.0770207, 34.4424101]}, "properties": {"name": "65", "tourism": "camp_site", "osm_id": 4704813859}}, {"type": "Feature", "geometry": {"type": "Point", "coordinates": [-101.0772179, 34.4422995]}, "properties": {"name": "64", "tourism": "camp_site", "osm_id": 4704813860}}, {"type": "Feature", "geometry": {"type": "Point", "coordinates": [-101.0774258, 34.4423018]}, "properties": {"name": "63", "tourism": "camp_site", "osm_id": 4704813861}}, {"type": "Feature", "geometry": {"type": "Point", "coordinates": [-101.0776886, 34.4425749]}, "properties": {"name": "62", "tourism": "camp_site", "osm_id": 4704813862}}, {"type": "Feature", "geometry": {"type": "Point", "coordinates": [-101.0777061, 34.4424046]}, "properties": {"name": "61", "tourism": "camp_site", "osm_id": 4704813863}}, {"type": "Feature", "geometry": {"type": "Point", "coordinates": [-101.0781339, 34.4421701]}, "properties": {"name": "60", "tourism": "camp_site", "osm_id": 4704813864}}, {"type": "Feature", "geometry": {"type": "Point", "coordinates": [-101.0782774, 34.4422586]}, "properties": {"name": "59", "tourism": "camp_site", "osm_id": 4704813865}}, {"type": "Feature", "geometry": {"type": "Point", "coordinates": [-101.0783337, 34.4423427]}, "properties": {"name": "58", "tourism": "camp_site", "osm_id": 4704813866}}, {"type": "Feature", "geometry": {"type": "Point", "coordinates": [-101.0785831, 34.4424527]}, "properties": {"name": "57", "tourism": "camp_site", "osm_id": 4704813867}}, {"type": "Feature", "geometry": {"type": "Point", "coordinates": [-101.0785613, 34.4426302]}, "properties": {"name": "56", "tourism": "camp_site", "osm_id": 4704813868}}, {"type": "Feature", "geometry": {"type": "Point", "coordinates": [-97.05053, 34.0871634]}, "properties": {"addr:state": "OK", "name": "Martins Landing Campground", "operator": "Lake Murray State Park", "tourism": "camp_site", "osm_id": 4831235048}}, {"type": "Feature", "geometry": {"type": "Point", "coordinates": [-94.8892204, 34.7385415]}, "properties": {"addr:city": "Talihina", "addr:country": "US", "addr:housenumber": "1", "addr:postcode": "74571", "addr:state": "OK", "addr:street": "Camp Tom Hale Road", "alt_name": "Camp Tom Hale", "leisure": "summer_camp", "name": "Hale Scout Reservation", "scout": "yes", "tourism": "camp_site", "website": "https://www.halescoutreservation.org/about", "osm_id": 4834833468}}, {"type": "Feature", "geometry": {"type": "Point", "coordinates": [-96.1879151, 36.7374082]}, "properties": {"caravans": "yes", "fee": "yes", "internet_access": "no", "name": "Osage RV", "static_caravans": "no", "tents": "yes", "tourism": "camp_site", "osm_id": 4915587885}}, {"type": "Feature", "geometry": {"type": "Point", "coordinates": [-96.1874794, 36.7415608]}, "properties": {"caravans": "no", "fee": "yes", "name": "Tent Hill", "shower": "yes", "static_caravans": "no", "tents": "yes", "toilets": "yes", "tourism": "camp_site", "osm_id": 4915587926}}, {"type": "Feature", "geometry": {"type": "Point", "coordinates": [-99.7548896, 34.1088854]}, "properties": {"ref": "1", "tourism": "camp_site", "osm_id": 4952858892}}, {"type": "Feature", "geometry": {"type": "Point", "coordinates": [-99.7548184, 34.1086685]}, "properties": {"ref": "3", "tourism": "camp_site", "osm_id": 4952858893}}, {"type": "Feature", "geometry": {"type": "Point", "coordinates": [-99.7547283, 34.1084603]}, "properties": {"ref": "5", "tourism": "camp_site", "osm_id": 4952858894}}, {"type": "Feature", "geometry": {"type": "Point", "coordinates": [-99.7546046, 34.1082486]}, "properties": {"ref": "7", "tourism": "camp_site", "osm_id": 4952858895}}, {"type": "Feature", "geometry": {"type": "Point", "coordinates": [-99.75424, 34.1084898]}, "properties": {"ref": "8", "tourism": "camp_site", "osm_id": 4952858896}}, {"type": "Feature", "geometry": {"type": "Point", "coordinates": [-99.7543343, 34.1086772]}, "properties": {"ref": "6", "tourism": "camp_site", "osm_id": 4952858897}}, {"type": "Feature", "geometry": {"type": "Point", "coordinates": [-99.7544055, 34.1088872]}, "properties": {"ref": "4", "tourism": "camp_site", "osm_id": 4952858898}}, {"type": "Feature", "geometry": {"type": "Point", "coordinates": [-99.7544558, 34.1090954]}, "properties": {"ref": "2", "tourism": "camp_site", "osm_id": 4952858899}}, {"type": "Feature", "geometry": {"type": "Point", "coordinates": [-99.754131, 34.1083024]}, "properties": {"ref": "9", "tourism": "camp_site", "osm_id": 4952858900}}, {"type": "Feature", "geometry": {"type": "Point", "coordinates": [-99.7540032, 34.1080265]}, "properties": {"ref": "10", "tourism": "camp_site", "osm_id": 4952858901}}, {"type": "Feature", "geometry": {"type": "Point", "coordinates": [-99.7540577, 34.1077333]}, "properties": {"ref": "11", "tourism": "camp_site", "osm_id": 4952858902}}, {"type": "Feature", "geometry": {"type": "Point", "coordinates": [-99.7542987, 34.1074886]}, "properties": {"ref": "12", "tourism": "camp_site", "osm_id": 4952858903}}, {"type": "Feature", "geometry": {"type": "Point", "coordinates": [-99.7546235, 34.1073723]}, "properties": {"ref": "13", "tourism": "camp_site", "osm_id": 4952858904}}, {"type": "Feature", "geometry": {"type": "Point", "coordinates": [-99.7548834, 34.1073706]}, "properties": {"ref": "14", "tourism": "camp_site", "osm_id": 4952858905}}, {"type": "Feature", "geometry": {"type": "Point", "coordinates": [-99.7551286, 34.1073637]}, "properties": {"ref": "16", "tourism": "camp_site", "osm_id": 4952858906}}, {"type": "Feature", "geometry": {"type": "Point", "coordinates": [-99.7552271, 34.1077385]}, "properties": {"ref": "15", "tourism": "camp_site", "osm_id": 4952858907}}, {"type": "Feature", "geometry": {"type": "Point", "coordinates": [-99.7554806, 34.1076951]}, "properties": {"ref": "17", "tourism": "camp_site", "osm_id": 4952858908}}, {"type": "Feature", "geometry": {"type": "Point", "coordinates": [-99.7557594, 34.1076135]}, "properties": {"ref": "19", "tourism": "camp_site", "osm_id": 4952858909}}, {"type": "Feature", "geometry": {"type": "Point", "coordinates": [-99.7560004, 34.1074955]}, "properties": {"ref": "21", "tourism": "camp_site", "osm_id": 4952858910}}, {"type": "Feature", "geometry": {"type": "Point", "coordinates": [-99.7562246, 34.1073446]}, "properties": {"ref": "23", "tourism": "camp_site", "osm_id": 4952858911}}, {"type": "Feature", "geometry": {"type": "Point", "coordinates": [-99.7564069, 34.1072144]}, "properties": {"ref": "25", "tourism": "camp_site", "osm_id": 4952858912}}, {"type": "Feature", "geometry": {"type": "Point", "coordinates": [-99.755971, 34.1070184]}, "properties": {"ref": "24", "tourism": "camp_site", "osm_id": 4952858913}}, {"type": "Feature", "geometry": {"type": "Point", "coordinates": [-99.7557929, 34.1071329]}, "properties": {"ref": "22", "tourism": "camp_site", "osm_id": 4952858914}}, {"type": "Feature", "geometry": {"type": "Point", "coordinates": [-99.7555854, 34.1072596]}, "properties": {"ref": "20", "tourism": "camp_site", "osm_id": 4952858915}}, {"type": "Feature", "geometry": {"type": "Point", "coordinates": [-99.7553654, 34.1073272]}, "properties": {"ref": "18", "tourism": "camp_site", "osm_id": 4952858916}}, {"type": "Feature", "geometry": {"type": "Point", "coordinates": [-96.2352589, 36.0844977]}, "properties": {"name": "Prayer Mountain", "tourism": "camp_site", "osm_id": 5618815624}}, {"type": "Feature", "geometry": {"type": "Point", "coordinates": [-102.0099452, 35.1838074]}, "properties": {"tourism": "caravan_site", "osm_id": 5649764961}}, {"type": "Feature", "geometry": {"type": "Point", "coordinates": [-98.4461251, 35.1707255]}, "properties": {"name": "Sunset Cove Campgrounds/ Ft Cobb SP", "operator": "Ft Cobb State Park", "tourism": "camp_site", "osm_id": 6146340436}}, {"type": "Feature", "geometry": {"type": "Point", "coordinates": [-98.4465645, 35.176951]}, "properties": {"name": "Catfish Cove Campground", "operator": "Ft Cobb State Park", "tourism": "camp_site", "osm_id": 6146342750}}, {"type": "Feature", "geometry": {"type": "Point", "coordinates": [-98.4527822, 35.1746573]}, "properties": {"name": "Caddo Hill Campground", "operator": "Ft Cobb State Park", "tourism": "camp_site", "osm_id": 6146342751}}, {"type": "Feature", "geometry": {"type": "Point", "coordinates": [-98.4507918, 35.1692435]}, "properties": {"name": "Flag Pole Campground", "operator": "Ft Cobb State Park", "tourism": "camp_site", "osm_id": 6146346994}}, {"type": "Feature", "geometry": {"type": "Point", "coordinates": [-98.4743937, 35.1795943]}, "properties": {"name": "Blackjack Campground", "operator": "Ft Cobb State Park", "tourism": "camp_site", "osm_id": 6146352804}}, {"type": "Feature", "geometry": {"type": "Point", "coordinates": [-98.4725374, 35.1722062]}, "properties": {"name": "Deer Run Campground", "operator": "Ft Cobb State Park", "tourism": "camp_site", "osm_id": 6146353739}}, {"type": "Feature", "geometry": {"type": "Point", "coordinates": [-98.4501952, 35.1748785]}, "properties": {"name": "Goose Feather Campground", "operator": "Ft Cobb State Park", "tourism": "camp_site", "osm_id": 6146354135}}, {"type": "Feature", "geometry": {"type": "Point", "coordinates": [-98.4694775, 35.1788722]}, "properties": {"name": "Tent Hill Campground", "operator": "Ft Cobb State Park", "tourism": "camp_site", "osm_id": 6146354606}}, {"type": "Feature", "geometry": {"type": "Point", "coordinates": [-98.4533757, 35.1753738]}, "properties": {"name": "Cove Rd Campground", "operator": "Ft Cobb State Park", "tourism": "camp_site", "osm_id": 6146357033}}, {"type": "Feature", "geometry": {"type": "Point", "coordinates": [-98.4946653, 35.1971051]}, "properties": {"name": "Avery Landing", "tourism": "camp_site", "osm_id": 6146362389}}, {"type": "Feature", "geometry": {"type": "Point", "coordinates": [-98.4477054, 35.165453]}, "properties": {"name": "Sycamore Cove Campgrounds", "operator": "Ft Cobb State Park", "tourism": "camp_site", "osm_id": 6146366051}}, {"type": "Feature", "geometry": {"type": "Point", "coordinates": [-95.9901975, 33.7451982]}, "properties": {"name": "Bois D' Arc Trailhead Campground", "tourism": "camp_site", "osm_id": 6422163324}}, {"type": "Feature", "geometry": {"type": "Point", "coordinates": [-97.2393304, 35.2436345]}, "properties": {"caravans": "yes", "email": "susie.snider@travelok.com", "fee": "yes", "name": "Little Sandy Campground", "phone": "+1 405 360 3572", "reservation": "recommended", "sanitary_dump_station": "no", "shower": "no", "tents": "yes", "toilets": "yes", "tourism": "camp_site", "website": "https://www.travelok.com/state-parks/4386", "osm_id": 6486234801}}, {"type": "Feature", "geometry": {"type": "Point", "coordinates": [-97.2382039, 35.2461054]}, "properties": {"caravans": "yes", "email": "susie.snider@travelok.com", "fee": "yes", "name": "Hickory Hill Campground", "phone": "+1 405 360 3572", "reservation": "recommended", "sanitary_dump_station": "no", "shower": "no", "tents": "no", "toilets": "yes", "tourism": "camp_site", "website": "https://www.travelok.com/state-parks/4386", "osm_id": 6486234802}}, {"type": "Feature", "geometry": {"type": "Point", "coordinates": [-96.7842252, 33.8226748]}, "properties": {"name": "Cedar", "tourism": "camp_site", "osm_id": 6521799447}}, {"type": "Feature", "geometry": {"type": "Point", "coordinates": [-96.7834596, 33.8239314]}, "properties": {"name": "Hanta Pa Ha", "tourism": "camp_site", "osm_id": 6521799448}}, {"type": "Feature", "geometry": {"type": "Point", "coordinates": [-96.780605, 33.8202854]}, "properties": {"name": "Staff Camp", "tourism": "camp_site", "osm_id": 6521799461}}, {"type": "Feature", "geometry": {"type": "Point", "coordinates": [-96.779598, 33.8206122]}, "properties": {"name": "Tejas", "tourism": "camp_site", "osm_id": 6521799462}}, {"type": "Feature", "geometry": {"type": "Point", "coordinates": [-96.7785374, 33.8212701]}, "properties": {"name": "Comanche", "tourism": "camp_site", "osm_id": 6521799467}}, {"type": "Feature", "geometry": {"type": "Point", "coordinates": [-96.779409, 33.8229847]}, "properties": {"name": "Geronimo", "tourism": "camp_site", "osm_id": 6521810428}}, {"type": "Feature", "geometry": {"type": "Point", "coordinates": [-96.7785633, 33.822148]}, "properties": {"name": "Sioux", "tourism": "camp_site", "osm_id": 6521810433}}, {"type": "Feature", "geometry": {"type": "Point", "coordinates": [-96.7786292, 33.8244712]}, "properties": {"name": "Cherokee", "tourism": "camp_site", "osm_id": 6521810442}}, {"type": "Feature", "geometry": {"type": "Point", "coordinates": [-96.7797806, 33.8252463]}, "properties": {"name": "Navajo", "tourism": "camp_site", "osm_id": 6521810443}}, {"type": "Feature", "geometry": {"type": "Point", "coordinates": [-96.7804143, 33.8257216]}, "properties": {"name": "Lone Eagle", "tourism": "camp_site", "osm_id": 6521810448}}, {"type": "Feature", "geometry": {"type": "Point", "coordinates": [-96.7818685, 33.8254079]}, "properties": {"name": "Apache", "tourism": "camp_site", "osm_id": 6521810453}}, {"type": "Feature", "geometry": {"type": "Point", "coordinates": [-96.9955167, 34.4334425]}, "properties": {"name": "camping 16-25$", "tourism": "camp_site", "osm_id": 6990250585}}, {"type": "Feature", "geometry": {"type": "Point", "coordinates": [-95.5346303, 33.8413135]}, "properties": {"access": "permit", "fee": "yes", "name": "Sanders Cove Campground", "operator": "US Army Corps of Engineers", "payment:cash": "yes", "payment:coins": "yes", "payment:credit_cards": "yes", "tourism": "camp_site", "osm_id": 7396437670}}, {"type": "Feature", "geometry": {"type": "Point", "coordinates": [-95.5869536, 33.8437348]}, "properties": {"fee": "yes", "name": "Pat Mayse East", "operator": "US Army Corps of Engineers", "payment:cash": "yes", "payment:coins": "yes", "tourism": "camp_site", "osm_id": 7396444060}}, {"type": "Feature", "geometry": {"type": "Point", "coordinates": [-95.6062126, 33.8445454]}, "properties": {"access": "yes", "fee": "yes", "name": "Pat Mayse West", "operator": "US Army Corps of Engineers", "payment:cash": "yes", "payment:coins": "yes", "payment:credit_cards": "yes", "tourism": "camp_site", "osm_id": 7396447201}}, {"type": "Feature", "geometry": {"type": "Point", "coordinates": [-101.8436584, 35.0343312]}, "properties": {"name": "Buzzard's Nest", "tourism": "camp_site", "osm_id": 7516132683}}, {"type": "Feature", "geometry": {"type": "Point", "coordinates": [-101.8372625, 35.0393868]}, "properties": {"name": "Buffalo Willow", "tourism": "camp_site", "osm_id": 7516132688}}, {"type": "Feature", "geometry": {"type": "Point", "coordinates": [-101.8380578, 35.0387207]}, "properties": {"name": "Rattlesnake Mesa", "tourism": "camp_site", "osm_id": 7516132689}}, {"type": "Feature", "geometry": {"type": "Point", "coordinates": [-101.8396008, 35.0377524]}, "properties": {"name": "Skeleton Draw", "tourism": "camp_site", "osm_id": 7516132690}}, {"type": "Feature", "geometry": {"type": "Point", "coordinates": [-101.8400943, 35.0369196]}, "properties": {"name": "Coyote Mesa", "tourism": "camp_site", "osm_id": 7516132691}}, {"type": "Feature", "geometry": {"type": "Point", "coordinates": [-101.8416736, 35.0366881]}, "properties": {"name": "Eagle's Nest", "tourism": "camp_site", "osm_id": 7516132692}}, {"type": "Feature", "geometry": {"type": "Point", "coordinates": [-101.8425332, 35.035072]}, "properties": {"name": "Seven Caves", "tourism": "camp_site", "osm_id": 7516132693}}, {"type": "Feature", "geometry": {"type": "Point", "coordinates": [-101.8414861, 35.0358523]}, "properties": {"name": "Twin Buttes", "tourism": "camp_site", "osm_id": 7516132694}}, {"type": "Feature", "geometry": {"type": "Point", "coordinates": [-101.8379704, 35.0420663]}, "properties": {"name": "Dan Beard", "tourism": "camp_site", "osm_id": 7516132717}}, {"type": "Feature", "geometry": {"type": "Point", "coordinates": [-101.8372471, 35.0426369]}, "properties": {"name": "Mesa Flats", "tourism": "camp_site", "osm_id": 7516132718}}, {"type": "Feature", "geometry": {"type": "Point", "coordinates": [-101.8407298, 35.0392499]}, "properties": {"name": "Bobcat Pass", "tourism": "camp_site", "osm_id": 7516166994}}, {"type": "Feature", "geometry": {"type": "Point", "coordinates": [-101.8400711, 35.0406277]}, "properties": {"name": "Deer Landing", "tourism": "camp_site", "osm_id": 7516166995}}, {"type": "Feature", "geometry": {"type": "Point", "coordinates": [-101.8423083, 35.0383699]}, "properties": {"name": "Skunk Hallow", "tourism": "camp_site", "osm_id": 7516166996}}, {"type": "Feature", "geometry": {"type": "Point", "coordinates": [-101.8439829, 35.0396086]}, "properties": {"name": "Possum Hollow", "tourism": "camp_site", "osm_id": 7516166997}}, {"type": "Feature", "geometry": {"type": "Point", "coordinates": [-101.8444311, 35.0358726]}, "properties": {"name": "Goodnight Meadows", "tourism": "camp_site", "osm_id": 7516167042}}, {"type": "Feature", "geometry": {"type": "Point", "coordinates": [-101.8364412, 35.0406084]}, "properties": {"name": "Cottonwood Flats", "tourism": "camp_site", "osm_id": 7516167071}}, {"type": "Feature", "geometry": {"type": "Point", "coordinates": [-101.8389031, 35.0406989]}, "properties": {"name": "Comanche Crossing", "tourism": "camp_site", "osm_id": 7516167223}}, {"type": "Feature", "geometry": {"type": "Point", "coordinates": [-96.6610181, 33.8599385]}, "properties": {"name": "Lighthouse Resort RV Sites", "tourism": "caravan_site", "osm_id": 8346196719}}, {"type": "Feature", "geometry": {"type": "Point", "coordinates": [-95.6837837, 33.8116381]}, "properties": {"access": "yes", "fee": "no", "operator": "Texas Parks and Wildlife", "tourism": "camp_site", "osm_id": 8725865290}}, {"type": "Feature", "geometry": {"type": "Point", "coordinates": [-96.0278149, 34.5278245]}, "properties": {"tourism": "camp_site", "osm_id": 8833852570}}, {"type": "Feature", "geometry": {"type": "Point", "coordinates": [-96.0276713, 34.5289661]}, "properties": {"tourism": "camp_site", "osm_id": 8833852571}}, {"type": "Feature", "geometry": {"type": "Point", "coordinates": [-95.8500829, 34.3908112]}, "properties": {"backcountry": "yes", "name": "B8", "tourism": "camp_site", "osm_id": 8837217476}}, {"type": "Feature", "geometry": {"type": "Point", "coordinates": [-98.23181, 35.5334286]}, "properties": {"email": "cherokeekoa@pldi.net", "internet_access": "yes", "internet_access:fee": "customers", "name": "El Reno West KOA", "operator": "KOA", "phone": "+1-405-884-2595", "reservation": "required", "tents": "yes", "tourism": "caravan_site", "website": "https://koa.com/campgrounds/el-reno/", "osm_id": 8978598767}}, {"type": "Feature", "geometry": {"type": "Point", "coordinates": [-94.7388609, 34.0651186]}, "properties": {"name": "Creekside RV Park", "tourism": "caravan_site", "osm_id": 9165492060}}, {"type": "Feature", "geometry": {"type": "Point", "coordinates": [-99.7553604, 34.1185936]}, "properties": {"ref": "47", "tourism": "camp_site", "osm_id": 9212367449}}, {"type": "Feature", "geometry": {"type": "Point", "coordinates": [-99.7549292, 34.118506]}, "properties": {"ref": "48", "tourism": "camp_site", "osm_id": 9212367450}}, {"type": "Feature", "geometry": {"type": "Point", "coordinates": [-99.7551665, 34.1180063]}, "properties": {"ref": "46", "tourism": "camp_site", "osm_id": 9212367451}}, {"type": "Feature", "geometry": {"type": "Point", "coordinates": [-99.7547722, 34.1178847]}, "properties": {"ref": "50", "tourism": "camp_site", "osm_id": 9212367452}}, {"type": "Feature", "geometry": {"type": "Point", "coordinates": [-99.7543495, 34.1178319]}, "properties": {"ref": "49", "tourism": "camp_site", "osm_id": 9212367453}}, {"type": "Feature", "geometry": {"type": "Point", "coordinates": [-99.7536302, 34.1184623]}, "properties": {"name": "Big Pond Group Campground", "tourism": "camp_site", "osm_id": 9212367454}}, {"type": "Feature", "geometry": {"type": "Point", "coordinates": [-99.7551956, 34.11763]}, "properties": {"ref": "45", "tourism": "camp_site", "osm_id": 9212367455}}, {"type": "Feature", "geometry": {"type": "Point", "coordinates": [-99.7551293, 34.1172785]}, "properties": {"ref": "44", "tourism": "camp_site", "osm_id": 9212367456}}, {"type": "Feature", "geometry": {"type": "Point", "coordinates": [-99.7550945, 34.1171353]}, "properties": {"ref": "43", "tourism": "camp_site", "osm_id": 9212367457}}, {"type": "Feature", "geometry": {"type": "Point", "coordinates": [-99.7547292, 34.116977]}, "properties": {"ref": "42", "tourism": "camp_site", "osm_id": 9212367458}}, {"type": "Feature", "geometry": {"type": "Point", "coordinates": [-99.7549301, 34.116681]}, "properties": {"ref": "41", "tourism": "camp_site", "osm_id": 9212367459}}, {"type": "Feature", "geometry": {"type": "Point", "coordinates": [-99.7545382, 34.1163281]}, "properties": {"ref": "40", "tourism": "camp_site", "osm_id": 9212367460}}, {"type": "Feature", "geometry": {"type": "Point", "coordinates": [-99.7549662, 34.1163334]}, "properties": {"ref": "39", "tourism": "camp_site", "osm_id": 9212367461}}, {"type": "Feature", "geometry": {"type": "Point", "coordinates": [-99.7552304, 34.1163238]}, "properties": {"ref": "38", "tourism": "camp_site", "osm_id": 9212367462}}, {"type": "Feature", "geometry": {"type": "Point", "coordinates": [-99.7554867, 34.1019964]}, "properties": {"backcountry": "yes", "name": "Bull Canyon Camping Area", "tourism": "camp_site", "osm_id": 9212367463}}, {"type": "Feature", "geometry": {"type": "Point", "coordinates": [-99.7490507, 34.1136694]}, "properties": {"name": "Kiowa Camping Area", "tourism": "camp_site", "osm_id": 9212367467}}, {"type": "Feature", "geometry": {"type": "Point", "coordinates": [-95.9387315, 36.9083855]}, "properties": {"leisure": "park", "name": "Washington Cove", "operator": "United States Army Corps of Engineers", "operator:short": "USACE", "operator:type": "government", "operator:wikidata": "Q1049334", "operator:wikipedia": "en:United States Army Corps of Engineers", "tourism": "camp_site", "osm_id": 9395313370}}, {"type": "Feature", "geometry": {"type": "Point", "coordinates": [-102.7927256, 36.5587986]}, "properties": {"access": "yes", "backcountry": "yes", "fee": "no", "name": "Felt Picnic Area", "operator": "USFS", "tourism": "camp_site", "osm_id": 9421464700}}, {"type": "Feature", "geometry": {"type": "Point", "coordinates": [-98.0348744, 34.2504921]}, "properties": {"access": "yes", "addr:place": "Near Waurika Lake", "addr:state": "OK", "bbq": "yes", "capacity:caravans": "95", "capacity:persons": "760", "caravans": "yes", "drinking_water": "yes", "fee": "yes", "name": "Chisholm Trail Ridge Campground", "opening_hours": "May-Sep", "picnic_table": "yes", "power_supply": "yes", "reservation": "recommended", "shower": "yes", "toilets": "yes", "tourism": "camp_site", "website": "https://www.recreation.gov/camping/campgrounds/233458", "osm_id": 9456988496}}, {"type": "Feature", "geometry": {"type": "Point", "coordinates": [-95.0758591, 34.7766501]}, "properties": {"name": "Kiamichi Camp", "source": "USGS Topographic Maps", "tourism": "camp_site", "osm_id": 9459058942}}, {"type": "Feature", "geometry": {"type": "Point", "coordinates": [-95.0484368, 36.4062064]}, "properties": {"addr:housenumber": "14367", "addr:postcode": "74366", "addr:street": "OK-82 N", "name": "Camp Copperhead", "tourism": "camp_site", "osm_id": 9683972817}}, {"type": "Feature", "geometry": {"type": "Point", "coordinates": [-94.8282385, 34.7179066]}, "properties": {"access": "private", "addr:city": "Muse", "addr:housenumber": "55415", "addr:postcode": "74949", "addr:state": "OK", "addr:street": "FR 6074", "fee": "no", "name": "Callaway Retreat", "tourism": "camp_site", "website": "https://callaway-retreat.business.site/", "osm_id": 9780415674}}, {"type": "Feature", "geometry": {"type": "Point", "coordinates": [-96.4159459, 36.6998209]}, "properties": {"access": "yes", "name": "Bluestem Public Campground", "operator": "City of Pawhuska", "tourism": "camp_site", "osm_id": 9874684382}}, {"type": "Feature", "geometry": {"type": "Point", "coordinates": [-97.2081974, 34.7704786]}, "properties": {"tourism": "camp_site", "osm_id": 9996842755}}, {"type": "Feature", "geometry": {"type": "Point", "coordinates": [-96.3699976, 35.0307754]}, "properties": {"tourism": "camp_site", "osm_id": 9997993090}}, {"type": "Feature", "geometry": {"type": "Point", "coordinates": [-94.5468026, 34.4362298]}, "properties": {"addr:city": "Watson", "addr:housenumber": "7247", "addr:postcode": "74963", "addr:state": "OK", "addr:street": "SH-4", "contact:facebook": "willowswatsonR", "contact:instagram": "mntviewrvpark", "description": "types of payments also Online Payment Portal", "email": "stay@mountainviewrvparkok.com", "name": "Mountain View RV Park", "opening_hours": "24/7", "payment:cash": "yes", "payment:cheque": "yes", "phone": "+1-580-247-2047", "start_date": "2021", "tourism": "camp_site", "website": "https://mountainviewrvparkok.com", "osm_id": 10169100574}}, {"type": "Feature", "geometry": {"type": "Point", "coordinates": [-94.7849286, 35.3221326]}, "properties": {"name": "Cowlington Point", "tourism": "camp_site", "website": "https://www.recreation.gov/camping/campgrounds/10035081", "osm_id": 10892017925}}, {"type": "Feature", "geometry": {"type": "Point", "coordinates": [-94.7872851, 35.3229595]}, "properties": {"name": "Cowlington Point", "tourism": "camp_site", "osm_id": 10892099361}}, {"type": "Feature", "geometry": {"type": "Point", "coordinates": [-94.6776566, 34.7153541]}, "properties": {"backcountry": "yes", "name": "Hikers Camp for Winding Stair Campground", "tourism": "camp_site", "osm_id": 10923298141}}, {"type": "Feature", "geometry": {"type": "Point", "coordinates": [-96.8452845, 36.7922925]}, "properties": {"access": "yes", "name": "Washunga Bay Campground", "operator": "US Army Corps of Engineers Tulsa District", "operator:type": "public", "operator:wikidata": "Q65066755", "tourism": "camp_site", "website": "https://www.recreation.gov/camping/campgrounds/233668?tab=info", "wikidata": "Q118827220", "osm_id": 10936901883}}, {"type": "Feature", "geometry": {"type": "Point", "coordinates": [-96.808289, 36.7668034]}, "properties": {"access": "yes", "name": "Sarge Creek Campground", "operator": "Tulsa District US Army Corps of Engineers", "tourism": "camp_site", "website": "https://www.recreation.gov/camping/campgrounds/233622?tab=info", "wikidata": "Q118828213", "osm_id": 10936964335}}, {"type": "Feature", "geometry": {"type": "Point", "coordinates": [-96.708921, 34.3004295]}, "properties": {"access": "private", "caravans": "no", "group_only": "yes", "name": "Spade", "operator": "Scouts, BSA", "static_caravans": "no", "tourism": "camp_site", "osm_id": 10989877223}}, {"type": "Feature", "geometry": {"type": "Point", "coordinates": [-96.7091979, 34.3000305]}, "properties": {"access": "private", "caravans": "no", "group_only": "yes", "name": "Okay", "operator": "Scouts, BSA", "static_caravans": "no", "tourism": "camp_site", "osm_id": 10989877224}}, {"type": "Feature", "geometry": {"type": "Point", "coordinates": [-96.7084115, 34.2995908]}, "properties": {"access": "private", "caravans": "no", "group_only": "yes", "name": "Lazy S", "operator": "Scouts, BSA", "static_caravans": "no", "tourism": "camp_site", "osm_id": 10989877225}}, {"type": "Feature", "geometry": {"type": "Point", "coordinates": [-96.7070851, 34.2998926]}, "properties": {"access": "private", "caravans": "no", "group_only": "yes", "name": "Walking 7", "operator": "Scouts, BSA", "static_caravans": "no", "tourism": "camp_site", "osm_id": 10989877226}}, {"type": "Feature", "geometry": {"type": "Point", "coordinates": [-96.7066894, 34.2990852]}, "properties": {"access": "private", "caravans": "no", "group_only": "yes", "name": "Shield Lighting", "operator": "Scouts, BSA", "static_caravans": "no", "tourism": "camp_site", "osm_id": 10989877227}}, {"type": "Feature", "geometry": {"type": "Point", "coordinates": [-96.7045968, 34.299386]}, "properties": {"access": "private", "caravans": "no", "group_only": "yes", "name": "Dog Iron", "operator": "Scouts, BSA", "static_caravans": "no", "tourism": "camp_site", "osm_id": 10989877228}}, {"type": "Feature", "geometry": {"type": "Point", "coordinates": [-96.705296, 34.2985065]}, "properties": {"access": "private", "caravans": "no", "group_only": "yes", "name": "Rafter B", "operator": "Scouts, BSA", "static_caravans": "no", "tourism": "camp_site", "osm_id": 10989877229}}, {"type": "Feature", "geometry": {"type": "Point", "coordinates": [-96.7054199, 34.2981952]}, "properties": {"access": "private", "caravans": "no", "group_only": "yes", "name": "WF Connected", "operator": "Scouts, BSA", "static_caravans": "no", "tourism": "camp_site", "osm_id": 10989877230}}, {"type": "Feature", "geometry": {"type": "Point", "coordinates": [-96.7118532, 34.3037374]}, "properties": {"access": "private", "caravans": "no", "group_only": "yes", "name": "Diamond E", "operator": "Scouts, BSA", "static_caravans": "no", "tourism": "camp_site", "osm_id": 10989877231}}, {"type": "Feature", "geometry": {"type": "Point", "coordinates": [-96.7111224, 34.3033249]}, "properties": {"access": "private", "caravans": "no", "group_only": "yes", "name": "Arrowhead", "operator": "Scouts, BSA", "static_caravans": "no", "tourism": "camp_site", "osm_id": 10989877232}}, {"type": "Feature", "geometry": {"type": "Point", "coordinates": [-96.7128837, 34.3033405]}, "properties": {"access": "private", "caravans": "no", "group_only": "yes", "name": "Nichols Don", "operator": "Scouts, BSA", "static_caravans": "no", "tourism": "camp_site", "osm_id": 10989877233}}, {"type": "Feature", "geometry": {"type": "Point", "coordinates": [-96.7134577, 34.3020036]}, "properties": {"access": "private", "caravans": "no", "group_only": "yes", "name": "Charlie Brown", "operator": "Scouts, BSA", "static_caravans": "no", "tourism": "camp_site", "osm_id": 10989877234}}, {"type": "Feature", "geometry": {"type": "Point", "coordinates": [-96.7135892, 34.3032632]}, "properties": {"access": "private", "caravans": "no", "group_only": "yes", "name": "Four E", "operator": "Scouts, BSA", "static_caravans": "no", "tourism": "camp_site", "osm_id": 10989877235}}, {"type": "Feature", "geometry": {"type": "Point", "coordinates": [-96.7138864, 34.3024976]}, "properties": {"access": "private", "caravans": "no", "group_only": "yes", "name": "H-J Connected", "operator": "Scouts, BSA", "static_caravans": "no", "tourism": "camp_site", "osm_id": 10989877236}}, {"type": "Feature", "geometry": {"type": "Point", "coordinates": [-96.7155314, 34.301803]}, "properties": {"access": "private", "caravans": "no", "group_only": "yes", "name": "Arrow C", "operator": "Scouts, BSA", "static_caravans": "no", "tourism": "camp_site", "osm_id": 10989877237}}, {"type": "Feature", "geometry": {"type": "Point", "coordinates": [-96.7135791, 34.3006687]}, "properties": {"access": "private", "caravans": "no", "group_only": "yes", "name": "Dollar Sign", "operator": "Scouts, BSA", "static_caravans": "no", "tourism": "camp_site", "osm_id": 10989877238}}, {"type": "Feature", "geometry": {"type": "Point", "coordinates": [-96.7144275, 34.3001026]}, "properties": {"access": "private", "caravans": "no", "group_only": "yes", "name": "Broken Wagon Wheel", "operator": "Scouts, BSA", "static_caravans": "no", "tourism": "camp_site", "osm_id": 10989877239}}, {"type": "Feature", "geometry": {"type": "Point", "coordinates": [-96.7152856, 34.3005549]}, "properties": {"access": "private", "caravans": "no", "group_only": "yes", "name": "Rocking R", "operator": "Scouts, BSA", "static_caravans": "no", "tourism": "camp_site", "osm_id": 10989877240}}, {"type": "Feature", "geometry": {"type": "Point", "coordinates": [-96.7116919, 34.3016857]}, "properties": {"access": "private", "caravans": "no", "group_only": "yes", "name": "Lightning", "operator": "Scouts, BSA", "static_caravans": "no", "tourism": "camp_site", "osm_id": 10989877282}}, {"type": "Feature", "geometry": {"type": "Point", "coordinates": [-97.2637335, 35.403698]}, "properties": {"name": "Oklahoma City East KOA Holiday", "phone": "+18005625076", "tourism": "camp_site", "website": "https://koa.com/campgrounds/oklahoma-city/", "osm_id": 11203923250}}, {"type": "Feature", "geometry": {"type": "Point", "coordinates": [-96.1841457, 36.739895]}, "properties": {"caravans": "no", "fee": "yes", "name": "CCC Tent Sites", "static_caravans": "no", "tents": "yes", "tourism": "camp_site", "osm_id": 11328323502}}, {"type": "Feature", "geometry": {"type": "Point", "coordinates": [-99.3051026, 34.8902673]}, "properties": {"name": "Redbud Campground", "tourism": "camp_site", "osm_id": 11446414699}}, {"type": "Feature", "geometry": {"type": "Point", "coordinates": [-99.3046043, 34.8894939]}, "properties": {"caravans": "no", "name": "River Run Campground North", "tents": "yes", "tourism": "camp_site", "osm_id": 11446414700}}, {"type": "Feature", "geometry": {"type": "Point", "coordinates": [-99.3019261, 34.888634]}, "properties": {"caravans": "no", "name": "River Run Campground South", "tents": "yes", "tourism": "camp_site", "osm_id": 11446414701}}, {"type": "Feature", "geometry": {"type": "Point", "coordinates": [-96.9189256, 36.7897227]}, "properties": {"tourism": "camp_site", "osm_id": 11509572796}}, {"type": "Feature", "geometry": {"type": "Point", "coordinates": [-96.6694039, 35.6707547]}, "properties": {"tourism": "caravan_site", "osm_id": 11585503404}}, {"type": "Feature", "geometry": {"type": "Point", "coordinates": [-96.6644043, 35.6689723]}, "properties": {"tourism": "caravan_site", "osm_id": 11585503406}}, {"type": "Feature", "geometry": {"type": "Point", "coordinates": [-94.8786822, 35.656496]}, "properties": {"name": "Lake Cullum", "tourism": "camp_site", "osm_id": 11762033209}}, {"type": "Feature", "geometry": {"type": "Point", "coordinates": [-94.8754224, 35.6701244]}, "properties": {"tourism": "camp_site", "osm_id": 11762033210}}, {"type": "Feature", "geometry": {"type": "Point", "coordinates": [-94.8455324, 35.6588978]}, "properties": {"tourism": "camp_site", "osm_id": 11762033211}}, {"type": "Feature", "geometry": {"type": "Point", "coordinates": [-94.9175986, 35.6671895]}, "properties": {"tourism": "camp_site", "osm_id": 11762033212}}, {"type": "Feature", "geometry": {"type": "Point", "coordinates": [-94.9540491, 36.3615939]}, "properties": {"backcountry": "yes", "internet_access": "no", "internet_access:fee": "no", "name": "Hunters Campground (GMA & PHA)", "nudism": "no", "opening_hours": "24/7", "reservation": "no", "sanitary_dump_station": "no", "tents": "yes", "tourism": "camp_site", "website": "https://www.wildlifedepartment.com/hunting/wma/northeast/spavinaw-pha", "wheelchair": "yes", "osm_id": 11886588101}}, {"type": "Feature", "geometry": {"type": "Point", "coordinates": [-95.4036251, 33.6612585]}, "properties": {"addr:city": "Blossom", "addr:housenumber": "5626", "addr:postcode": "75416", "addr:state": "TX", "addr:street": "West Front Street", "description": "RV campground with tent camping on the Northeast Texas Trail", "facebook": "https://www.facebook.com/stevelynch1502?comment_id=Y29tbWVudDo2NDYyNjM4ODY3MTcyMjkzXzY0NjM3ODk4MTcwNTcxOTg%3D", "internet_access": "wlan", "internet_access:fee": "customers", "laundry": "yes", "name": "Almost Home RV Park", "phone": "+1 903 491 1401", "power_supply": "yes", "reservation": "yes", "sanitary_dump_station": "yes", "shower": "yes", "tourism": "caravan_site", "website": "https://almosthomerv.com/", "osm_id": 12011199900}}, {"type": "Feature", "geometry": {"type": "Point", "coordinates": [-94.6559456, 34.1061471]}, "properties": {"camp_site": "basic", "drinking_water": "no", "fee": "no", "static_caravans": "no", "toilets": "no", "tourism": "camp_site", "osm_id": 12033813102}}, {"type": "Feature", "geometry": {"type": "Point", "coordinates": [-94.753128, 34.2603074]}, "properties": {"camp_site": "basic", "drinking_water": "no", "impromptu": "yes", "openfire": "yes", "power_supply": "no", "static_caravans": "no", "toilets": "no", "tourism": "camp_site", "osm_id": 12033817418}}, {"type": "Feature", "geometry": {"type": "Point", "coordinates": [-94.6988576, 34.258276]}, "properties": {"camp_site": "basic", "drinking_water": "no", "impromptu": "yes", "openfire": "yes", "power_supply": "no", "static_caravans": "no", "toilets": "no", "tourism": "camp_site", "osm_id": 12033817430}}, {"type": "Feature", "geometry": {"type": "Point", "coordinates": [-94.5607343, 36.1752384]}, "properties": {"name": "Green Tree RV Park", "tourism": "caravan_site", "osm_id": 12040806768}}, {"type": "Feature", "geometry": {"type": "Point", "coordinates": [-94.7072017, 36.1880571]}, "properties": {"tourism": "caravan_site", "osm_id": 12040817542}}, {"type": "Feature", "geometry": {"type": "Point", "coordinates": [-96.5822992, 33.8482316]}, "properties": {"tourism": "caravan_site", "osm_id": 12069959651}}, {"type": "Feature", "geometry": {"type": "Point", "coordinates": [-96.5707867, 33.8543547]}, "properties": {"tourism": "caravan_site", "osm_id": 12069979985}}, {"type": "Feature", "geometry": {"type": "Point", "coordinates": [-96.5771998, 33.8927957]}, "properties": {"leisure": "summer_camp", "tourism": "camp_site", "osm_id": 12070015803}}, {"type": "Feature", "geometry": {"type": "Point", "coordinates": [-96.5561202, 33.938492]}, "properties": {"tourism": "camp_site", "osm_id": 12070051429}}, {"type": "Feature", "geometry": {"type": "Point", "coordinates": [-96.5548033, 33.9397356]}, "properties": {"tourism": "camp_site", "osm_id": 12070051430}}, {"type": "Feature", "geometry": {"type": "Point", "coordinates": [-96.5453657, 33.9226358]}, "properties": {"tourism": "camp_site", "osm_id": 12070053025}}, {"type": "Feature", "geometry": {"type": "Point", "coordinates": [-96.5493474, 33.9347651]}, "properties": {"tourism": "camp_site", "osm_id": 12070053920}}, {"type": "Feature", "geometry": {"type": "Point", "coordinates": [-96.570721, 34.0016305]}, "properties": {"tourism": "caravan_site", "osm_id": 12070084705}}, {"type": "Feature", "geometry": {"type": "Point", "coordinates": [-96.6227736, 33.9878797]}, "properties": {"tourism": "caravan_site", "osm_id": 12070099589}}, {"type": "Feature", "geometry": {"type": "Point", "coordinates": [-96.659937, 33.9983869]}, "properties": {"tourism": "caravan_site", "osm_id": 12070105089}}, {"type": "Feature", "geometry": {"type": "Point", "coordinates": [-94.8133417, 36.6351212]}, "properties": {"name": "Regatta on Grand", "tourism": "caravan_site", "osm_id": 12093695070}}, {"type": "Feature", "geometry": {"type": "Point", "coordinates": [-94.5865964, 34.8987838]}, "properties": {"addr:housenumber": "18758", "addr:street": "Runestone Road", "name": "Runestone RV Park", "phone": "+1-918-649-7940", "tourism": "camp_site", "website": "https://www.runestonervpark.com/", "osm_id": 12191553456}}, {"type": "Feature", "geometry": {"type": "Point", "coordinates": [-97.174462, 36.1802057]}, "properties": {"access": "permit", "caravans": "no", "fee": "yes", "name": "West Side Group Camp", "operator": "Lake McMurtry Friends", "static_caravans": "no", "tents": "yes", "tourism": "camp_site", "osm_id": 12469660253}}, {"type": "Feature", "geometry": {"type": "Point", "coordinates": [-97.1273087, 33.9315526]}, "properties": {"tourism": "caravan_site", "osm_id": 12551317629}}, {"type": "Feature", "geometry": {"type": "Point", "coordinates": [-101.9793653, 35.8671982]}, "properties": {"addr:city": "Dumas", "addr:postcode": "79029", "addr:state": "TX", "fee": "no", "name": "Texhoma RV Park", "power_supply": "yes", "sanitary_dump_station": "yes", "tourism": "caravan_site", "website": "https://www.dumastx.gov/community/recreation/texhoma_park.php", "osm_id": 12643554662}}, {"type": "Feature", "geometry": {"type": "Point", "coordinates": [-101.9781964, 35.8658117]}, "properties": {"addr:city": "Dumas", "addr:housenumber": "500", "addr:postcode": "79029", "addr:state": "TX", "addr:street": "West 1st Street", "name": "BR RV Ranch", "phone": "+1-806-679-4143", "power_supply": "yes", "sanitary_dump_station": "yes", "tourism": "caravan_site", "osm_id": 12643554663}}, {"type": "Feature", "geometry": {"type": "Point", "coordinates": [-97.708248, 33.7890495]}, "properties": {"tourism": "caravan_site", "osm_id": 12734079514}}, {"type": "Feature", "geometry": {"type": "Point", "coordinates": [-96.111618, 34.0107393]}, "properties": {"name": "Big Creek RV Park", "tourism": "caravan_site", "osm_id": 12786054886}}, {"type": "Feature", "geometry": {"type": "Point", "coordinates": [-97.1719727, 34.1709826]}, "properties": {"tourism": "caravan_site", "osm_id": 12888917443}}, {"type": "Feature", "geometry": {"type": "Point", "coordinates": [-97.1610924, 34.1172073]}, "properties": {"tourism": "caravan_site", "osm_id": 12888917457}}, {"type": "Feature", "geometry": {"type": "Point", "coordinates": [-97.1583534, 34.1189979]}, "properties": {"tourism": "caravan_site", "osm_id": 12888917458}}, {"type": "Feature", "geometry": {"type": "Point", "coordinates": [-98.3600399, 34.5921538]}, "properties": {"tourism": "caravan_site", "osm_id": 12945049661}}, {"type": "Feature", "geometry": {"type": "Point", "coordinates": [-101.6712092, 35.2069936]}, "properties": {"addr:city": "Amarillo", "addr:housenumber": "901", "addr:postcode": "79111", "addr:state": "TX", "addr:street": "Jackrabbit Road", "name": "AOK Camper Park", "power_supply": "yes", "sanitary_dump_station": "yes", "tourism": "caravan_site", "osm_id": 12945735963}}, {"type": "Feature", "geometry": {"type": "Point", "coordinates": [-98.0099647, 35.8554601]}, "properties": {"tourism": "caravan_site", "osm_id": 13085596378}}, {"type": "Feature", "geometry": {"type": "Point", "coordinates": [-101.8475111, 35.4652311]}, "properties": {"name": "Primitive Camping Area", "operator": "National Park Service", "tourism": "camp_site", "osm_id": 13121445459}}, {"type": "Feature", "geometry": {"type": "Point", "coordinates": [-96.9918563, 34.4200624]}, "properties": {"name": "Goddard Youth Camp", "tourism": "camp_site", "website": "https://www.goddardyouth.camp/", "osm_id": 13121469257}}, {"type": "Feature", "geometry": {"type": "Point", "coordinates": [-96.9881202, 34.4296738]}, "properties": {"name": "Buckhorn Campground Loop A", "operator": "National Park Service", "tourism": "camp_site", "website": "https://www.nps.gov/chic/", "osm_id": 13121473240}}, {"type": "Feature", "geometry": {"type": "Point", "coordinates": [-101.7321074, 35.5941898]}, "properties": {"name": "Middle Plum Creek Campground", "operator": "National Park Service", "tourism": "camp_site", "osm_id": 13121504273}}, {"type": "Feature", "geometry": {"type": "Point", "coordinates": [-101.7516433, 35.6102923]}, "properties": {"name": "Upper Plum Creek Windmill Campground", "operator": "National Park Service", "tourism": "camp_site", "osm_id": 13121511440}}, {"type": "Feature", "geometry": {"type": "Point", "coordinates": [-96.9919972, 34.4271324]}, "properties": {"name": "Buckhorn Campground Loop B", "operator": "National Park Service", "tourism": "camp_site", "osm_id": 13121544129}}, {"type": "Feature", "geometry": {"type": "Point", "coordinates": [-101.7252578, 35.5923031]}, "properties": {"name": "Lower Plum Creek Campground", "operator": "National Park Service", "tourism": "camp_site", "osm_id": 13121545811}}, {"type": "Feature", "geometry": {"type": "Point", "coordinates": [-101.628935, 35.6474768]}, "properties": {"name": "Harbor Bay Campground", "operator": "National Park Service", "tents": "yes", "tourism": "camp_site", "website": "https://www.nps.gov/lamr/planyourvisit/camping.htm", "osm_id": 13121607701}}, {"type": "Feature", "geometry": {"type": "Point", "coordinates": [-97.0180583, 34.4587586]}, "properties": {"name": "The Point Campground (Chickasaw)", "operator": "National Park Service", "tourism": "camp_site", "website": "https://www.recreation.gov/camping/campgrounds/234048", "osm_id": 13127375771}}, {"type": "Feature", "geometry": {"type": "Point", "coordinates": [-101.757593, 35.6162411]}, "properties": {"access": "yes", "name": "Campground - Upper Plum Creek", "operator": "National Park Service", "tourism": "camp_site", "website": "https://www.recreation.gov/camping/poi/258973", "osm_id": 13127417666}}, {"type": "Feature", "geometry": {"type": "Point", "coordinates": [-101.6638631, 35.7226655]}, "properties": {"access": "yes", "name": "Blue Creek Campground", "operator": "National Park Service", "tourism": "camp_site", "website": "https://www.recreation.gov/camping/poi/258976", "osm_id": 13127422117}}, {"type": "Feature", "geometry": {"type": "Point", "coordinates": [-99.4016123, 35.3931542]}, "properties": {"tourism": "caravan_site", "osm_id": 13430659773}}, {"type": "Feature", "geometry": {"type": "Point", "coordinates": [-98.4038537, 36.3418917]}, "properties": {"name": "William's Scout Reservation", "tourism": "camp_site", "osm_id": 73031018}}, {"type": "Feature", "geometry": {"type": "Point", "coordinates": [-95.7559931, 36.0211413]}, "properties": {"access": "private", "internet_access": "no", "leisure": "summer_camp", "name": "Camp Russell", "operator": "Boy Scouts of America", "smoking": "isolated", "tourism": "camp_site", "osm_id": 98826807}}, {"type": "Feature", "geometry": {"type": "Point", "coordinates": [-98.4063446, 36.3427351]}, "properties": {"name": "Staff Area", "tourism": "camp_site", "osm_id": 129101964}}, {"type": "Feature", "geometry": {"type": "Point", "coordinates": [-94.6762303, 34.7150463]}, "properties": {"internet_access": "no", "name": "Winding Stair Campground", "tourism": "camp_site", "osm_id": 170776212}}, {"type": "Feature", "geometry": {"type": "Point", "coordinates": [-95.8666369, 36.1671387]}, "properties": {"name": "Mingo RV Park", "tourism": "caravan_site", "osm_id": 202210765}}, {"type": "Feature", "geometry": {"type": "Point", "coordinates": [-96.4113783, 33.9570146]}, "properties": {"name": "Durant Choctaw Casino KOA RV Park", "tourism": "caravan_site", "osm_id": 202625600}}, {"type": "Feature", "geometry": {"type": "Point", "coordinates": [-97.05297, 36.1285223]}, "properties": {"tourism": "caravan_site", "osm_id": 209501614}}, {"type": "Feature", "geometry": {"type": "Point", "coordinates": [-97.188888, 36.1708159]}, "properties": {"backcountry": "no", "caravans": "yes", "email": "camphost@lakemcmurtry.org", "group_only": "no", "internet_access": "wlan", "internet_access:fee": "no", "name": "Lake McMurtry West", "operator": "Lake McMurtry Friends, Inc", "phone": "+1 405 747 8085", "reservation": "recommended", "sanitary_dump_station": "customers", "tents": "yes", "tourism": "camp_site", "website": "https://www.lakemcmurtry.org/camping.html", "osm_id": 232540702}}, {"type": "Feature", "geometry": {"type": "Point", "coordinates": [-99.9011398, 34.0139996]}, "properties": {"addr:city": "Crowell", "addr:country": "US", "addr:housenumber": "10085", "addr:postcode": "79227", "addr:state": "TX", "addr:street": "US Highway 70", "name": "Longhorn Ranch RV Park", "tourism": "caravan_site", "osm_id": 239298759}}, {"type": "Feature", "geometry": {"type": "Point", "coordinates": [-98.4267507, 35.9376922]}, "properties": {"tourism": "camp_site", "osm_id": 244112871}}, {"type": "Feature", "geometry": {"type": "Point", "coordinates": [-98.4240664, 35.9433034]}, "properties": {"tourism": "caravan_site", "osm_id": 244112874}}, {"type": "Feature", "geometry": {"type": "Point", "coordinates": [-98.4245301, 35.9396321]}, "properties": {"tourism": "caravan_site", "osm_id": 244112875}}, {"type": "Feature", "geometry": {"type": "Point", "coordinates": [-98.434671, 35.9336991]}, "properties": {"tourism": "caravan_site", "osm_id": 244112877}}, {"type": "Feature", "geometry": {"type": "Point", "coordinates": [-98.4253873, 35.9437712]}, "properties": {"tourism": "caravan_site", "osm_id": 244112880}}, {"type": "Feature", "geometry": {"type": "Point", "coordinates": [-96.1605891, 36.349813]}, "properties": {"name": "Davy Crockett", "tourism": "camp_site", "osm_id": 250177126}}, {"type": "Feature", "geometry": {"type": "Point", "coordinates": [-96.1601365, 36.3485531]}, "properties": {"name": "Jim Bowie", "tourism": "camp_site", "osm_id": 250177131}}, {"type": "Feature", "geometry": {"type": "Point", "coordinates": [-96.1586954, 36.3493955]}, "properties": {"name": "Captain Hook", "tourism": "camp_site", "osm_id": 250177159}}, {"type": "Feature", "geometry": {"type": "Point", "coordinates": [-96.1582214, 36.3497044]}, "properties": {"name": "Daniel Boone", "tourism": "camp_site", "osm_id": 250177178}}, {"type": "Feature", "geometry": {"type": "Point", "coordinates": [-96.1577789, 36.3493528]}, "properties": {"name": "John Paul Jones", "tourism": "camp_site", "osm_id": 250177195}}, {"type": "Feature", "geometry": {"type": "Point", "coordinates": [-96.158611, 36.3482362]}, "properties": {"name": "Sequoyah", "tourism": "camp_site", "osm_id": 250182843}}, {"type": "Feature", "geometry": {"type": "Point", "coordinates": [-96.156602, 36.3484066]}, "properties": {"name": "Robinson Crusoe", "tourism": "camp_site", "osm_id": 250182844}}, {"type": "Feature", "geometry": {"type": "Point", "coordinates": [-96.1559408, 36.348613]}, "properties": {"name": "Sir Lancelot", "tourism": "camp_site", "osm_id": 250182845}}, {"type": "Feature", "geometry": {"type": "Point", "coordinates": [-96.1593841, 36.3472015]}, "properties": {"name": "Chief Seattle", "tourism": "camp_site", "osm_id": 250182851}}, {"type": "Feature", "geometry": {"type": "Point", "coordinates": [-96.1535248, 36.3485908]}, "properties": {"name": "Prince Valiant", "tourism": "camp_site", "osm_id": 250182868}}, {"type": "Feature", "geometry": {"type": "Point", "coordinates": [-96.1528348, 36.3490288]}, "properties": {"tourism": "camp_site", "osm_id": 250182875}}, {"type": "Feature", "geometry": {"type": "Point", "coordinates": [-96.1546505, 36.3501418]}, "properties": {"name": "King Arthur", "tourism": "camp_site", "osm_id": 250182876}}, {"type": "Feature", "geometry": {"type": "Point", "coordinates": [-96.1518417, 36.3497123]}, "properties": {"name": "Huck Finn", "tourism": "camp_site", "osm_id": 250186906}}, {"type": "Feature", "geometry": {"type": "Point", "coordinates": [-96.1520724, 36.3500801]}, "properties": {"name": "Tom Sawyer", "tourism": "camp_site", "osm_id": 250186918}}, {"type": "Feature", "geometry": {"type": "Point", "coordinates": [-96.1508916, 36.3501751]}, "properties": {"name": "Mark Twain", "tourism": "camp_site", "osm_id": 250186930}}, {"type": "Feature", "geometry": {"type": "Point", "coordinates": [-96.2210343, 36.4152925]}, "properties": {"name": "Bull Creek Peninsula", "operator": "Army Corps of Engineers", "tourism": "camp_site", "osm_id": 250206271}}, {"type": "Feature", "geometry": {"type": "Point", "coordinates": [-96.2181769, 36.3878104]}, "properties": {"backcountry": "no", "caravans": "yes", "group_only": "no", "name": "Skiatook Lake Twin Points Campground", "opening_hours": "Apr 01-Oct 30 open; Nov 01-Mar 31 closed", "operator": "U.S. Army Corps of Engineers - Tulsa District", "phone": "+1 918 396 1376", "reservation": "required", "tents": "yes", "tourism": "camp_site", "osm_id": 250231708}}, {"type": "Feature", "geometry": {"type": "Point", "coordinates": [-95.7281588, 35.4533575]}, "properties": {"addr:city": "Checotah", "addr:country": "US", "addr:housenumber": "409615", "addr:postcode": "74426", "addr:street": "East 1078 Road", "email": "checotahkoa@gmail.com", "fee": "yes", "internet_access": "wlan", "name": "Kampgrounds of America", "phone": "+1-918-473-6511", "power_supply": "yes", "stars": "4.5", "tents": "yes", "tourism": "caravan_site", "website": "https://koa.com/campgrounds/checotah/", "osm_id": 293591527}}, {"type": "Feature", "geometry": {"type": "Point", "coordinates": [-94.6714996, 36.1736441]}, "properties": {"tourism": "caravan_site", "osm_id": 302158391}}, {"type": "Feature", "geometry": {"type": "Point", "coordinates": [-94.6722636, 36.1749146]}, "properties": {"tourism": "camp_site", "osm_id": 302158392}}, {"type": "Feature", "geometry": {"type": "Point", "coordinates": [-96.0928632, 36.0224215]}, "properties": {"name": "Route 66 RV Park", "tourism": "caravan_site", "osm_id": 306474545}}, {"type": "Feature", "geometry": {"type": "Point", "coordinates": [-97.4059399, 35.7974836]}, "properties": {"addr:city": "Guthrie", "addr:housenumber": "1601", "addr:postcode": "73044", "addr:state": "OK", "addr:street": "East Seward Road", "name": "Pioneer RV Park", "tourism": "caravan_site", "osm_id": 319199021}}, {"type": "Feature", "geometry": {"type": "Point", "coordinates": [-95.9971537, 36.0952391]}, "properties": {"addr:city": "Tulsa", "addr:housenumber": "4808", "addr:postcode": "74017", "addr:state": "OK", "addr:street": "South Elwood Avenue", "landuse": "residential", "name": "Cherry Hill Park", "phone": "+1-918-446-9342", "tourism": "caravan_site", "website": "http://cherryhillmhc.com", "osm_id": 335657563}}, {"type": "Feature", "geometry": {"type": "Point", "coordinates": [-95.9631638, 36.744375]}, "properties": {"addr:city": "Bartlesville", "addr:housenumber": "1211", "addr:postcode": "74003", "addr:street": "Southeast Adams Boulevard", "name": "Riverside RV Resort & Campground", "phone": "+1-918-336-6431", "tourism": "caravan_site", "website": "https://resortrv.com/", "osm_id": 342757288}}, {"type": "Feature", "geometry": {"type": "Point", "coordinates": [-94.6546561, 34.6452636]}, "properties": {"addr:city": "Hodgen", "addr:housenumber": "21823", "addr:postcode": "74939", "addr:state": "OK", "addr:street": "OK-63", "ele": "269", "name": "Big Cedar RV Park & Cabins", "operator": "Kurt & Lori Schultz", "phone": "+1 918 525 2637", "tourism": "caravan_site", "website": "https://www.bigcedarrvpark.com/", "osm_id": 349171567}}, {"type": "Feature", "geometry": {"type": "Point", "coordinates": [-94.9335004, 34.5277859]}, "properties": {"ele": "912 feet", "name": "Christ's Forty Acres", "operator": "Kiamichi Mountains Christian Mission", "tourism": "camp_site", "osm_id": 350188133}}, {"type": "Feature", "geometry": {"type": "Point", "coordinates": [-98.3530963, 35.4513622]}, "properties": {"tourism": "caravan_site", "osm_id": 377076728}}, {"type": "Feature", "geometry": {"type": "Point", "coordinates": [-98.35481, 35.4377115]}, "properties": {"tourism": "caravan_site", "osm_id": 377076729}}, {"type": "Feature", "geometry": {"type": "Point", "coordinates": [-98.3546554, 35.4403839]}, "properties": {"tourism": "caravan_site", "osm_id": 377076730}}, {"type": "Feature", "geometry": {"type": "Point", "coordinates": [-98.3538241, 35.4452522]}, "properties": {"tourism": "caravan_site", "osm_id": 377076731}}, {"type": "Feature", "geometry": {"type": "Point", "coordinates": [-98.3544751, 35.4378148]}, "properties": {"tourism": "caravan_site", "osm_id": 377076732}}, {"type": "Feature", "geometry": {"type": "Point", "coordinates": [-95.336691, 35.0041057]}, "properties": {"caravans": "yes", "drinking_water": "yes", "internet_access": "no", "name": "Group Camp", "old_name": "Group Camp Number 2", "power_supply": "yes", "sanitary_dump_station": "no", "shower": "yes", "tents": "yes", "toilets": "yes", "tourism": "camp_site", "wheelchair": "limited", "osm_id": 389793604}}, {"type": "Feature", "geometry": {"type": "Point", "coordinates": [-95.3345242, 35.0044586]}, "properties": {"caravans": "yes", "drinking_water": "no", "internet_access": "no", "name": "Red Bud Campground", "power_supply": "no", "sanitary_dump_station": "no", "shower": "no", "tents": "yes", "toilets": "no", "tourism": "camp_site", "website": "http://rv.okparks.com/", "wheelchair": "no", "osm_id": 389920918}}, {"type": "Feature", "geometry": {"type": "Point", "coordinates": [-102.7251716, 34.6443357]}, "properties": {"capacity": "10", "name": "City of Friona RV Park", "phone": "+1 806-250-2761", "tourism": "caravan_site", "osm_id": 391317228}}, {"type": "Feature", "geometry": {"type": "Point", "coordinates": [-94.4555906, 36.5862942]}, "properties": {"tourism": "camp_site", "osm_id": 396114639}}, {"type": "Feature", "geometry": {"type": "Point", "coordinates": [-94.4595834, 36.5870564]}, "properties": {"tourism": "camp_site", "osm_id": 396114640}}, {"type": "Feature", "geometry": {"type": "Point", "coordinates": [-94.4640729, 36.5808654]}, "properties": {"tourism": "camp_site", "osm_id": 396114997}}, {"type": "Feature", "geometry": {"type": "Point", "coordinates": [-95.3503248, 34.9947397]}, "properties": {"name": "CCC Camp", "old_name": "Group Camp Number 1", "tourism": "camp_site", "osm_id": 397141006}}, {"type": "Feature", "geometry": {"type": "Point", "coordinates": [-95.3559538, 34.9715413]}, "properties": {"name": "Deep Ford Campground", "tourism": "camp_site", "osm_id": 399720771}}, {"type": "Feature", "geometry": {"type": "Point", "coordinates": [-95.3562557, 34.9618013]}, "properties": {"name": "Dogwood Campground", "tourism": "camp_site", "osm_id": 399720772}}, {"type": "Feature", "geometry": {"type": "Point", "coordinates": [-95.3548329, 34.9878443]}, "properties": {"name": "Equestrian Camp", "tourism": "camp_site", "osm_id": 399720773}}, {"type": "Feature", "geometry": {"type": "Point", "coordinates": [-95.3537326, 34.9952959]}, "properties": {"name": "Lake Wayne Wallace Campground", "tourism": "camp_site", "osm_id": 399720776}}, {"type": "Feature", "geometry": {"type": "Point", "coordinates": [-95.354158, 34.9793438]}, "properties": {"name": "Old Circle Campground", "tourism": "caravan_site", "osm_id": 399720780}}, {"type": "Feature", "geometry": {"type": "Point", "coordinates": [-95.3545507, 34.9816831]}, "properties": {"name": "Whispering Pines Campground", "tourism": "caravan_site", "osm_id": 399720784}}, {"type": "Feature", "geometry": {"type": "Point", "coordinates": [-95.3584059, 34.9668303]}, "properties": {"name": "Youngers Bend Campground", "tourism": "camp_site", "osm_id": 399720785}}, {"type": "Feature", "geometry": {"type": "Point", "coordinates": [-95.2532283, 35.7791784]}, "properties": {"tourism": "caravan_site", "osm_id": 421559772}}, {"type": "Feature", "geometry": {"type": "Point", "coordinates": [-97.6554255, 35.4557002]}, "properties": {"tourism": "caravan_site", "osm_id": 426648537}}, {"type": "Feature", "geometry": {"type": "Point", "coordinates": [-97.6336949, 35.4586616]}, "properties": {"addr:city": "Oklahoma City", "addr:housenumber": "720", "addr:postcode": "73128", "addr:state": "OK", "addr:street": "South Rockwell Avenue", "name": "Rockwell RV Park & Campground", "tourism": "caravan_site", "osm_id": 426648538}}, {"type": "Feature", "geometry": {"type": "Point", "coordinates": [-99.2034424, 35.5332661]}, "properties": {"source": "Bing", "tourism": "camp_site", "osm_id": 431424705}}, {"type": "Feature", "geometry": {"type": "Point", "coordinates": [-99.2103221, 35.5815281]}, "properties": {"source": "Bing", "tourism": "camp_site", "osm_id": 431424711}}, {"type": "Feature", "geometry": {"type": "Point", "coordinates": [-94.6239082, 36.8265343]}, "properties": {"name": "Indigo Sky Resort", "tourism": "caravan_site", "osm_id": 434416754}}, {"type": "Feature", "geometry": {"type": "Point", "coordinates": [-99.8820774, 34.335883]}, "properties": {"addr:city": "Quanah", "addr:housenumber": "230", "addr:postcode": "79252", "addr:state": "TX", "addr:street": "Market St.", "email": "oletowne2@gmail.com", "fax": "+1-940-674-2477", "name": "Ole Towne Cotton Gin RV Park", "operator": "Norma Trolinder", "phone": "+1-940-674-2477", "tourism": "camp_site", "website": "https://www.oletowncottonginrvpark.com/", "osm_id": 436632230}}, {"type": "Feature", "geometry": {"type": "Point", "coordinates": [-98.5111374, 33.9166937]}, "properties": {"addr:city": "Wichita Falls", "addr:housenumber": "300", "addr:postcode": "76306", "addr:state": "TX", "addr:street": "Central Freeway", "name": "Wichita Bend RV Park", "tourism": "caravan_site", "osm_id": 445242570}}, {"type": "Feature", "geometry": {"type": "Point", "coordinates": [-96.9672699, 34.5047587]}, "properties": {"capacity": "10", "description": "Group camping only.", "name": "Central Campground", "tourism": "camp_site", "wheelchair": "yes", "osm_id": 446406507}}, {"type": "Feature", "geometry": {"type": "Point", "coordinates": [-96.9586799, 34.5016115]}, "properties": {"capacity": "65", "fee": "yes", "name": "Cold Spring Campground", "operator": "Chickasaw National Recreation Area", "tourism": "camp_site", "wheelchair": "yes", "osm_id": 446406509}}, {"type": "Feature", "geometry": {"type": "Point", "coordinates": [-96.987516, 34.4957042]}, "properties": {"capacity": "100", "name": "Rock Creek Campground", "tourism": "camp_site", "osm_id": 446406517}}, {"type": "Feature", "geometry": {"type": "Point", "coordinates": [-101.5987494, 35.6815578]}, "properties": {"name": "Fritch Fortress Campground", "tourism": "camp_site", "osm_id": 451796397}}, {"type": "Feature", "geometry": {"type": "Point", "coordinates": [-101.5760899, 35.693988]}, "properties": {"name": "Cedar Canyon", "tourism": "camp_site", "osm_id": 451976737}}, {"type": "Feature", "geometry": {"type": "Point", "coordinates": [-101.5617633, 35.7061211]}, "properties": {"name": "Sanford -Yake Campground", "tourism": "camp_site", "osm_id": 451976744}}, {"type": "Feature", "geometry": {"type": "Point", "coordinates": [-101.6306273, 35.6815148]}, "properties": {"name": "Blue West Campground", "tourism": "camp_site", "osm_id": 451982777}}, {"type": "Feature", "geometry": {"type": "Point", "coordinates": [-100.9329215, 35.5373842]}, "properties": {"addr:city": "Pampa", "addr:housenumber": "100", "addr:postcode": "79065", "addr:state": "TX", "addr:street": "RV Drive", "name": "Recreation Park RV Park", "tourism": "caravan_site", "osm_id": 452919456}}, {"type": "Feature", "geometry": {"type": "Point", "coordinates": [-101.9578528, 35.1905256]}, "properties": {"name": "Fort Amarillo RV Park", "tents": "no", "tourism": "caravan_site", "website": "https://fortrvparks.com/", "osm_id": 456545843}}, {"type": "Feature", "geometry": {"type": "Point", "coordinates": [-101.7733276, 35.1952559]}, "properties": {"name": "Amarillo Ranch RV Park", "tents": "yes", "tourism": "caravan_site", "website": "https://www.amarilloranch.com/", "osm_id": 456547935}}, {"type": "Feature", "geometry": {"type": "Point", "coordinates": [-102.6690259, 35.2715708]}, "properties": {"addr:city": "Adrian", "addr:housenumber": "100", "addr:postcode": "79001", "addr:state": "TX", "addr:street": "West Historic Route 66", "fee": "yes", "internet_access": "wlan", "internet_access:fee": "no", "laundry": "self_service", "name": "Midpoint RV Park and Campground", "phone": "+1 806 344 6535", "tents": "yes", "tourism": "caravan_site", "osm_id": 457755555}}, {"type": "Feature", "geometry": {"type": "Point", "coordinates": [-95.6292969, 36.3119481]}, "properties": {"capacity": "44", "internet_access": "yes", "laundry": "yes", "name": "Claremore Expo Center RV Park", "phone": "+1 918 342 5357", "power_supply": "yes", "sanitary_dump_station": "yes", "shower": "yes", "tents": "yes", "toilets": "yes", "tourism": "caravan_site", "website": "http://www.claremorecity.com/162/RV-Park", "wheelchair": "yes", "osm_id": 468038561}}, {"type": "Feature", "geometry": {"type": "Point", "coordinates": [-102.1198818, 34.9045546]}, "properties": {"internet_access": "no", "tourism": "camp_site", "osm_id": 471557472}}, {"type": "Feature", "geometry": {"type": "Point", "coordinates": [-102.1187821, 34.9081977]}, "properties": {"internet_access:fee": "no", "tourism": "camp_site", "osm_id": 471557835}}, {"type": "Feature", "geometry": {"type": "Point", "coordinates": [-101.744049, 35.1960821]}, "properties": {"addr:city": "Amarillo", "addr:housenumber": "900", "addr:postcode": "79118", "addr:state": "TX", "addr:street": "South Lakeside Drive", "name": "Overnite RV Park", "phone": "+1 806 373 1431", "tourism": "caravan_site", "website": "https://www.overnitervpark.com/", "osm_id": 471892078}}, {"type": "Feature", "geometry": {"type": "Point", "coordinates": [-101.0777126, 34.4424667]}, "properties": {"internet_access": "no", "name": "Little Red Tent Camping Area", "tourism": "camp_site", "osm_id": 473699936}}, {"type": "Feature", "geometry": {"type": "Point", "coordinates": [-101.0935465, 34.4404227]}, "properties": {"internet_access": "no", "name": "South Prong Tent Camping Area", "tourism": "camp_site", "osm_id": 473699939}}, {"type": "Feature", "geometry": {"type": "Point", "coordinates": [-101.0543969, 34.4208072]}, "properties": {"name": "Honey Flat Camping Area", "tourism": "camp_site", "osm_id": 477069467}}, {"type": "Feature", "geometry": {"type": "Point", "coordinates": [-98.4395099, 35.9358871]}, "properties": {"barrier": "fence", "fence_type": "barbed_wire", "internet_access": "no", "name": "Turkey Roost", "operator": "Oklahoma Department of Parks and Tourism", "smoking": "no", "tourism": "camp_site", "wheelchair": "yes", "osm_id": 477828847}}, {"type": "Feature", "geometry": {"type": "Point", "coordinates": [-97.4868202, 35.4174579]}, "properties": {"addr:city": "Oklahoma City", "addr:housenumber": "4740", "addr:postcode": "73129", "addr:state": "OK", "addr:street": "South I-35 Service Road", "name": "Roadrunner RV Park", "tourism": "caravan_site", "osm_id": 495242765}}, {"type": "Feature", "geometry": {"type": "Point", "coordinates": [-94.7358266, 34.1672923]}, "properties": {"caravans": "yes", "name": "Armadillo Campround", "tourism": "camp_site", "osm_id": 496144575}}, {"type": "Feature", "geometry": {"type": "Point", "coordinates": [-94.725707, 34.1631328]}, "properties": {"name": "Blue Jay Drive", "tourism": "camp_site", "osm_id": 496144579}}, {"type": "Feature", "geometry": {"type": "Point", "coordinates": [-94.7175548, 34.1663053]}, "properties": {"name": "Coyote Drive Camping Area", "tourism": "camp_site", "osm_id": 496144582}}, {"type": "Feature", "geometry": {"type": "Point", "coordinates": [-97.3687061, 35.3413975]}, "properties": {"capacity": "32", "caravans": "yes", "group_only": "no", "name": "Crosstimbers Campground", "opening_hours": "Apr 01-Nov 15 open; Nov 16-Mar 31 closed", "operator": "City of Oklahoma City", "phone": "+1 405 799 0870", "tents": "yes", "tourism": "camp_site", "website": "https://www.okc.gov/departments/parks-recreation/lakes-and-fishing", "osm_id": 496245812}}, {"type": "Feature", "geometry": {"type": "Point", "coordinates": [-102.008471, 35.1845923]}, "properties": {"name": "Oasis RV Resort", "tourism": "caravan_site", "website": "https://www.myrvoasis.com", "osm_id": 514616027}}, {"type": "Feature", "geometry": {"type": "Point", "coordinates": [-97.6574278, 35.2161144]}, "properties": {"name": "A-AAA RV Park", "tourism": "caravan_site", "osm_id": 523832658}}, {"type": "Feature", "geometry": {"type": "Point", "coordinates": [-94.8144968, 35.9581463]}, "properties": {"addr:city": "Tahlequah", "addr:country": "US", "addr:housenumber": "26633", "addr:postcode": "74464", "addr:state": "OK", "addr:street": "Highway 62", "email": "oklahomacamping@okumc.org", "name": "Camp Egan", "phone": "+1 918 456 6489", "tourism": "camp_site", "website": "https://okcamps.org/egan/", "osm_id": 541781940}}, {"type": "Feature", "geometry": {"type": "Point", "coordinates": [-98.4437911, 35.646802]}, "properties": {"addr:city": "Geary", "addr:country": "US", "addr:housenumber": "94495", "addr:postcode": "73040", "addr:state": "OK", "addr:street": "North 2560 Road", "name": "Lariat Creek Christian Camp", "phone": "+1-405-519-8945", "tourism": "camp_site", "website": "https://lariatcreek.org/", "osm_id": 541789409}}, {"type": "Feature", "geometry": {"type": "Point", "coordinates": [-95.5639556, 35.405564]}, "properties": {"building": "office", "building:levels": "1", "internet_access": "wlan", "name": "Onapa RV Park", "power_supply": "yes", "sanitary_dump_station": "customers", "tents": "yes", "tourism": "caravan_site", "osm_id": 548877192}}, {"type": "Feature", "geometry": {"type": "Point", "coordinates": [-98.5017945, 34.9027166]}, "properties": {"name": "Camp George Thomas", "operator": "Boy Scouts of America", "tourism": "camp_site", "osm_id": 561606757}}, {"type": "Feature", "geometry": {"type": "Point", "coordinates": [-97.4795025, 35.1575896]}, "properties": {"tourism": "caravan_site", "osm_id": 588517483}}, {"type": "Feature", "geometry": {"type": "Point", "coordinates": [-97.3950612, 35.630944]}, "properties": {"addr:city": "Edmond", "addr:housenumber": "6400", "addr:postcode": "73013", "addr:state": "OK", "addr:street": "East 15th Street", "fee": "yes", "name": "Scissortail Campground", "operator": "City of Edmond", "sanitary_dump_station": "customers", "tourism": "camp_site", "website": "https://edmondok.com/Facilities/Facility/Details/Scissortail-Campground-10", "osm_id": 592567684}}, {"type": "Feature", "geometry": {"type": "Point", "coordinates": [-97.0274036, 36.7370516]}, "properties": {"capacity": "150", "fee": "no", "internet_access": "yes", "internet_access:fee": "no", "name": "Camp Lew Wentz", "operator": "City of Ponca City", "tourism": "camp_site", "osm_id": 603461237}}, {"type": "Feature", "geometry": {"type": "Point", "coordinates": [-96.3976052, 34.0819037]}, "properties": {"tourism": "caravan_site", "osm_id": 608493654}}, {"type": "Feature", "geometry": {"type": "Point", "coordinates": [-96.2049573, 36.1502641]}, "properties": {"landuse": "residential", "name": "Tanglewood RV Park", "tourism": "caravan_site", "osm_id": 616413498}}, {"type": "Feature", "geometry": {"type": "Point", "coordinates": [-96.4325609, 36.2798791]}, "properties": {"tourism": "caravan_site", "osm_id": 669618136}}, {"type": "Feature", "geometry": {"type": "Point", "coordinates": [-96.4333682, 36.281424]}, "properties": {"tourism": "caravan_site", "osm_id": 669618142}}, {"type": "Feature", "geometry": {"type": "Point", "coordinates": [-101.9731823, 35.1861224]}, "properties": {"addr:city": "Amarillo", "addr:housenumber": "2601", "addr:postcode": "79124", "addr:state": "TX", "addr:street": "Hope Road", "name": "Cadillac RV Park", "tourism": "caravan_site", "osm_id": 685959373}}, {"type": "Feature", "geometry": {"type": "Point", "coordinates": [-101.9637995, 35.1864647]}, "properties": {"addr:city": "Amarillo", "addr:housenumber": "10899", "addr:postcode": "79124", "addr:state": "TX", "addr:street": "West Interstate 40", "internet_access": "yes", "name": "Route 66 R.V. Ranch", "phone": "+18063590921", "tourism": "caravan_site", "website": "https://route66rvranch.com/", "osm_id": 685959382}}, {"type": "Feature", "geometry": {"type": "Point", "coordinates": [-101.8334787, 33.6408501]}, "properties": {"addr:city": "Lubbock", "addr:housenumber": "100", "addr:postcode": "79403", "addr:state": "TX", "addr:street": "East Purdue Street", "name": "Skyview RV Park", "tourism": "caravan_site", "osm_id": 696816187}}, {"type": "Feature", "geometry": {"type": "Point", "coordinates": [-101.8787266, 34.9823119]}, "properties": {"addr:city": "Canyon", "addr:housenumber": "5707", "addr:postcode": "79015", "addr:state": "TX", "addr:street": "4th Avenue", "internet_access": "wlan", "name": "Palo Duro RV Park", "power_supply": "yes", "tourism": "caravan_site", "osm_id": 697897049}}, {"type": "Feature", "geometry": {"type": "Point", "coordinates": [-101.88552, 35.1210107]}, "properties": {"addr:city": "Amarillo", "addr:housenumber": "8530", "addr:postcode": "79110", "addr:state": "TX", "addr:street": "South Western Street", "name": "Western Mobile Home Park", "tourism": "caravan_site", "osm_id": 698455814}}, {"type": "Feature", "geometry": {"type": "Point", "coordinates": [-95.1895681, 36.6261638]}, "properties": {"name": "Park Hills RV Park", "tourism": "caravan_site", "osm_id": 699458895}}, {"type": "Feature", "geometry": {"type": "Point", "coordinates": [-97.0053569, 34.4944039]}, "properties": {"access": "customers", "addr:city": "Sulphur", "addr:housenumber": "774", "addr:postcode": "73086", "addr:street": "Charles F. Cooper Memorial Drive", "capacity": "44", "fee": "yes", "internet_access": "wlan", "internet_access:fee": "no", "name": "Arbuckle RV Resort", "payment:cash": "yes", "payment:credit_cards": "yes", "tourism": "camp_site", "wheelchair": "limited", "osm_id": 702097257}}, {"type": "Feature", "geometry": {"type": "Point", "coordinates": [-95.9308904, 33.6066031]}, "properties": {"access": "private", "fee": "no", "internet_access": "no", "name": "Troop Campground", "tourism": "camp_site", "osm_id": 708643947}}, {"type": "Feature", "geometry": {"type": "Point", "coordinates": [-101.9318136, 33.6371868]}, "properties": {"addr:city": "Lubbock", "addr:housenumber": "5502", "addr:postcode": "79416", "addr:state": "TX", "addr:street": "County Road 6300", "name": "Lubbock KOA Campground & RV Park", "tourism": "caravan_site", "osm_id": 708704034}}, {"type": "Feature", "geometry": {"type": "Point", "coordinates": [-96.8085109, 33.7804363]}, "properties": {"name": "Big Mineral", "tourism": "camp_site", "osm_id": 713099397}}, {"type": "Feature", "geometry": {"type": "Point", "coordinates": [-96.8080645, 33.7853522]}, "properties": {"name": "Big Mineral", "tourism": "camp_site", "osm_id": 713099398}}, {"type": "Feature", "geometry": {"type": "Point", "coordinates": [-96.1792356, 36.2990744]}, "properties": {"access": "private", "leisure": "scout_camp", "name": "Zink Ranch", "operator": "Indian Nation Council;Boy Scouts of America", "scout": "yes", "tourism": "camp_site", "osm_id": 718209154}}, {"type": "Feature", "geometry": {"type": "Point", "coordinates": [-98.52063, 33.9508457]}, "properties": {"addr:city": "Wichita Falls", "addr:housenumber": "154", "addr:postcode": "76306", "addr:state": "TX", "addr:street": "Evergreen Drive", "name": "Evergreen Mobile Home Park", "tourism": "caravan_site", "osm_id": 747987497}}, {"type": "Feature", "geometry": {"type": "Point", "coordinates": [-95.5375844, 33.6807434]}, "properties": {"addr:city": "Paris", "addr:housenumber": "1825", "addr:postcode": "75460", "addr:state": "TX", "addr:street": "Northeast Loop 286", "name": "Shady Oaks Mobile Home Park", "tourism": "caravan_site", "osm_id": 763497586}}, {"type": "Feature", "geometry": {"type": "Point", "coordinates": [-101.1707416, 35.4333777]}, "properties": {"addr:city": "White Deer", "addr:housenumber": "401", "addr:postcode": "79097", "addr:state": "TX", "addr:street": "South Benedict Street", "name": "White Deer Stay N Store", "tourism": "caravan_site", "osm_id": 768406687}}, {"type": "Feature", "geometry": {"type": "Point", "coordinates": [-101.9031158, 35.1253819]}, "properties": {"addr:city": "Amarillo", "addr:housenumber": "7865", "addr:postcode": "79110", "addr:state": "TX", "addr:street": "Canyon Drive", "name": "Lakeview Mobile Home Park", "tourism": "caravan_site", "osm_id": 769816220}}, {"type": "Feature", "geometry": {"type": "Point", "coordinates": [-101.8326929, 35.2352267]}, "properties": {"addr:city": "Amarillo", "addr:housenumber": "2001", "addr:postcode": "79107", "addr:state": "TX", "addr:street": "Dumas Drive", "name": "Amarillo Best Wonderland RV Park", "power_supply": "yes", "sanitary_dump_station": "yes", "tourism": "caravan_site", "osm_id": 769881734}}, {"type": "Feature", "geometry": {"type": "Point", "coordinates": [-100.9767797, 35.5486278]}, "properties": {"addr:city": "Pampa", "addr:housenumber": "1300", "addr:postcode": "79065", "addr:state": "TX", "addr:street": "West Kentucky Avenue", "name": "Spring Meadows RV Park", "tourism": "caravan_site", "osm_id": 776088046}}, {"type": "Feature", "geometry": {"type": "Point", "coordinates": [-96.1699019, 36.3512372]}, "properties": {"tourism": "camp_site", "osm_id": 777609256}}, {"type": "Feature", "geometry": {"type": "Point", "coordinates": [-101.3956647, 35.6495174]}, "properties": {"addr:city": "Borger", "addr:housenumber": "1550", "addr:postcode": "79007", "addr:state": "TX", "addr:street": "South Florida Street", "name": "Pride Trailer Village", "tourism": "caravan_site", "osm_id": 792405914}}, {"type": "Feature", "geometry": {"type": "Point", "coordinates": [-100.7379395, 35.2128204]}, "properties": {"addr:city": "Alanreed", "addr:housenumber": "13112", "addr:postcode": "79002", "addr:state": "TX", "addr:street": "3rd Avenue", "name": "Longhorn RV Park", "tourism": "caravan_site", "osm_id": 795799020}}, {"type": "Feature", "geometry": {"type": "Point", "coordinates": [-100.9863302, 35.5376576]}, "properties": {"addr:city": "Pampa", "addr:housenumber": "2100", "addr:postcode": "79065", "addr:state": "TX", "addr:street": "West Montagu Avenue", "name": "Red Deer Villa RV Ranch", "tourism": "caravan_site", "osm_id": 810376358}}, {"type": "Feature", "geometry": {"type": "Point", "coordinates": [-100.9816121, 35.5484552]}, "properties": {"addr:city": "Pampa", "addr:housenumber": "1708", "addr:postcode": "79065", "addr:state": "TX", "addr:street": "West Kentucky Avenue", "name": "Urban Hidden Acres RV & Mobile Home Park", "tourism": "caravan_site", "osm_id": 813703759}}, {"type": "Feature", "geometry": {"type": "Point", "coordinates": [-98.5986813, 36.0804422]}, "properties": {"tourism": "camp_site", "osm_id": 825007720}}, {"type": "Feature", "geometry": {"type": "Point", "coordinates": [-94.8113166, 35.4389409]}, "properties": {"addr:city": "Sallisaw", "addr:housenumber": "1900", "addr:postcode": "74955", "addr:state": "OK", "addr:street": "KOA Power Drive", "brand": "KOA", "brand:wikidata": "Q16988635", "cabins": "yes", "drinking_water": "yes", "fee": "yes", "fishing": "yes", "name": "KOA Holiday", "phone": "+1-918-775-2792", "playground": "yes", "sanitary_dump_station": "yes", "short_name": "KOA", "tents": "yes", "toilets": "yes", "tourism": "caravan_site", "website": "https://koa.com/campgrounds/sallisaw/", "osm_id": 835656786}}, {"type": "Feature", "geometry": {"type": "Point", "coordinates": [-101.3692639, 35.3428421]}, "properties": {"addr:city": "Panhandle", "addr:housenumber": "410", "addr:postcode": "79068", "addr:state": "TX", "addr:street": "East US Highway 60", "name": "Country Sunset RV Park", "tourism": "caravan_site", "osm_id": 837266378}}, {"type": "Feature", "geometry": {"type": "Point", "coordinates": [-98.5558137, 33.952445]}, "properties": {"addr:city": "Wichita Falls", "addr:housenumber": "2812", "addr:postcode": "76306", "addr:state": "TX", "addr:street": "City View Drive", "name": "Dry Creek Mobile Home Park", "tourism": "caravan_site", "osm_id": 844831413}}, {"type": "Feature", "geometry": {"type": "Point", "coordinates": [-94.695678, 34.7748384]}, "properties": {"name": "Cedar Lake Shady Lane", "tourism": "caravan_site", "osm_id": 845163644}}, {"type": "Feature", "geometry": {"type": "Point", "coordinates": [-94.7008888, 34.7717229]}, "properties": {"name": "Cedar Lake Equestrian Camp", "tourism": "caravan_site", "osm_id": 845163645}}, {"type": "Feature", "geometry": {"type": "Point", "coordinates": [-98.5175711, 33.9299703]}, "properties": {"name": "Little Oak Trailer Park", "tourism": "caravan_site", "osm_id": 845223490}}, {"type": "Feature", "geometry": {"type": "Point", "coordinates": [-96.590488, 33.600461]}, "properties": {"addr:city": "Sherman", "addr:housenumber": "1601", "addr:postcode": "75090", "addr:state": "TX", "addr:street": "East FM 1417", "name": "Shadow Mountain", "tourism": "caravan_site", "osm_id": 851201412}}, {"type": "Feature", "geometry": {"type": "Point", "coordinates": [-96.5749971, 33.7006726]}, "properties": {"addr:city": "Sherman", "addr:housenumber": "6404", "addr:postcode": "75090", "addr:state": "TX", "addr:street": "Texoma Parkway", "name": "The Forest at Sherman", "tourism": "caravan_site", "osm_id": 852267766}}, {"type": "Feature", "geometry": {"type": "Point", "coordinates": [-95.2390837, 35.9013796]}, "properties": {"name": "Choctaw RV Campground", "tourism": "caravan_site", "osm_id": 860499465}}, {"type": "Feature", "geometry": {"type": "Point", "coordinates": [-98.4905835, 34.7568513]}, "properties": {"name": "Lake Lawtonka - East Campground", "operator": "City of Lawton", "tourism": "camp_site", "website": "https://www.lawtonok.gov/services/find-campground", "osm_id": 862711883}}, {"type": "Feature", "geometry": {"type": "Point", "coordinates": [-98.53377, 34.7773298]}, "properties": {"camp_site": "serviced", "name": "Lake Lawtonka - Robinson Landing Campground", "operator": "City of Lawton", "tourism": "camp_site", "website": "https://www.lawtonok.gov/services/find-campground", "osm_id": 862711884}}, {"type": "Feature", "geometry": {"type": "Point", "coordinates": [-96.9736271, 33.6509691]}, "properties": {"addr:city": "Whitesboro", "addr:housenumber": "11667", "addr:postcode": "76273", "addr:state": "TX", "addr:street": "East US Highway 82", "name": "Four Aces Highway 82 RV Park", "tourism": "caravan_site", "osm_id": 865212541}}, {"type": "Feature", "geometry": {"type": "Point", "coordinates": [-97.116272, 34.1606276]}, "properties": {"addr:city": "Ardmore", "addr:housenumber": "602", "addr:postcode": "73401", "addr:state": "OK", "addr:street": "Park Street Southeast", "name": "Plaza Mobile Home Park", "tourism": "caravan_site", "osm_id": 865609737}}, {"type": "Feature", "geometry": {"type": "Point", "coordinates": [-97.1199687, 34.1553123]}, "properties": {"addr:city": "Ardmore", "addr:housenumber": "980", "addr:postcode": "73401", "addr:state": "OK", "addr:street": "Lake Murray Drive South", "name": "Lake Murray Trailer Park", "tourism": "caravan_site", "osm_id": 865609739}}, {"type": "Feature", "geometry": {"type": "Point", "coordinates": [-97.0731851, 36.6780505]}, "properties": {"addr:city": "Ponca City", "addr:housenumber": "3250", "addr:postcode": "74601", "addr:state": "OK", "addr:street": "South US Highway 177", "name": "Green Park RV Resort", "tourism": "caravan_site", "osm_id": 867182682}}, {"type": "Feature", "geometry": {"type": "Point", "coordinates": [-97.0875813, 36.7372726]}, "properties": {"addr:city": "Ponca City", "addr:housenumber": "2900", "addr:postcode": "74601", "addr:state": "OK", "addr:street": "North Union Street", "name": "Meadowbrook Village", "tourism": "caravan_site", "osm_id": 868811397}}, {"type": "Feature", "geometry": {"type": "Point", "coordinates": [-100.9544364, 35.5209047]}, "properties": {"addr:city": "Pampa", "addr:housenumber": "1136", "addr:postcode": "79065", "addr:state": "TX", "addr:street": "South Barnes Street", "name": "Spring Meadows Rv Park", "tourism": "caravan_site", "osm_id": 871541575}}, {"type": "Feature", "geometry": {"type": "Point", "coordinates": [-102.0361645, 35.1895907]}, "properties": {"addr:city": "Amarillo", "addr:housenumber": "17010", "addr:postcode": "79124", "addr:state": "TX", "addr:street": "West Interstate 40", "name": "A & A Longhorn Mobile Home Park", "residential": "trailer_park", "tourism": "caravan_site", "osm_id": 902100728}}, {"type": "Feature", "geometry": {"type": "Point", "coordinates": [-97.7774911, 34.9123888]}, "properties": {"landuse": "commercial", "tourism": "caravan_site", "osm_id": 918414844}}, {"type": "Feature", "geometry": {"type": "Point", "coordinates": [-96.4609837, 34.9199774]}, "properties": {"access": "private", "club": "yes", "group_only": "yes", "landuse": "recreation_ground", "name": "Camp Sasakwa", "operator": "Boy Scouts of America", "tourism": "camp_site", "osm_id": 921908392}}, {"type": "Feature", "geometry": {"type": "Point", "coordinates": [-101.9697651, 35.8495108]}, "properties": {"addr:city": "Dumas", "addr:housenumber": "1521", "addr:postcode": "79029", "addr:state": "TX", "addr:street": "South Meredith Avenue", "internet_access": "wlan", "internet_access:fee": "customers", "name": "Yerby's RV Park", "phone": "+1-806-935-4940", "power_supply": "yes", "sanitary_dump_station": "yes", "tourism": "caravan_site", "website": "https://www.yerbysrvpark.com/", "osm_id": 931108861}}, {"type": "Feature", "geometry": {"type": "Point", "coordinates": [-97.8750421, 36.4390445]}, "properties": {"tourism": "caravan_site", "osm_id": 944299493}}, {"type": "Feature", "geometry": {"type": "Point", "coordinates": [-98.9816146, 35.4952144]}, "properties": {"tourism": "caravan_site", "osm_id": 962298936}}, {"type": "Feature", "geometry": {"type": "Point", "coordinates": [-98.9795765, 35.4955473]}, "properties": {"tourism": "camp_site", "osm_id": 962298937}}, {"type": "Feature", "geometry": {"type": "Point", "coordinates": [-98.9793406, 35.4946442]}, "properties": {"tourism": "caravan_site", "osm_id": 962298939}}, {"type": "Feature", "geometry": {"type": "Point", "coordinates": [-101.6762475, 34.9762201]}, "properties": {"caravans": "yes", "fee": "yes", "name": "Sagebrush Campground", "operator": "Texas State Parks", "shower": "yes", "static_caravans": "no", "tents": "yes", "toilets": "yes", "tourism": "camp_site", "osm_id": 964330720}}, {"type": "Feature", "geometry": {"type": "Point", "coordinates": [-101.6714478, 34.9668285]}, "properties": {"name": "Hackberry Campground", "tourism": "camp_site", "osm_id": 964330721}}, {"type": "Feature", "geometry": {"type": "Point", "coordinates": [-101.6605663, 34.943534]}, "properties": {"name": "Fortress Cliff Campground", "tourism": "camp_site", "osm_id": 964330731}}, {"type": "Feature", "geometry": {"type": "Point", "coordinates": [-101.6483105, 34.9373103]}, "properties": {"name": "Wolfberry Campground", "tourism": "camp_site", "osm_id": 964330732}}, {"type": "Feature", "geometry": {"type": "Point", "coordinates": [-101.6373353, 34.9353442]}, "properties": {"name": "Mesquite Campground", "tourism": "camp_site", "osm_id": 964330741}}, {"type": "Feature", "geometry": {"type": "Point", "coordinates": [-98.6075333, 36.0828364]}, "properties": {"tourism": "caravan_site", "osm_id": 965044701}}, {"type": "Feature", "geometry": {"type": "Point", "coordinates": [-98.606821, 36.08917]}, "properties": {"tourism": "caravan_site", "osm_id": 965045350}}, {"type": "Feature", "geometry": {"type": "Point", "coordinates": [-98.6298875, 36.798777]}, "properties": {"landuse": "commercial", "operator": "KBP Properties", "tourism": "caravan_site", "osm_id": 972700480}}, {"type": "Feature", "geometry": {"type": "Point", "coordinates": [-98.624853, 36.8037906]}, "properties": {"landuse": "commercial", "name": "R&T Diesel Repair", "operator": "R&T Diesel Repair", "shop": "fuel", "tourism": "caravan_site", "osm_id": 972700485}}, {"type": "Feature", "geometry": {"type": "Point", "coordinates": [-98.6293653, 36.8002918]}, "properties": {"landuse": "commercial", "name": "Nitram Capital", "office": "yes", "operator": "Nitram Capital", "tourism": "caravan_site", "osm_id": 972700488}}, {"type": "Feature", "geometry": {"type": "Point", "coordinates": [-98.6490867, 36.7981664]}, "properties": {"landuse": "retail", "tourism": "caravan_site", "osm_id": 972700515}}, {"type": "Feature", "geometry": {"type": "Point", "coordinates": [-98.6438275, 36.8060488]}, "properties": {"landuse": "commercial", "name": "Fritz and Sons Trucking", "operator": "Fritz and Sons Trucking", "tourism": "caravan_site", "website": "https://m.fritzandsons.com/", "osm_id": 972983535}}, {"type": "Feature", "geometry": {"type": "Point", "coordinates": [-98.6502079, 36.7989434]}, "properties": {"landuse": "commercial", "tourism": "caravan_site", "osm_id": 972983561}}, {"type": "Feature", "geometry": {"type": "Point", "coordinates": [-102.7458385, 34.2378392]}, "properties": {"addr:city": "Muleshoe", "addr:housenumber": "1918", "addr:postcode": "79347", "addr:state": "TX", "addr:street": "West American Boulevard", "capacity": "8", "fee": "no", "internet_access": "no", "name": "Ray and Donna West Free RV Park", "payment:cash": "yes", "phone": "+1 806-272-4528", "power_supply": "yes", "reservation": "no", "sanitary_dump_station": "yes", "tourism": "caravan_site", "website": "https://www.city-of-muleshoe.com/RayandDonnaWestFreeRVPark", "osm_id": 982042676}}, {"type": "Feature", "geometry": {"type": "Point", "coordinates": [-96.6063485, 33.6133596]}, "properties": {"addr:city": "Sherman", "addr:housenumber": "310", "addr:postcode": "75090", "addr:state": "TX", "addr:street": "West Wilson Avenue", "name": "Lazy L RV Park", "tourism": "caravan_site", "osm_id": 987216805}}, {"type": "Feature", "geometry": {"type": "Point", "coordinates": [-96.5278464, 33.8264772]}, "properties": {"addr:city": "Colbert", "addr:housenumber": "300", "addr:postcode": "74733", "addr:state": "OK", "addr:street": "South Dickson Road", "name": "Riverview RV & Recreation Park", "tourism": "caravan_site", "osm_id": 988160892}}, {"type": "Feature", "geometry": {"type": "Point", "coordinates": [-96.5139686, 33.8563696]}, "properties": {"addr:city": "Colbert", "addr:housenumber": "413", "addr:postcode": "74733", "addr:state": "OK", "addr:street": "Sherrard Street", "name": "RV Station Resort", "tourism": "caravan_site", "osm_id": 988166178}}, {"type": "Feature", "geometry": {"type": "Point", "coordinates": [-96.5106183, 33.8543227]}, "properties": {"addr:city": "Colbert", "addr:housenumber": "109", "addr:postcode": "74733", "addr:state": "OK", "addr:street": "Timothy Drive", "name": "Colbert RV Park", "tourism": "caravan_site", "osm_id": 988168982}}, {"type": "Feature", "geometry": {"type": "Point", "coordinates": [-98.6590638, 36.7957812]}, "properties": {"name": "Keltner Mobile Home Park", "operator": "1", "tourism": "caravan_site", "osm_id": 992938619}}, {"type": "Feature", "geometry": {"type": "Point", "coordinates": [-98.6489154, 36.7963523]}, "properties": {"operator": "Exploration Properties", "tourism": "caravan_site", "osm_id": 995313259}}, {"type": "Feature", "geometry": {"type": "Point", "coordinates": [-98.6508828, 36.797144]}, "properties": {"amenity": "car_wash", "landuse": "retail", "name": "Shirley Shine Carwash", "operator": "Shirley Shine Carwash", "shop": "car_repair", "tourism": "caravan_site", "osm_id": 995313263}}, {"type": "Feature", "geometry": {"type": "Point", "coordinates": [-98.6317605, 36.7953359]}, "properties": {"landuse": "commercial", "name": "Miracle Production", "operator": "Miracle Production", "tourism": "caravan_site", "osm_id": 995313268}}, {"type": "Feature", "geometry": {"type": "Point", "coordinates": [-94.640136, 36.219387]}, "properties": {"name": "RV Park", "tourism": "caravan_site", "osm_id": 996649304}}, {"type": "Feature", "geometry": {"type": "Point", "coordinates": [-99.319949, 34.6603153]}, "properties": {"office": "yes", "operator": "Park Lane Community", "tourism": "caravan_site", "osm_id": 1000965500}}, {"type": "Feature", "geometry": {"type": "Point", "coordinates": [-97.1261608, 33.7534923]}, "properties": {"addr:city": "Thackerville", "addr:housenumber": "21902", "addr:postcode": "73459", "addr:state": "OK", "addr:street": "Merle Wolfe Road", "name": "Fun Town RV Park at WinStar", "tourism": "caravan_site", "osm_id": 1010189985}}, {"type": "Feature", "geometry": {"type": "Point", "coordinates": [-95.9345557, 36.1394846]}, "properties": {"tourism": "caravan_site", "osm_id": 1013207173}}, {"type": "Feature", "geometry": {"type": "Point", "coordinates": [-95.1740107, 34.1840071]}, "properties": {"addr:city": "Ringold", "addr:country": "US", "addr:housenumber": "195126", "addr:postcode": "74754", "addr:state": "OK", "addr:street": "North 4417 Lane", "email": "pinecreekrv2021@gmail.com", "name": "Pine Creek Hideaway", "tourism": "caravan_site", "website": "https://pinecreekhideaway.com/", "osm_id": 1022916716}}, {"type": "Feature", "geometry": {"type": "Point", "coordinates": [-94.6932111, 34.1382106]}, "properties": {"access": "yes", "fee": "yes", "name": "Dogwood Campground", "operator": "Oklahoma State Park", "tourism": "camp_site", "osm_id": 1027049121}}, {"type": "Feature", "geometry": {"type": "Point", "coordinates": [-94.6992091, 34.1371963]}, "properties": {"fee": "yes", "name": "Elm Campground", "operator": "Oklahoma State Park", "tourism": "camp_site", "osm_id": 1027049122}}, {"type": "Feature", "geometry": {"type": "Point", "coordinates": [-94.703136, 34.1416641]}, "properties": {"name": "Hickory Campground", "operator": "Oklahoma State Park", "tourism": "camp_site", "osm_id": 1027049123}}, {"type": "Feature", "geometry": {"type": "Point", "coordinates": [-94.7057625, 34.1401595]}, "properties": {"fee": "yes", "name": "Grapevine Campground", "operator": "Oklahoma State Park", "tourism": "camp_site", "osm_id": 1027049124}}, {"type": "Feature", "geometry": {"type": "Point", "coordinates": [-94.7410384, 34.0040179]}, "properties": {"name": "Broken Bow RV Park", "tourism": "caravan_site", "osm_id": 1031710296}}, {"type": "Feature", "geometry": {"type": "Point", "coordinates": [-95.3563164, 34.9812562]}, "properties": {"name": "Bobcat Crossing Campground", "tourism": "camp_site", "osm_id": 1033675015}}, {"type": "Feature", "geometry": {"type": "Point", "coordinates": [-94.6908313, 34.3939364]}, "properties": {"name": "The Narrows Campgrounds", "tourism": "camp_site", "osm_id": 1035371252}}, {"type": "Feature", "geometry": {"type": "Point", "coordinates": [-94.7404751, 34.118512]}, "properties": {"name": "Tiny Town RV Park", "tourism": "caravan_site", "osm_id": 1037193413}}, {"type": "Feature", "geometry": {"type": "Point", "coordinates": [-100.8001407, 36.3765838]}, "properties": {"addr:city": "Perryton", "addr:housenumber": "210", "addr:postcode": "79070", "addr:state": "TX", "addr:street": "Southeast 24th Avenue", "name": "Ambassador RV Park", "tourism": "caravan_site", "osm_id": 1039397004}}, {"type": "Feature", "geometry": {"type": "Point", "coordinates": [-100.8129689, 36.3758847]}, "properties": {"addr:city": "Perryton", "addr:housenumber": "901", "addr:postcode": "79070", "addr:state": "TX", "addr:street": "Southwest 24th Avenue", "name": "Wheatheart RV Park", "tourism": "caravan_site", "osm_id": 1041497915}}, {"type": "Feature", "geometry": {"type": "Point", "coordinates": [-95.9695415, 36.7554165]}, "properties": {"tourism": "camp_site", "osm_id": 1054719005}}, {"type": "Feature", "geometry": {"type": "Point", "coordinates": [-101.7055926, 34.9843979]}, "properties": {"addr:city": "Canyon", "addr:housenumber": "11100", "addr:postcode": "79015", "addr:state": "TX", "addr:street": "West State Highway 217", "name": "Canyon Rim RV & Campground", "tourism": "caravan_site", "osm_id": 1059994686}}, {"type": "Feature", "geometry": {"type": "Point", "coordinates": [-101.7228104, 35.2247242]}, "properties": {"addr:city": "Amarillo", "addr:housenumber": "1100", "addr:postcode": "79108", "addr:state": "TX", "addr:street": "Folsom Road", "brand": "KOA", "brand:wikidata": "Q16988635", "email": "amarillokoajourney@gmail.com", "internet_access": "wlan", "name": "KOA Journey", "phone": "+1-806-335-1792", "power_supply": "yes", "short_name": "KOA", "tourism": "caravan_site", "website": "https://koa.com/campgrounds/amarillo/", "osm_id": 1060177701}}, {"type": "Feature", "geometry": {"type": "Point", "coordinates": [-98.9015735, 35.5757312]}, "properties": {"access": "private", "group_only": "yes", "name": "The Hole", "operator": "Last Frontier Council, BSA", "tourism": "camp_site", "osm_id": 1061888805}}, {"type": "Feature", "geometry": {"type": "Point", "coordinates": [-98.9015098, 35.5771064]}, "properties": {"access": "private", "group_only": "yes", "name": "Northwest Campsite", "operator": "Last Frontier Council, BSA", "tourism": "camp_site", "osm_id": 1061888807}}, {"type": "Feature", "geometry": {"type": "Point", "coordinates": [-98.8991739, 35.577128]}, "properties": {"access": "private", "group_only": "yes", "name": "East Campsite", "operator": "Last Frontier Council, BSA", "tourism": "camp_site", "osm_id": 1061888808}}, {"type": "Feature", "geometry": {"type": "Point", "coordinates": [-98.8994464, 35.5752354]}, "properties": {"access": "private", "group_only": "yes", "name": "Southeast Campsite", "operator": "Last Frontier Council, BSA", "tourism": "camp_site", "osm_id": 1061888809}}, {"type": "Feature", "geometry": {"type": "Point", "coordinates": [-98.9005613, 35.5739602]}, "properties": {"access": "private", "group_only": "yes", "name": "Hilltop Campsite", "operator": "Last Frontier Council, BSA", "tourism": "camp_site", "osm_id": 1061888810}}, {"type": "Feature", "geometry": {"type": "Point", "coordinates": [-98.9006089, 35.5767389]}, "properties": {"access": "private", "addr:city": "Arapaho", "addr:housenumber": "22988", "addr:state": "OK", "addr:street": "E 990 Rd", "name": "Dripping Springs Camp", "operator": "Last Frontier Council, BSA", "tourism": "camp_site", "osm_id": 1061888825}}, {"type": "Feature", "geometry": {"type": "Point", "coordinates": [-101.367554, 35.1033204]}, "properties": {"addr:city": "Claude", "addr:housenumber": "500", "addr:postcode": "79019", "addr:state": "TX", "addr:street": "Orient Street", "name": "Triangle RV Park", "tourism": "caravan_site", "osm_id": 1063053183}}, {"type": "Feature", "geometry": {"type": "Point", "coordinates": [-101.0593504, 34.367976]}, "properties": {"addr:city": "Quitaque", "addr:country": "US", "addr:housenumber": "121", "addr:postcode": "79255", "addr:state": "TX", "addr:street": "West Morris Street", "fee": "yes", "name": "Big C RV Park", "power_supply": "yes", "tourism": "caravan_site", "osm_id": 1065581592}}, {"type": "Feature", "geometry": {"type": "Point", "coordinates": [-98.5835686, 36.0546303]}, "properties": {"capacity": "50", "fee": "yes", "internet_access": "no", "name": "Riverside RV Park", "operator": "Carol Gilchrest", "power_supply": "yes", "sanitary_dump_station": "no", "tourism": "caravan_site", "osm_id": 1068062810}}, {"type": "Feature", "geometry": {"type": "Point", "coordinates": [-101.052341, 34.3668975]}, "properties": {"addr:city": "Quitaque", "addr:country": "US", "addr:postcode": "79255", "addr:state": "TX", "addr:street": "East Jones Street", "fee": "yes", "name": "R.V. Park", "phone": "+18064221177", "power_supply": "yes", "tourism": "caravan_site", "osm_id": 1068067037}}, {"type": "Feature", "geometry": {"type": "Point", "coordinates": [-101.718214, 34.2233509]}, "properties": {"addr:city": "Plainview", "addr:housenumber": "4018", "addr:postcode": "79072", "addr:state": "TX", "addr:street": "North Interstate 27", "name": "The Hitchin' Post RV Park & Cabins", "tourism": "caravan_site", "osm_id": 1068350812}}, {"type": "Feature", "geometry": {"type": "Point", "coordinates": [-101.3120465, 34.4685409]}, "properties": {"addr:housenumber": "809", "addr:postcode": "79257", "addr:state": "TX", "addr:street": "TX 207", "name": "Silverwind RV Park & Cabins", "tourism": "caravan_site", "osm_id": 1069387865}}, {"type": "Feature", "geometry": {"type": "Point", "coordinates": [-98.5483389, 36.1339665]}, "properties": {"name": "Blue Granite RV Park", "tourism": "caravan_site", "osm_id": 1069807236}}, {"type": "Feature", "geometry": {"type": "Point", "coordinates": [-101.4522445, 34.5462787]}, "properties": {"tourism": "caravan_site", "osm_id": 1071061647}}, {"type": "Feature", "geometry": {"type": "Point", "coordinates": [-101.4553363, 34.5458492]}, "properties": {"tourism": "caravan_site", "osm_id": 1071061648}}, {"type": "Feature", "geometry": {"type": "Point", "coordinates": [-101.4553132, 34.5453343]}, "properties": {"tourism": "caravan_site", "osm_id": 1071061649}}, {"type": "Feature", "geometry": {"type": "Point", "coordinates": [-101.4545149, 34.544431]}, "properties": {"tourism": "caravan_site", "osm_id": 1071061652}}, {"type": "Feature", "geometry": {"type": "Point", "coordinates": [-101.3435635, 33.9742578]}, "properties": {"addr:city": "Floydada", "addr:country": "US", "addr:housenumber": "720", "addr:postcode": "79235", "addr:state": "TX", "addr:street": "West Ollie Street", "name": "WinGen RV Park", "tourism": "caravan_site", "osm_id": 1072087819}}, {"type": "Feature", "geometry": {"type": "Point", "coordinates": [-101.3418848, 33.9936788]}, "properties": {"addr:city": "Floydada", "addr:country": "US", "addr:housenumber": "801", "addr:postcode": "79235", "addr:state": "TX", "addr:street": "North 2nd Street", "fee": "no", "fee:conditional": "no @ (stay < 2 days)", "name": "Wayne Russell RV Park", "operator": "City of Floydada", "tourism": "caravan_site", "osm_id": 1074603527}}, {"type": "Feature", "geometry": {"type": "Point", "coordinates": [-96.3966954, 36.6987673]}, "properties": {"access": "yes", "name": "Bluestem Lake Public Campground", "operator": "City of Pawhuska", "tourism": "camp_site", "osm_id": 1076876417}}, {"type": "Feature", "geometry": {"type": "Point", "coordinates": [-96.3946542, 36.6976308]}, "properties": {"access": "yes", "name": "Bluestem Lake Public Campground", "operator": "City of Pawhuska", "tourism": "camp_site", "osm_id": 1076876418}}, {"type": "Feature", "geometry": {"type": "Point", "coordinates": [-96.4149947, 36.6995552]}, "properties": {"access": "yes", "name": "Bluestem Lake Public Campground", "operator": "City of Pawhuska", "tourism": "camp_site", "osm_id": 1076876419}}, {"type": "Feature", "geometry": {"type": "Point", "coordinates": [-99.0178407, 34.3778929]}, "properties": {"tourism": "caravan_site", "osm_id": 1079295808}}, {"type": "Feature", "geometry": {"type": "Point", "coordinates": [-102.513723, 36.7402544]}, "properties": {"addr:city": "Boise City", "addr:housenumber": "1201", "addr:postcode": "73933", "addr:state": "OK", "addr:street": "North Cimarron Avenue", "internet_access": "wlan", "internet_access:fee": "no", "name": "Wild Bill\u2019s RV Park", "phone": "+1 580 517 1001", "power_supply": "yes", "sanitary_dump_station": "yes", "tourism": "caravan_site", "osm_id": 1079329970}}, {"type": "Feature", "geometry": {"type": "Point", "coordinates": [-98.4200134, 34.6029149]}, "properties": {"tourism": "caravan_site", "osm_id": 1079580219}}, {"type": "Feature", "geometry": {"type": "Point", "coordinates": [-99.2581317, 33.6101115]}, "properties": {"addr:city": "Seymour", "addr:housenumber": "2157", "addr:postcode": "76380", "addr:state": "TX", "addr:street": "US Highway 82", "name": "Northside RV Ranch and Camp", "tourism": "caravan_site", "osm_id": 1080683369}}, {"type": "Feature", "geometry": {"type": "Point", "coordinates": [-98.7231938, 33.9654014]}, "properties": {"addr:city": "Iowa Park", "addr:housenumber": "2865", "addr:postcode": "76367", "addr:state": "TX", "addr:street": "Southwest Access Road", "name": "B & S RV Campground", "tourism": "caravan_site", "osm_id": 1081020228}}, {"type": "Feature", "geometry": {"type": "Point", "coordinates": [-97.969359, 34.4709235]}, "properties": {"tourism": "caravan_site", "osm_id": 1082211319}}, {"type": "Feature", "geometry": {"type": "Point", "coordinates": [-96.6029271, 33.6131056]}, "properties": {"addr:city": "Sherman", "addr:housenumber": "2215", "addr:postcode": "75090", "addr:state": "TX", "addr:street": "South Crockett Street", "name": "Meadowview Mobile Home & RV Park", "tourism": "caravan_site", "osm_id": 1085231452}}, {"type": "Feature", "geometry": {"type": "Point", "coordinates": [-96.5796285, 33.6938547]}, "properties": {"addr:city": "Sherman", "addr:housenumber": "5600", "addr:postcode": "75090", "addr:state": "TX", "addr:street": "Texoma Parkway", "name": "El Dorado", "tourism": "caravan_site", "osm_id": 1085439992}}, {"type": "Feature", "geometry": {"type": "Point", "coordinates": [-96.8314537, 33.8548583]}, "properties": {"addr:city": "Gordonville", "addr:housenumber": "730", "addr:postcode": "76245", "addr:state": "TX", "addr:street": "Oxford Drive", "name": "Gone Fishing RV Resort", "phone": "+1-903-523-3474", "tourism": "caravan_site", "website": "https://gonefishingrvresort.com/", "osm_id": 1085728501}}, {"type": "Feature", "geometry": {"type": "Point", "coordinates": [-96.8460174, 33.8329801]}, "properties": {"addr:city": "Gordonville", "addr:housenumber": "30714", "addr:postcode": "76245", "addr:state": "TX", "addr:street": "US Highway 377", "name": "Roys RV Resort", "tourism": "caravan_site", "osm_id": 1085728522}}, {"type": "Feature", "geometry": {"type": "Point", "coordinates": [-98.5250817, 33.9115163]}, "properties": {"addr:city": "Wichita Falls", "addr:housenumber": "2944", "addr:postcode": "76301", "addr:state": "TX", "addr:street": "Seymour Highway", "charge": "30 USD", "fee": "yes", "internet_access": "wlan", "name": "Wichita Falls RV Park", "power_supply": "yes", "reservation": "yes", "sanitary_dump_station": "yes", "tourism": "caravan_site", "water_point": "yes", "osm_id": 1088952551}}, {"type": "Feature", "geometry": {"type": "Point", "coordinates": [-98.8895841, 34.5155033]}, "properties": {"tourism": "camp_site", "osm_id": 1089972766}}, {"type": "Feature", "geometry": {"type": "Point", "coordinates": [-99.2224168, 35.5772057]}, "properties": {"tourism": "camp_site", "osm_id": 1089981894}}, {"type": "Feature", "geometry": {"type": "Point", "coordinates": [-99.1952691, 35.540254]}, "properties": {"tourism": "camp_site", "osm_id": 1089981978}}, {"type": "Feature", "geometry": {"type": "Point", "coordinates": [-97.0543282, 34.7596475]}, "properties": {"tourism": "camp_site", "osm_id": 1090883103}}, {"type": "Feature", "geometry": {"type": "Point", "coordinates": [-101.3422163, 33.887667]}, "properties": {"addr:city": "Floydada", "addr:country": "US", "addr:housenumber": "3001", "addr:postcode": "79235", "addr:state": "TX", "addr:street": "County Road 318", "alt_name": "Plains Baptist Assembly", "denomination": "baptist", "ele": "916", "gnis:feature_id": "1375492", "landuse": "religious", "name": "Plains Baptist Camp & Retreat Center", "religion": "christian", "tourism": "camp_site", "osm_id": 1095690569}}, {"type": "Feature", "geometry": {"type": "Point", "coordinates": [-101.1705941, 33.6825129]}, "properties": {"access": "permit", "addr:city": "Crosbyton", "addr:postcode": "79322", "addr:state": "TX", "fee": "yes", "name": "Camp Rio Blanco", "operator": "Girl Scouts of America", "tourism": "camp_site", "osm_id": 1096045857}}, {"type": "Feature", "geometry": {"type": "Point", "coordinates": [-101.6737607, 34.1828774]}, "properties": {"name": "Shady Lane RV Park", "tourism": "caravan_site", "osm_id": 1109579216}}, {"type": "Feature", "geometry": {"type": "Point", "coordinates": [-97.1440835, 34.3131447]}, "properties": {"name": "Cool Breeze Cinema and RV Park", "tourism": "caravan_site", "osm_id": 1109893078}}, {"type": "Feature", "geometry": {"type": "Point", "coordinates": [-96.4669597, 33.9059258]}, "properties": {"addr:city": "Calera", "addr:housenumber": "7", "addr:postcode": "74730", "addr:state": "OK", "addr:street": "Luke Brothers Drive", "building": "no", "name": "Oklahoma Trailer Sales", "shop": "caravan", "tourism": "caravan_site", "osm_id": 1112158675}}, {"type": "Feature", "geometry": {"type": "Point", "coordinates": [-97.4647636, 35.5376538]}, "properties": {"addr:city": "Oklahoma City", "addr:housenumber": "2727", "addr:postcode": "73111", "addr:state": "OK", "addr:street": "Northeast 63rd Street", "name": "Twin Fountains RV Park", "tourism": "caravan_site", "osm_id": 1113211115}}, {"type": "Feature", "geometry": {"type": "Point", "coordinates": [-97.5046946, 35.5236644]}, "properties": {"addr:city": "Oklahoma City", "addr:housenumber": "5299", "addr:postcode": "73105", "addr:state": "OK", "addr:street": "North Beverly Drive", "name": "Lincoln Park North", "tourism": "caravan_site", "osm_id": 1113502185}}, {"type": "Feature", "geometry": {"type": "Point", "coordinates": [-101.8434975, 34.0572819]}, "properties": {"addr:city": "Hale Center", "addr:housenumber": "1851", "addr:postcode": "79041", "addr:state": "TX", "addr:street": "East Service Road", "name": "Country Hamlet", "tourism": "caravan_site", "osm_id": 1116183696}}, {"type": "Feature", "geometry": {"type": "Point", "coordinates": [-101.7241424, 34.1508427]}, "properties": {"addr:city": "Plainview", "addr:housenumber": "4000", "addr:postcode": "79072", "addr:state": "TX", "addr:street": "South Business I-27", "name": "Country Village Mobile Home Community", "tourism": "caravan_site", "osm_id": 1116190908}}, {"type": "Feature", "geometry": {"type": "Point", "coordinates": [-101.7297066, 34.1447208]}, "properties": {"addr:city": "Plainview", "addr:housenumber": "4600", "addr:postcode": "79072", "addr:state": "TX", "addr:street": "South Business I-27", "name": "Parkland Mobile Home Park", "tourism": "caravan_site", "osm_id": 1120911349}}, {"type": "Feature", "geometry": {"type": "Point", "coordinates": [-99.3112765, 34.1653969]}, "properties": {"addr:city": "Vernon", "addr:housenumber": "3725", "addr:postcode": "76384", "addr:state": "TX", "addr:street": "Harrison Street", "internet_access": "wlan", "internet_access:fee": "no", "name": "Rocking \u201cA\u201d RV Park", "phone": "+1-940-552-2821", "power_supply": "yes", "sanitary_dump_station": "yes", "tourism": "caravan_site", "website": "https://rockingarvpark.com/", "osm_id": 1121938189}}, {"type": "Feature", "geometry": {"type": "Point", "coordinates": [-98.5155271, 34.7191633]}, "properties": {"name": "Letra Campground", "tourism": "camp_site", "osm_id": 1133031746}}, {"type": "Feature", "geometry": {"type": "Point", "coordinates": [-98.4985746, 34.7236067]}, "properties": {"backcountry": "yes", "name": "Medicine Park Primitive Campground", "tourism": "camp_site", "osm_id": 1133155456}}, {"type": "Feature", "geometry": {"type": "Point", "coordinates": [-100.3015501, 34.0102211]}, "properties": {"caravans": "yes", "tourism": "camp_site", "osm_id": 1149176905}}, {"type": "Feature", "geometry": {"type": "Point", "coordinates": [-99.9927876, 35.2251433]}, "properties": {"tourism": "caravan_site", "osm_id": 1153066555}}, {"type": "Feature", "geometry": {"type": "Point", "coordinates": [-96.5939882, 36.2230795]}, "properties": {"operator": "Hallet Motor Racing Circuit", "power_supply": "yes", "tourism": "caravan_site", "osm_id": 1170433876}}, {"type": "Feature", "geometry": {"type": "Point", "coordinates": [-94.6985194, 34.7779167]}, "properties": {"name": "Cedar Lake Sandy Beach", "tourism": "camp_site", "osm_id": 1175978534}}, {"type": "Feature", "geometry": {"type": "Point", "coordinates": [-94.6938587, 34.7810969]}, "properties": {"operator": "Cedar Lake North Shore Campground", "tourism": "camp_site", "osm_id": 1175982301}}, {"type": "Feature", "geometry": {"type": "Point", "coordinates": [-100.9842783, 34.3986738]}, "properties": {"tourism": "caravan_site", "osm_id": 1184341103}}, {"type": "Feature", "geometry": {"type": "Point", "coordinates": [-101.0552797, 34.4405496]}, "properties": {"name": "Wild Horse Campground", "tourism": "camp_site", "osm_id": 1185939670}}, {"type": "Feature", "geometry": {"type": "Point", "coordinates": [-101.4507399, 34.1177523]}, "properties": {"addr:city": "Lockney", "addr:country": "US", "addr:housenumber": "905", "addr:postcode": "79241", "addr:state": "TX", "addr:street": "US 70", "name": "Floyd County RV Park", "tourism": "caravan_site", "osm_id": 1190502430}}, {"type": "Feature", "geometry": {"type": "Point", "coordinates": [-101.442211, 34.1179786]}, "properties": {"name": "Floyd County RV Park", "tourism": "caravan_site", "osm_id": 1190502452}}, {"type": "Feature", "geometry": {"type": "Point", "coordinates": [-97.1506465, 36.114764]}, "properties": {"addr:city": "Stillwater", "addr:country": "US", "addr:full": "6903 W 6TH AVE", "addr:housenumber": "6903", "addr:postcode": "74074", "addr:state": "OK", "addr:street": "West 6th Avenue", "power_supply": "yes", "tourism": "caravan_site", "osm_id": 1191698758}}, {"type": "Feature", "geometry": {"type": "Point", "coordinates": [-97.4606213, 35.9627803]}, "properties": {"addr:city": "Guthrie", "addr:housenumber": "8400", "addr:postcode": "73044", "addr:state": "OK", "addr:street": "North Bryant Road", "name": "Camp J.O.Y. Bible Camp", "tourism": "camp_site", "website": "https://campjoybiblecamp.wixsite.com/loganco", "osm_id": 1198812904}}, {"type": "Feature", "geometry": {"type": "Point", "coordinates": [-94.9684569, 35.7244574]}, "properties": {"ele": "194", "leisure": "park", "name": "Sizemore Landing Public Use Area", "tourism": "camp_site", "osm_id": 1201533739}}, {"type": "Feature", "geometry": {"type": "Point", "coordinates": [-97.0679708, 36.7544004]}, "properties": {"tourism": "caravan_site", "osm_id": 1205369691}}, {"type": "Feature", "geometry": {"type": "Point", "coordinates": [-97.4397556, 35.2346812]}, "properties": {"name": "Cleveland County Fairgrounds RV Park", "tourism": "caravan_site", "osm_id": 1206037565}}, {"type": "Feature", "geometry": {"type": "Point", "coordinates": [-97.9097955, 35.9797003]}, "properties": {"landuse": "residential", "tourism": "caravan_site", "osm_id": 1215904800}}, {"type": "Feature", "geometry": {"type": "Point", "coordinates": [-97.3499165, 36.6936944]}, "properties": {"tourism": "caravan_site", "osm_id": 1221447833}}, {"type": "Feature", "geometry": {"type": "Point", "coordinates": [-95.1650264, 35.6246977]}, "properties": {"caravans": "yes", "name": "Deer Run", "tourism": "camp_site", "osm_id": 1223918710}}, {"type": "Feature", "geometry": {"type": "Point", "coordinates": [-95.1705119, 35.6210217]}, "properties": {"name": "Gobbler Ridge", "tourism": "camp_site", "osm_id": 1223918741}}, {"type": "Feature", "geometry": {"type": "Point", "coordinates": [-96.2289163, 36.15262]}, "properties": {"tourism": "caravan_site", "osm_id": 1234504324}}, {"type": "Feature", "geometry": {"type": "Point", "coordinates": [-95.512895, 35.9526967]}, "properties": {"tourism": "caravan_site", "osm_id": 1235904114}}, {"type": "Feature", "geometry": {"type": "Point", "coordinates": [-95.5717052, 35.357323]}, "properties": {"name": "Little Turtle RV Park", "tourism": "caravan_site", "osm_id": 1241358903}}, {"type": "Feature", "geometry": {"type": "Point", "coordinates": [-96.5785381, 33.8480711]}, "properties": {"addr:city": "Cartwright", "addr:housenumber": "525", "addr:postcode": "74731", "addr:state": "OK", "addr:street": "East Burns Road", "name": "Burns Run East Campground", "tourism": "camp_site", "osm_id": 1243108702}}, {"type": "Feature", "geometry": {"type": "Point", "coordinates": [-96.8175873, 35.7073466]}, "properties": {"addr:city": "Chandler", "addr:country": "US", "addr:housenumber": "347203", "addr:postcode": "74834", "addr:state": "OK", "addr:street": "East Highway 66", "email": "oakglenrvpark@gmail.com", "landuse": "residential", "name": "Oak Glen RV Park", "phone": "+1 405 258 2994", "tourism": "caravan_site", "website": "https://oakglenrv.com/", "osm_id": 1246717716}}, {"type": "Feature", "geometry": {"type": "Point", "coordinates": [-97.2115407, 34.6237677]}, "properties": {"tourism": "caravan_site", "osm_id": 1272543306}}, {"type": "Feature", "geometry": {"type": "Point", "coordinates": [-95.6287322, 33.825315]}, "properties": {"ele": "157", "fee": "yes", "gnis:feature_id": "1889863", "name": "Lamar Point", "operator": "United States Army Corps of Engineers", "tourism": "camp_site", "osm_id": 1273409394}}, {"type": "Feature", "geometry": {"type": "Point", "coordinates": [-94.4212533, 35.4088196]}, "properties": {"addr:city": "Fort Smith", "addr:housenumber": "1701", "addr:postcode": "72904", "addr:state": "AR", "addr:street": "Riverfront Drive", "name": "Fort Smith Riverfront RV Resort", "tourism": "caravan_site", "osm_id": 1286706789}}, {"type": "Feature", "geometry": {"type": "Point", "coordinates": [-96.9094579, 35.4363378]}, "properties": {"tourism": "caravan_site", "osm_id": 1287220428}}, {"type": "Feature", "geometry": {"type": "Point", "coordinates": [-100.3105312, 35.2254279]}, "properties": {"addr:city": "Shamrock", "addr:housenumber": "15580", "addr:postcode": "79079", "addr:state": "TX", "addr:street": "I-40 Frontage Road", "name": "Texas Route 66 RV Park", "tourism": "caravan_site", "osm_id": 1287959608}}, {"type": "Feature", "geometry": {"type": "Point", "coordinates": [-96.6452322, 33.8769005]}, "properties": {"ele": "190", "gnis:feature_id": "1889618", "name": "Preston Bend Recreation Area", "tourism": "camp_site", "osm_id": 1288393350}}, {"type": "Feature", "geometry": {"type": "Point", "coordinates": [-96.7890288, 33.7914181]}, "properties": {"addr:housenumber": "503", "ele": "189", "gnis:feature_id": "1889627", "name": "Paradise Cove", "tourism": "camp_site", "osm_id": 1288682297}}, {"type": "Feature", "geometry": {"type": "Point", "coordinates": [-94.7313692, 34.1810547]}, "properties": {"addr:street": "Quail Circle", "caravans": "yes", "name": "Quail Campground", "operator": "Oklahoma State Parks", "tourism": "camp_site", "osm_id": 1293970824}}, {"type": "Feature", "geometry": {"type": "Point", "coordinates": [-94.7296484, 34.1807149]}, "properties": {"addr:street": "Turkey Circle", "caravans": "yes", "name": "Turkey Campground", "operator": "Oklahoma State Parks", "tourism": "camp_site", "osm_id": 1293970828}}, {"type": "Feature", "geometry": {"type": "Point", "coordinates": [-94.6764326, 34.1313607]}, "properties": {"caravans": "yes", "fee": "yes", "name": "Buckeye Campground", "operator": "Oklahoma State Parks", "tents": "yes", "tourism": "camp_site", "osm_id": 1294892020}}, {"type": "Feature", "geometry": {"type": "Point", "coordinates": [-94.6467937, 34.0616578]}, "properties": {"caravans": "yes", "fee": "yes", "name": "Lower Mountain Fork", "shower": "no", "toilets": "no", "tourism": "camp_site", "osm_id": 1294894703}}, {"type": "Feature", "geometry": {"type": "Point", "coordinates": [-94.6336218, 34.0813303]}, "properties": {"addr:city": "Broken Bow", "addr:housenumber": "3094", "addr:postcode": "74728", "addr:state": "OK", "addr:street": "Canoe Road", "caravans": "yes", "fee": "yes", "name": "Mountain Fork Park", "tourism": "camp_site", "website": "https://www.mountainforkpark.net/", "osm_id": 1294894704}}, {"type": "Feature", "geometry": {"type": "Point", "coordinates": [-94.674595, 34.1287468]}, "properties": {"caravans": "yes", "drinking_water": "yes", "fee": "yes", "name": "Pine Ridge Campground", "operator": "Oklahoma State Parks", "shower": "no", "tents": "yes", "tourism": "camp_site", "osm_id": 1294896526}}, {"type": "Feature", "geometry": {"type": "Point", "coordinates": [-94.6729682, 34.1264205]}, "properties": {"caravans": "yes", "fee": "yes", "name": "Cypress Campground", "operator": "Oklahoma State Parks", "tents": "yes", "tourism": "camp_site", "osm_id": 1295101694}}, {"type": "Feature", "geometry": {"type": "Point", "coordinates": [-94.6711175, 34.1265009]}, "properties": {"caravans": "yes", "name": "Acorn Campground", "operator": "Oklahoma State Parks", "tourism": "camp_site", "osm_id": 1295101695}}, {"type": "Feature", "geometry": {"type": "Point", "coordinates": [-96.607163, 33.8168879]}, "properties": {"camp_site": "serviced", "drinking_water": "yes", "name": "Bois D'Arc Ridge Camping Area", "picnic_table": "yes", "sanitary_dump_station": "yes", "tourism": "camp_site", "osm_id": 1303282487}}, {"type": "Feature", "geometry": {"type": "Point", "coordinates": [-96.5632997, 33.8515497]}, "properties": {"access": "private", "tourism": "caravan_site", "osm_id": 1303285355}}, {"type": "Feature", "geometry": {"type": "Point", "coordinates": [-96.5423513, 33.9962752]}, "properties": {"tourism": "caravan_site", "osm_id": 1303295597}}, {"type": "Feature", "geometry": {"type": "Point", "coordinates": [-96.5166913, 33.9987885]}, "properties": {"tourism": "caravan_site", "osm_id": 1303295866}}, {"type": "Feature", "geometry": {"type": "Point", "coordinates": [-96.5102055, 33.997155]}, "properties": {"tourism": "caravan_site", "osm_id": 1303295902}}, {"type": "Feature", "geometry": {"type": "Point", "coordinates": [-96.5851598, 34.0538823]}, "properties": {"tourism": "caravan_site", "osm_id": 1303325089}}, {"type": "Feature", "geometry": {"type": "Point", "coordinates": [-96.3939352, 34.085287]}, "properties": {"tourism": "caravan_site", "osm_id": 1303334246}}, {"type": "Feature", "geometry": {"type": "Point", "coordinates": [-97.0881715, 34.1195593]}, "properties": {"tourism": "caravan_site", "osm_id": 1304516328}}, {"type": "Feature", "geometry": {"type": "Point", "coordinates": [-97.6656338, 35.1347355]}, "properties": {"tourism": "caravan_site", "osm_id": 1305954991}}, {"type": "Feature", "geometry": {"type": "Point", "coordinates": [-99.2029409, 35.5329353]}, "properties": {"tourism": "caravan_site", "osm_id": 1305962887}}, {"type": "Feature", "geometry": {"type": "Point", "coordinates": [-101.9713416, 35.822342]}, "properties": {"addr:city": "Dumas", "addr:housenumber": "10650", "addr:postcode": "79029", "addr:state": "TX", "addr:street": "US Highway 287", "internet_access": "wlan", "name": "Dumas RV Resort", "phone": "+1-806-935-2558", "power_supply": "yes", "sanitary_dump_station": "yes", "tourism": "caravan_site", "website": "https://www.dumasrv.com/", "osm_id": 1312354882}}, {"type": "Feature", "geometry": {"type": "Point", "coordinates": [-101.6701834, 35.2067346]}, "properties": {"addr:city": "Amarillo", "addr:housenumber": "901", "addr:postcode": "79111", "addr:state": "TX", "addr:street": "Jackrabbit Road", "name": "AOK Camper Park", "phone": "+18063352677", "power_supply": "yes", "sanitary_dump_station": "yes", "tourism": "caravan_site", "osm_id": 1319634913}}, {"type": "Feature", "geometry": {"type": "Point", "coordinates": [-101.9673373, 34.9871188]}, "properties": {"tourism": "caravan_site", "osm_id": 1319809623}}, {"type": "Feature", "geometry": {"type": "Point", "coordinates": [-97.3267108, 34.9118927]}, "properties": {"name": "American RV Park", "tourism": "caravan_site", "osm_id": 1321656965}}, {"type": "Feature", "geometry": {"type": "Point", "coordinates": [-95.3453133, 34.9576145]}, "properties": {"tourism": "caravan_site", "osm_id": 1322306690}}, {"type": "Feature", "geometry": {"type": "Point", "coordinates": [-102.2583756, 35.5301456]}, "properties": {"tourism": "caravan_site", "osm_id": 1325266445}}, {"type": "Feature", "geometry": {"type": "Point", "coordinates": [-96.2877148, 36.1899344]}, "properties": {"name": "Shady Grove Campground & RV Park", "tourism": "caravan_site", "osm_id": 1326357056}}, {"type": "Feature", "geometry": {"type": "Point", "coordinates": [-95.7644535, 36.1614285]}, "properties": {"tourism": "caravan_site", "osm_id": 1344892261}}, {"type": "Feature", "geometry": {"type": "Point", "coordinates": [-97.1745363, 36.180243]}, "properties": {"backcountry": "no", "name": "West Side Walk-In", "operator": "Lake McMurtry Friends, Inc", "reservation": "required", "tents": "yes", "tourism": "camp_site", "wheelchair": "no", "osm_id": 1346960699}}, {"type": "Feature", "geometry": {"type": "Point", "coordinates": [-95.4492009, 34.0489111]}, "properties": {"tourism": "caravan_site", "osm_id": 1351839611}}, {"type": "Feature", "geometry": {"type": "Point", "coordinates": [-96.7038881, 34.7634495]}, "properties": {"tourism": "caravan_site", "osm_id": 1351914753}}, {"type": "Feature", "geometry": {"type": "Point", "coordinates": [-96.7009635, 34.7609175]}, "properties": {"tourism": "caravan_site", "osm_id": 1351914917}}, {"type": "Feature", "geometry": {"type": "Point", "coordinates": [-97.1949235, 34.7617586]}, "properties": {"name": "Arrowhead RV Park", "tourism": "caravan_site", "osm_id": 1352113323}}, {"type": "Feature", "geometry": {"type": "Point", "coordinates": [-97.2693147, 34.7037434]}, "properties": {"tourism": "caravan_site", "osm_id": 1352123244}}, {"type": "Feature", "geometry": {"type": "Point", "coordinates": [-94.4884709, 36.5481455]}, "properties": {"tourism": "camp_site", "osm_id": 1352792024}}, {"type": "Feature", "geometry": {"type": "Point", "coordinates": [-98.6716566, 35.3468463]}, "properties": {"tourism": "caravan_site", "osm_id": 1361893275}}, {"type": "Feature", "geometry": {"type": "Point", "coordinates": [-94.8356266, 36.9209324]}, "properties": {"addr:city": "Miami", "addr:postcode": "74354", "addr:state": "OK", "addr:street": "East 64 Road", "name": "Quapaw Casino RV Park", "tourism": "caravan_site", "osm_id": 1370758251}}, {"type": "Feature", "geometry": {"type": "Point", "coordinates": [-99.2983778, 34.8927942]}, "properties": {"capacity": "7", "fee": "yes", "name": "Live Oak Campground", "operator": "Quartz Mountain State Park", "reservation": "required", "tourism": "caravan_site", "osm_id": 1377930531}}, {"type": "Feature", "geometry": {"type": "Point", "coordinates": [-99.3003183, 34.8882191]}, "properties": {"capacity": "6", "fee": "yes", "name": "River Run Campground", "operator": "Quartz Mountain State Park", "reservation": "required", "tourism": "caravan_site", "osm_id": 1377930532}}, {"type": "Feature", "geometry": {"type": "Point", "coordinates": [-99.29921, 34.8892681]}, "properties": {"capacity": "10", "fee": "yes", "name": "Scissortail Campground (1-10)", "operator": "Quartz Mountain State Park", "reservation": "required", "tourism": "caravan_site", "osm_id": 1377930533}}, {"type": "Feature", "geometry": {"type": "Point", "coordinates": [-99.2982235, 34.8894556]}, "properties": {"capacity": "5", "fee": "yes", "name": "Mountain View Campground", "reservation": "required", "tourism": "caravan_site", "osm_id": 1377930534}}, {"type": "Feature", "geometry": {"type": "Point", "coordinates": [-99.2986205, 34.8903466]}, "properties": {"capacity": "9", "fee": "yes", "name": "Scissortail Campground (12-20)", "operator": "Quartz Mountain State Park", "reservation": "required", "tourism": "caravan_site", "osm_id": 1377930538}}, {"type": "Feature", "geometry": {"type": "Point", "coordinates": [-95.0072924, 35.6692681]}, "properties": {"access": "private", "addr:city": "Park Hill", "addr:housenumber": "34902", "addr:postcode": "74451", "addr:state": "OK", "addr:street": "South 496 Road", "camp_site": "deluxe", "caravans": "no", "email": "burntcabincampinfo@gmail.com", "fee": "yes", "group_only": "yes", "leisure": "summer_camp", "name": "Burnt Cabin Christian Camp", "phone": "+1-918-718-5543", "static_caravans": "no", "tents": "no", "tourism": "camp_site", "website": "https://burntcabinchristian.org/", "osm_id": 1383271122}}, {"type": "Feature", "geometry": {"type": "Point", "coordinates": [-97.9488275, 35.0605865]}, "properties": {"tourism": "caravan_site", "osm_id": 1387853684}}, {"type": "Feature", "geometry": {"type": "Point", "coordinates": [-102.0078573, 35.0228623]}, "properties": {"name": "Glory Land RV Park", "power_supply": "yes", "sanitary_dump_station": "yes", "tourism": "caravan_site", "osm_id": 1409201572}}, {"type": "Feature", "geometry": {"type": "Point", "coordinates": [-102.3767397, 34.8151785]}, "properties": {"tourism": "caravan_site", "osm_id": 1413053055}}, {"type": "Feature", "geometry": {"type": "Point", "coordinates": [-102.3723926, 34.8159699]}, "properties": {"tourism": "caravan_site", "osm_id": 1413053056}}, {"type": "Feature", "geometry": {"type": "Point", "coordinates": [-95.3976613, 35.9131851]}, "properties": {"name": "Creekside RV Ranch", "note": "U-Haul rental business observed here in February 2024. See if it's still there.", "tourism": "caravan_site", "osm_id": 1416231614}}, {"type": "Feature", "geometry": {"type": "Point", "coordinates": [-99.4340495, 35.4091221]}, "properties": {"tourism": "caravan_site", "osm_id": 1416362905}}, {"type": "Feature", "geometry": {"type": "Point", "coordinates": [-97.178199, 36.1239133]}, "properties": {"tourism": "caravan_site", "osm_id": 1416573334}}, {"type": "Feature", "geometry": {"type": "Point", "coordinates": [-95.2647155, 35.5969328]}, "properties": {"access": "yes", "addr:city": "Muskogee", "addr:housenumber": "11012", "addr:postcode": "74403", "addr:state": "OK", "addr:street": "South 65th Street East", "camp_site": "standard", "caravans": "yes", "charge": "14 USD", "fee": "yes", "name": "Spaniard Creek Recreation Area", "opening_hours": "Mo-Su 06:00-22:00", "operator": "United States Army Corps of Engineers", "tents": "yes", "tourism": "camp_site", "osm_id": 1420942753}}, {"type": "Feature", "geometry": {"type": "Point", "coordinates": [-95.1843067, 35.5771317]}, "properties": {"access": "yes", "addr:city": "Muskogee", "addr:housenumber": "11025", "addr:postcode": "74403", "addr:state": "OK", "addr:street": "East 133rd Street South", "camp_site": "serviced", "name": "Brewers Bend Recreation Area", "operator": "U.S. Army Corps of Engineers", "tourism": "camp_site", "osm_id": 1420946328}}, {"type": "Feature", "geometry": {"type": "Point", "coordinates": [-95.2735987, 35.8908932]}, "properties": {"name": "Attakullakulla Campground", "tourism": "camp_site", "osm_id": 1429767416}}, {"type": "Feature", "geometry": {"type": "Point", "coordinates": [-95.2721143, 35.8876158]}, "properties": {"name": "Hulbutta Micco Campground", "tourism": "camp_site", "osm_id": 1429767419}}, {"type": "Feature", "geometry": {"type": "Point", "coordinates": [-95.2708164, 35.8877654]}, "properties": {"name": "Pushmataha Campground", "tourism": "camp_site", "osm_id": 1429767421}}, {"type": "Feature", "geometry": {"type": "Point", "coordinates": [-95.2751241, 35.8873231]}, "properties": {"name": "Payamataha Campground", "tourism": "camp_site", "osm_id": 1429767422}}, {"type": "Feature", "geometry": {"type": "Point", "coordinates": [-95.273948, 35.884332]}, "properties": {"camp_site": "basic", "name": "Opothle-Yahold Campground", "tourism": "camp_site", "osm_id": 1429767425}}, {"type": "Feature", "geometry": {"type": "Point", "coordinates": [-95.4012809, 35.7394501]}, "properties": {"name": "Meadowbrook RV Park", "tourism": "caravan_site", "osm_id": 1433115313}}, {"type": "Feature", "geometry": {"type": "Point", "coordinates": [-101.8494515, 34.7468195]}, "properties": {"phone": "+1-806-685-2696", "tourism": "caravan_site", "osm_id": 1433149981}}, {"type": "Feature", "geometry": {"type": "Point", "coordinates": [-101.8297594, 35.267416]}, "properties": {"access": "private", "addr:city": "Amarillo", "addr:housenumber": "5620", "addr:postcode": "79108", "addr:state": "TX", "addr:street": "River Road", "name": "United Pentecostal Church Camp Ground", "operator": "United Pentecostal Church", "tourism": "camp_site", "osm_id": 1433523830}}, {"type": "Feature", "geometry": {"type": "Point", "coordinates": [-98.6548544, 35.5292851]}, "properties": {"tourism": "caravan_site", "osm_id": 1443394720}}, {"type": "Feature", "geometry": {"type": "Point", "coordinates": [-98.485812, 34.7513002]}, "properties": {"tourism": "caravan_site", "osm_id": 1445659858}}, {"type": "Feature", "geometry": {"type": "Point", "coordinates": [-98.4858852, 34.7521538]}, "properties": {"tourism": "caravan_site", "osm_id": 1445659859}}, {"type": "Feature", "geometry": {"type": "Point", "coordinates": [-98.4897704, 34.765411]}, "properties": {"tourism": "caravan_site", "osm_id": 1445659860}}, {"type": "Feature", "geometry": {"type": "Point", "coordinates": [-98.4916764, 34.7655662]}, "properties": {"tourism": "caravan_site", "osm_id": 1445659861}}, {"type": "Feature", "geometry": {"type": "Point", "coordinates": [-98.6725275, 35.538004]}, "properties": {"tourism": "caravan_site", "osm_id": 1448535455}}, {"type": "Feature", "geometry": {"type": "Point", "coordinates": [-96.6195738, 33.8260481]}, "properties": {"name": "Overflow Camping", "operator": "Eisenhower State Park", "picnic_table": "yes", "tents": "yes", "tourism": "camp_site", "osm_id": 1451002662}}, {"type": "Feature", "geometry": {"type": "Point", "coordinates": [-96.6203101, 33.8288628]}, "properties": {"camp_site": "serviced", "drinking_water": "yes", "name": "Elm Point Camping Area", "operator": "Eisenhower State Park", "picnic_table": "yes", "power_supply": "no", "tourism": "camp_site", "osm_id": 1451002663}}, {"type": "Feature", "geometry": {"type": "Point", "coordinates": [-96.6163713, 33.8253172]}, "properties": {"camp_site": "serviced", "drinking_water": "yes", "name": "Fossil Ridge Camping Area", "picnic_table": "yes", "power_supply": "no", "tourism": "camp_site", "osm_id": 1451002664}}, {"type": "Feature", "geometry": {"type": "Point", "coordinates": [-96.6101674, 33.8235403]}, "properties": {"camp_site": "standard", "drinking_water": "yes", "motorhome": "no", "name": "Deer Haven Screened Shelters", "picnic_table": "yes", "power_supply": "yes", "tourism": "camp_site", "osm_id": 1451002668}}, {"type": "Feature", "geometry": {"type": "Point", "coordinates": [-96.6009969, 33.8155861]}, "properties": {"camp_site": "serviced", "drinking_water": "yes", "name": "Armadillo Hill Camping Area", "picnic_table": "yes", "tourism": "camp_site", "osm_id": 1451002698}}, {"type": "Feature", "geometry": {"type": "Point", "coordinates": [-96.2752335, 36.1377036]}, "properties": {"internet_access:fee": "yes", "tourism": "caravan_site", "osm_id": 1451215120}}, {"type": "Feature", "geometry": {"type": "Point", "coordinates": [-95.0520195, 36.4842914]}, "properties": {"tourism": "caravan_site", "osm_id": 1452996547}}, {"type": "Feature", "geometry": {"type": "Point", "coordinates": [-95.6740635, 35.1216485]}, "properties": {"capacity:caravans": "45", "name": "Crowder RV Park", "phone": "+1-918-334-4678", "sanitary_dump_station": "yes", "tourism": "caravan_site", "osm_id": 1454802866}}, {"type": "Feature", "geometry": {"type": "Point", "coordinates": [-101.8954018, 35.2430301]}, "properties": {"addr:housenumber": "5260", "addr:street": "Hester Drive", "name": "Countryside RV Park", "tourism": "caravan_site", "osm_id": 1465798642}}, {"type": "Feature", "geometry": {"type": "Point", "coordinates": [-97.0262446, 34.1119014]}, "properties": {"addr:city": "Ardmore", "addr:housenumber": "3433", "addr:postcode": "73401-9482", "addr:state": "OK", "addr:street": "US Highway 70", "capacity:caravans": "53", "drinking_water": "yes", "internet_access": "wlan", "internet_access:fee": "no", "name": "Lake Murray RV Park", "phone": "+1-580-383-4872", "power_supply": "yes", "sanitary_dump_station": "yes", "surface": "gravel", "toilets": "yes", "tourism": "caravan_site", "water_point": "yes", "website": "https://www.rvpmhp.com/our-parks/lake-murray-rv-park/", "osm_id": 1467925982}}, {"type": "Feature", "geometry": {"type": "Point", "coordinates": [-95.8666369, 36.1671387]}, "properties": {"email": "mingorv@sbcglobal.net", "fax": "+1-918-836-7371", "internet_access": "wlan", "internet_access:fee": "yes", "landuse": "residential", "name": "Mingo RV Park", "phone": "+1-918-832-8824", "smoking": "yes", "tourism": "caravan_site", "type": "multipolygon", "website": "https://www.mingorvpark.com/", "wheelchair": "yes", "osm_id": 2715197}}, {"type": "Feature", "geometry": {"type": "Point", "coordinates": [-95.5799937, 35.2779254]}, "properties": {"addr:city": "Eufaula", "addr:housenumber": "610", "addr:postcode": "74432", "addr:state": "OK", "addr:street": "Lakeshore Drive", "brand": "Yogi Bear's Jellystone Park", "brand:wikidata": "Q8054389", "leisure": "resort", "name": "Yogi Bear's Jellystone Park", "official_name": "Yogi Bear's Jellystone Park Camp-Resorts", "tourism": "caravan_site", "type": "multipolygon", "osm_id": 18262439}}, {"type": "Feature", "geometry": {"type": "Point", "coordinates": [-95.5768925, 35.2820139]}, "properties": {"addr:city": "Eufaula", "addr:housenumber": "203", "addr:postcode": "74432", "addr:state": "OK", "addr:street": "Adams Avenue", "leisure": "resort", "name": "Xtreme RV Resort", "tourism": "caravan_site", "type": "multipolygon", "osm_id": 18269320}}, {"type": "Feature", "geometry": {"type": "Point", "coordinates": [-95.8868352, 35.6087202]}, "properties": {"addr:city": "Morris", "addr:country": "US", "addr:street": "US 62", "image": "https://static.wixstatic.com/media/ed6116_234c82fc7dcd48fc8b877508b182293e~mv2.jpg", "name": "Morris RV Park", "phone": "+1 918 641 4504", "tourism": "caravan_site", "type": "multipolygon", "website": "https://www.morrisrvpark.com/", "osm_id": 18295518}}, {"type": "Feature", "geometry": {"type": "Point", "coordinates": [-96.0103637, 35.817986]}, "properties": {"addr:city": "Beggs", "addr:country": "US", "addr:housenumber": "2538", "addr:postcode": "74421", "addr:state": "OK", "addr:street": "US 75", "fee": "yes", "name": "Tulsa RV Ranch", "phone": "+1 918 267 9000", "power_supply": "yes", "tourism": "caravan_site", "type": "multipolygon", "website": "https://tulsarvranch.com/", "osm_id": 18491503}}, {"type": "Feature", "geometry": {"type": "Point", "coordinates": [-95.4206388, 34.0230145]}, "properties": {"tourism": "camp_site", "type": "multipolygon", "osm_id": 18561952}}, {"type": "Feature", "geometry": {"type": "Point", "coordinates": [-96.9386261, 35.73083]}, "properties": {"addr:city": "Chandler", "addr:postcode": "74834", "addr:state": "OK", "addr:street": "CR S3405", "name": "Bell Cow Lake Campgorund Area B", "tourism": "camp_site", "type": "multipolygon", "osm_id": 19694242}}]}