{"type": "FeatureCollection", "features": [{"type": "Feature", "geometry": {"type": "Point", "coordinates": [-78.4546124, 39.6242256]}, "properties": {"backcountry": "yes", "boundary": "protected_area", "caravans": "yes", "fee": "yes", "internet_access": "no", "leisure": "nature_reserve", "name": "Green Ridge State Forest", "operator": "Maryland Forest Service", "operator:wikidata": "Q6781326", "protect_class": "5", "protected_area": "forest_reserve", "protection_title": "State Forest", "reservation": "no", "sanitary_dump_station": "no", "shower": "no", "static_caravans": "no", "tents": "yes", "tourism": "camp_site", "type": "multipolygon", "website": "https://dnr.maryland.gov/forests/Pages/publiclands/western_greenridgeforest.aspx", "wikidata": "Q14217008", "osm_id": 3693730}}, {"type": "Feature", "geometry": {"type": "Point", "coordinates": [-79.6607148, 40.2226869]}, "properties": {"caravans": "yes", "fee": "yes", "name": "Madison / Pittsburgh S.E. KOA Journey", "phone": "+17247224444", "power_supply": "yes", "sanitary_dump_station": "yes", "tents": "yes", "tourism": "camp_site", "type": "multipolygon", "website": "https://koa.com/campgrounds/madison-pittsburgh/", "osm_id": 6277743}}, {"type": "Feature", "geometry": {"type": "Point", "coordinates": [-74.8403308, 41.9780917]}, "properties": {"boundary": "protected_area", "governance": "government_managed", "name": "Beaverkill Campground", "ownership": "state", "protect_class": "21", "protection_object": "recreation", "protection_title": "Intensive Use", "related_law": "New York State Constitution, Article XIV", "source": "http://gis.ny.gov/gisdata/inventories/details.cfm?DSID=1114", "tourism": "camp_site", "type": "multipolygon", "website": "https://www.dec.ny.gov/outdoor/24455.html", "osm_id": 6389020}}, {"type": "Feature", "geometry": {"type": "Point", "coordinates": [-80.1417412, 40.977669]}, "properties": {"access": "private", "addr:city": "Slippery Rock", "addr:housenumber": "205", "addr:postcode": "16057", "addr:street": "Currie Road", "fee": "yes", "name": "Cooper's Lake Campground", "source:geometry": "https://www.cooperslake.com/download/CLCComplete.pdf", "tourism": "camp_site", "type": "multipolygon", "website": "https://www.cooperslake.com/", "osm_id": 6406116}}, {"type": "Feature", "geometry": {"type": "Point", "coordinates": [-75.0969338, 41.0074123]}, "properties": {"addr:city": "Columbia", "addr:housenumber": "2", "addr:postcode": "07832", "addr:state": "NJ", "addr:street": "Old Mine Road", "name": "Worthington State Forest Campground", "operator": "NJ Department of Environmental Protection", "tourism": "camp_site", "type": "multipolygon", "website": "https://www.njportal.com/DEP/NJOutdoors/Park/Details?locationId=20", "osm_id": 11286999}}, {"type": "Feature", "geometry": {"type": "Point", "coordinates": [-74.7544302, 41.519492]}, "properties": {"name": "Orange & Rockland Rio Recreation Area", "tourism": "camp_site", "type": "multipolygon", "osm_id": 11523716}}, {"type": "Feature", "geometry": {"type": "Point", "coordinates": [-77.4178753, 40.8338669]}, "properties": {"boundary": "protected_area", "caravans": "yes", "gnis:feature_id": "1196531", "leisure": "park", "name": "Poe Paddy State Park", "operator": "Pennsylvania Bureau of State Parks", "operator:type": "government", "operator:wikidata": "Q130236073", "ownership": "state", "protect_class": "3", "protected": "perpetuity", "protection_title": "State Park", "tents": "yes", "tourism": "camp_site", "type": "multipolygon", "website": "https://www.pa.gov/agencies/dcnr/recreation/where-to-go/state-parks/find-a-park/poe-paddy-state-park.html", "wikidata": "Q7207271", "wikipedia": "en:Poe Paddy State Park", "osm_id": 12165246}}, {"type": "Feature", "geometry": {"type": "Point", "coordinates": [-78.647108, 39.7148314]}, "properties": {"addr:city": "Flintstone", "addr:country": "US", "addr:housenumber": "17600", "addr:postcode": "21530", "addr:state": "MD", "addr:street": "Campers Hill Drive", "name": "Rocky Gap State Park", "phone": "+1 443 603 6324", "reservation": "required", "tourism": "camp_site", "type": "multipolygon", "website": "https://dnr.maryland.gov/publiclands/Pages/western/RockyGap/Overnight-Accommodations.aspx", "osm_id": 13602346}}, {"type": "Feature", "geometry": {"type": "Point", "coordinates": [-80.4351827, 41.294663]}, "properties": {"fee": "yes", "internet_access": "no", "leisure": "park", "name": "Shenango Recreational Area Campground", "operator": "United States Army Corps of Engineers", "operator:short": "USACE", "operator:type": "government", "operator:wikidata": "Q1049334", "operator:wikipedia": "en:United States Army Corps of Engineers", "short_name": "Shenango Rec Area", "tourism": "camp_site", "type": "multipolygon", "wheelchair": "yes", "osm_id": 15796155}}, {"type": "Feature", "geometry": {"type": "Point", "coordinates": [-74.9089649, 41.080595]}, "properties": {"cabins": "yes", "group_only": "yes", "leisure": "summer_camp", "name": "Fairview Lake YMCA Camp", "operator": "YMCA of the Oranges", "tourism": "camp_site", "type": "multipolygon", "website": "https://www.fairviewlakeymca.org/", "osm_id": 16864104}}, {"type": "Feature", "geometry": {"type": "Point", "coordinates": [-76.2327975, 40.2504103]}, "properties": {"addr:housenumber": "455", "addr:postcode": "17578", "addr:street": "Camp Rd", "description": "Retreats, cabin rentals, outdoor activities (ex. ziplines, obstacle courses), escape rooms. Year-round family fun in Lancaster County, PA.", "email": "information@refreshingmountain.com", "internet_access": "wlan", "name": "Refreshing Mountain Retreat and Adventure Center", "phone": "+1 717-738-1490", "tourism": "camp_site", "type": "multipolygon", "website": "https://www.refreshingmountain.com/", "osm_id": 18011289}}, {"type": "Feature", "geometry": {"type": "Point", "coordinates": [-74.7721477, 40.9263496]}, "properties": {"access": "private", "name": "Camp Allamuchy", "operator": "Scouting America", "tourism": "camp_site", "type": "multipolygon", "osm_id": 19016026}}]}