{"type": "FeatureCollection", "features": [{"type": "Feature", "geometry": {"type": "Point", "coordinates": [-71.7822219, 41.9696889]}, "properties": {"name": "Narragansett Council, Boy Scouts of America, Cub World", "tourism": "camp_site", "osm_id": 2140964052}}, {"type": "Feature", "geometry": {"type": "Point", "coordinates": [-71.557445, 41.4732299]}, "properties": {"addr:city": "West Kingston", "addr:housenumber": "2850", "addr:postcode": "02892", "addr:street": "Ministerial Road", "name": "Camp Hoffman", "operator": "Girl Scouts of Rhode Island", "tourism": "camp_site", "website": "https://www.gsri.org/aboutUs_OurCamps.html", "osm_id": 2413697702}}, {"type": "Feature", "geometry": {"type": "Point", "coordinates": [-71.7554568, 41.9217544]}, "properties": {"name": "George Washington State Campground", "tourism": "camp_site", "osm_id": 3283895170}}, {"type": "Feature", "geometry": {"type": "Point", "coordinates": [-71.7466742, 41.7676756]}, "properties": {"access": "private", "addr:city": "Foster", "addr:housenumber": "114", "addr:postcode": "02825", "addr:street": "Johnson Road", "name": "Dyer Woods Nudist Campgrounds", "phone": "+1 401 397 3007", "tourism": "camp_site", "website": "http://www.dyerwoodscampground.com/", "osm_id": 3837336137}}, {"type": "Feature", "geometry": {"type": "Point", "coordinates": [-71.5114443, 41.4091317]}, "properties": {"name": "YMCA Camp Fuller", "tourism": "camp_site", "osm_id": 4575526444}}, {"type": "Feature", "geometry": {"type": "Point", "coordinates": [-71.8451562, 41.4249565]}, "properties": {"addr:housenumber": "118", "addr:postcode": "06359", "addr:state": "CT", "addr:street": "Pendleton Hill Road", "name": "Mystic KOA Holiday", "tourism": "camp_site", "osm_id": 4968149921}}, {"type": "Feature", "geometry": {"type": "Point", "coordinates": [-71.6791289, 41.3815847]}, "properties": {"name": "Camp Watchaug (Westerly YMCA)", "operator": "Westerly (Ocean Community) YMCA", "tourism": "camp_site", "osm_id": 5308439438}}, {"type": "Feature", "geometry": {"type": "Point", "coordinates": [-71.8657262, 41.6058307]}, "properties": {"name": "Frog Hollow Horse Camp", "tourism": "camp_site", "osm_id": 5316305634}}, {"type": "Feature", "geometry": {"type": "Point", "coordinates": [-71.571376, 41.1671524]}, "properties": {"access": "private", "tourism": "camp_site", "osm_id": 8898462872}}, {"type": "Feature", "geometry": {"type": "Point", "coordinates": [-71.572213, 41.1669739]}, "properties": {"access": "private", "tourism": "camp_site", "osm_id": 8898462873}}, {"type": "Feature", "geometry": {"type": "Point", "coordinates": [-71.5714343, 41.1665049]}, "properties": {"access": "private", "tourism": "camp_site", "osm_id": 8898462874}}, {"type": "Feature", "geometry": {"type": "Point", "coordinates": [-71.4166765, 41.6431506]}, "properties": {"tourism": "camp_site", "osm_id": 9359593383}}, {"type": "Feature", "geometry": {"type": "Point", "coordinates": [-71.7101032, 41.5901205]}, "properties": {"access": "permit", "caravans": "no", "fee": "yes", "name": "Frosty Hollow Shelter Camping Area", "operator": "Arcadia Management Area", "phone": "+1 401-539-1052", "picnic_table": "yes", "reservation": "required", "tents": "yes", "toilets": "yes", "tourism": "camp_site", "website": "https://www.reserveamerica.com/explore/frosty-hollow-shelter-camping-area/RI/254250/overview", "osm_id": 11653461968}}, {"type": "Feature", "geometry": {"type": "Point", "coordinates": [-71.5122933, 41.4105839]}, "properties": {"name": "Junior Campsite", "tourism": "camp_site", "osm_id": 12175691090}}, {"type": "Feature", "geometry": {"type": "Point", "coordinates": [-71.5108079, 41.4111653]}, "properties": {"name": "Jungle Campsite", "tourism": "camp_site", "osm_id": 12175691091}}, {"type": "Feature", "geometry": {"type": "Point", "coordinates": [-71.5095514, 41.4080953]}, "properties": {"name": "Senior Hill", "tourism": "camp_site", "osm_id": 12175767404}}, {"type": "Feature", "geometry": {"type": "Point", "coordinates": [-71.5098521, 41.4104243]}, "properties": {"name": "Sherman Campsite", "tourism": "camp_site", "osm_id": 12175767412}}, {"type": "Feature", "geometry": {"type": "Point", "coordinates": [-71.7787242, 41.5199868]}, "properties": {"group_only": "yes", "name": "Frontier", "tourism": "camp_site", "osm_id": 12874023358}}, {"type": "Feature", "geometry": {"type": "Point", "coordinates": [-71.7787095, 41.5196583]}, "properties": {"group_only": "yes", "name": "Santa Fe", "tourism": "camp_site", "osm_id": 12874023359}}, {"type": "Feature", "geometry": {"type": "Point", "coordinates": [-71.7785841, 41.5193222]}, "properties": {"group_only": "yes", "name": "Tuocs", "tourism": "camp_site", "osm_id": 12874023360}}, {"type": "Feature", "geometry": {"type": "Point", "coordinates": [-71.777055, 41.5189298]}, "properties": {"group_only": "yes", "name": "Sleepy Hollow", "tourism": "camp_site", "osm_id": 12874023373}}, {"type": "Feature", "geometry": {"type": "Point", "coordinates": [-71.7811533, 41.5168519]}, "properties": {"group_only": "yes", "name": "Donald Dewing", "tourism": "camp_site", "osm_id": 12874023412}}, {"type": "Feature", "geometry": {"type": "Point", "coordinates": [-71.7807172, 41.5157593]}, "properties": {"group_only": "yes", "name": "Wells Fargo", "tourism": "camp_site", "osm_id": 12874023413}}, {"type": "Feature", "geometry": {"type": "Point", "coordinates": [-71.7789719, 41.5170664]}, "properties": {"group_only": "yes", "name": "Musketeer", "tourism": "camp_site", "osm_id": 12874023414}}, {"type": "Feature", "geometry": {"type": "Point", "coordinates": [-71.7786899, 41.5161581]}, "properties": {"group_only": "yes", "name": "Forty-Niner", "tourism": "camp_site", "osm_id": 12874023415}}, {"type": "Feature", "geometry": {"type": "Point", "coordinates": [-71.7795466, 41.5169191]}, "properties": {"group_only": "yes", "name": "Edward Bannister", "tourism": "camp_site", "osm_id": 12874023416}}, {"type": "Feature", "geometry": {"type": "Point", "coordinates": [-71.7778309, 41.5173972]}, "properties": {"group_only": "yes", "name": "Oak Ridge", "tourism": "camp_site", "osm_id": 12874023421}}, {"type": "Feature", "geometry": {"type": "Point", "coordinates": [-71.7782967, 41.5169742]}, "properties": {"group_only": "yes", "name": "Pioneer", "tourism": "camp_site", "osm_id": 12874023422}}, {"type": "Feature", "geometry": {"type": "Point", "coordinates": [-71.7778155, 41.5157396]}, "properties": {"group_only": "yes", "name": "Paul Slade", "tourism": "camp_site", "osm_id": 12874023434}}, {"type": "Feature", "geometry": {"type": "Point", "coordinates": [-71.7768522, 41.5152792]}, "properties": {"group_only": "yes", "name": "Zuccolo", "tourism": "camp_site", "osm_id": 12874023435}}, {"type": "Feature", "geometry": {"type": "Point", "coordinates": [-71.7776659, 41.514813]}, "properties": {"group_only": "yes", "name": "Street", "tourism": "camp_site", "osm_id": 12874023436}}, {"type": "Feature", "geometry": {"type": "Point", "coordinates": [-71.7767706, 41.5147299]}, "properties": {"group_only": "yes", "name": "Scott", "tourism": "camp_site", "osm_id": 12874023437}}, {"type": "Feature", "geometry": {"type": "Point", "coordinates": [-71.7774139, 41.5217522]}, "properties": {"group_only": "yes", "name": "Sequan", "tourism": "camp_site", "osm_id": 12874023496}}, {"type": "Feature", "geometry": {"type": "Point", "coordinates": [-71.7793178, 41.5210867]}, "properties": {"group_only": "yes", "name": "Weemat", "tourism": "camp_site", "osm_id": 12874023529}}, {"type": "Feature", "geometry": {"type": "Point", "coordinates": [-71.7794314, 41.5213]}, "properties": {"group_only": "yes", "name": "Wuttah", "tourism": "camp_site", "osm_id": 12874023530}}, {"type": "Feature", "geometry": {"type": "Point", "coordinates": [-71.7795346, 41.5215796]}, "properties": {"group_only": "yes", "name": "Netop", "tourism": "camp_site", "osm_id": 12874023531}}, {"type": "Feature", "geometry": {"type": "Point", "coordinates": [-71.7791103, 41.5218921]}, "properties": {"group_only": "yes", "name": "Red Wing", "tourism": "camp_site", "osm_id": 12875929955}}, {"type": "Feature", "geometry": {"type": "Point", "coordinates": [-71.779253, 41.522322]}, "properties": {"group_only": "yes", "name": "Wunegin", "tourism": "camp_site", "osm_id": 12875929956}}, {"type": "Feature", "geometry": {"type": "Point", "coordinates": [-71.7777882, 41.5231085]}, "properties": {"group_only": "yes", "name": "Neimpaug", "tourism": "camp_site", "osm_id": 12875929958}}, {"type": "Feature", "geometry": {"type": "Point", "coordinates": [-71.7778998, 41.5236053]}, "properties": {"group_only": "yes", "name": "Cautontowit", "tourism": "camp_site", "osm_id": 12875929959}}, {"type": "Feature", "geometry": {"type": "Point", "coordinates": [-71.7781731, 41.5240348]}, "properties": {"group_only": "yes", "name": "Wetuomuck", "tourism": "camp_site", "osm_id": 12875929960}}, {"type": "Feature", "geometry": {"type": "Point", "coordinates": [-71.7788306, 41.5251289]}, "properties": {"group_only": "yes", "name": "Donald Cady", "tourism": "camp_site", "osm_id": 12875929963}}, {"type": "Feature", "geometry": {"type": "Point", "coordinates": [-71.778763, 41.522861]}, "properties": {"group_only": "yes", "name": "Minnikesu", "tourism": "camp_site", "osm_id": 12875929964}}, {"type": "Feature", "geometry": {"type": "Point", "coordinates": [-71.7787384, 41.5233903]}, "properties": {"group_only": "yes", "name": "Manittoo", "tourism": "camp_site", "osm_id": 12875929965}}, {"type": "Feature", "geometry": {"type": "Point", "coordinates": [-71.7792545, 41.5234688]}, "properties": {"group_only": "yes", "name": "Baden Powell", "tourism": "camp_site", "osm_id": 12875929966}}, {"type": "Feature", "geometry": {"type": "Point", "coordinates": [-71.778984, 41.5242116]}, "properties": {"group_only": "yes", "name": "Abe Lincoln", "tourism": "camp_site", "osm_id": 12875929967}}, {"type": "Feature", "geometry": {"type": "Point", "coordinates": [-71.7796782, 41.524028]}, "properties": {"group_only": "yes", "name": "Frederick Douglas", "tourism": "camp_site", "osm_id": 12875929968}}, {"type": "Feature", "geometry": {"type": "Point", "coordinates": [-71.7798457, 41.5227021]}, "properties": {"group_only": "yes", "name": "Manchosi", "tourism": "camp_site", "osm_id": 12875929969}}, {"type": "Feature", "geometry": {"type": "Point", "coordinates": [-71.7801282, 41.5230839]}, "properties": {"group_only": "yes", "name": "Waskecke", "tourism": "camp_site", "osm_id": 12875929970}}, {"type": "Feature", "geometry": {"type": "Point", "coordinates": [-71.780514, 41.5234723]}, "properties": {"group_only": "yes", "name": "Dan Boone", "tourism": "camp_site", "osm_id": 12875929971}}, {"type": "Feature", "geometry": {"type": "Point", "coordinates": [-71.7810233, 41.5240767]}, "properties": {"group_only": "yes", "name": "Neil Armstrong", "tourism": "camp_site", "osm_id": 12875929998}}, {"type": "Feature", "geometry": {"type": "Point", "coordinates": [-71.7798292, 41.5263527]}, "properties": {"group_only": "yes", "name": "Audobon", "tourism": "camp_site", "osm_id": 12875966803}}, {"type": "Feature", "geometry": {"type": "Point", "coordinates": [-71.7807655, 41.5263243]}, "properties": {"group_only": "yes", "name": "Paul Siple", "tourism": "camp_site", "osm_id": 12875966804}}, {"type": "Feature", "geometry": {"type": "Point", "coordinates": [-71.7809027, 41.5268492]}, "properties": {"group_only": "yes", "name": "Richard Byrd", "tourism": "camp_site", "osm_id": 12875966805}}, {"type": "Feature", "geometry": {"type": "Point", "coordinates": [-71.7801913, 41.5268665]}, "properties": {"group_only": "yes", "name": "Backwoods", "tourism": "camp_site", "osm_id": 12875966806}}, {"type": "Feature", "geometry": {"type": "Point", "coordinates": [-71.7804257, 41.5275836]}, "properties": {"group_only": "yes", "name": "Davy Crockett", "tourism": "camp_site", "osm_id": 12875966807}}, {"type": "Feature", "geometry": {"type": "Point", "coordinates": [-71.7812084, 41.527475]}, "properties": {"group_only": "yes", "name": "Teddy Roosevelt", "tourism": "camp_site", "osm_id": 12875966808}}, {"type": "Feature", "geometry": {"type": "Point", "coordinates": [-71.7806927, 41.5281032]}, "properties": {"group_only": "yes", "name": "Norman Rockwell", "tourism": "camp_site", "osm_id": 12875966809}}, {"type": "Feature", "geometry": {"type": "Point", "coordinates": [-71.7815637, 41.5277055]}, "properties": {"group_only": "yes", "name": "James West", "tourism": "camp_site", "osm_id": 12875966810}}, {"type": "Feature", "geometry": {"type": "Point", "coordinates": [-71.7816082, 41.5285162]}, "properties": {"group_only": "yes", "name": "Silver Buffalo", "tourism": "camp_site", "osm_id": 12875966815}}, {"type": "Feature", "geometry": {"type": "Point", "coordinates": [-71.7813876, 41.529489]}, "properties": {"group_only": "yes", "name": "Ernest Seton", "tourism": "camp_site", "osm_id": 12875966816}}, {"type": "Feature", "geometry": {"type": "Point", "coordinates": [-71.7816042, 41.5289391]}, "properties": {"group_only": "yes", "name": "Ida Lewis", "tourism": "camp_site", "osm_id": 12875966817}}, {"type": "Feature", "geometry": {"type": "Point", "coordinates": [-71.7837956, 41.5254157]}, "properties": {"group_only": "yes", "name": "Jim Bridger", "tourism": "camp_site", "osm_id": 12875966822}}, {"type": "Feature", "geometry": {"type": "Point", "coordinates": [-71.7826556, 41.5255202]}, "properties": {"group_only": "yes", "name": "George Washington", "tourism": "camp_site", "osm_id": 12875966823}}, {"type": "Feature", "geometry": {"type": "Point", "coordinates": [-71.8400226, 41.4248077]}, "properties": {"description": "Private, Open To Public With Fee", "magic:CATEGORY": "General Recreation", "name": "Mystic KOA Holiday", "old_name": "Highland Orchards", "operator": "Kampgrounds of America, Inc.", "source": "University of Connecticut (http://magic.lib.uconn.edu/connecticut_data.html)", "tourism": "camp_site", "osm_id": 43440566}}, {"type": "Feature", "geometry": {"type": "Point", "coordinates": [-71.2743092, 41.5868177]}, "properties": {"name": "Melville Ponds Campground", "tourism": "camp_site", "osm_id": 294894424}}, {"type": "Feature", "geometry": {"type": "Point", "coordinates": [-71.7526746, 41.7572571]}, "properties": {"addr:city": "Foster", "addr:housenumber": "7", "addr:postcode": "02825", "addr:street": "Harrington Road", "name": "Ginny-B Campground", "phone": "+1 401 397 9477", "tourism": "caravan_site", "website": "http://ginny-bcampground.com/", "osm_id": 380396805}}, {"type": "Feature", "geometry": {"type": "Point", "coordinates": [-71.6279375, 41.5563778]}, "properties": {"addr:city": "West Kingston", "addr:housenumber": "510", "addr:postcode": "02892", "addr:state": "RI", "addr:street": "Gardiner Road", "email": "info@wawaloam.com", "name": "Wawaloam Campground", "phone": "+1 401 294 3039", "tourism": "caravan_site", "website": "https://wawaloam.com", "osm_id": 410609135}}, {"type": "Feature", "geometry": {"type": "Point", "coordinates": [-71.6381813, 41.3577602]}, "properties": {"fee": "yes", "tourism": "caravan_site", "osm_id": 617173173}}, {"type": "Feature", "geometry": {"type": "Point", "coordinates": [-71.886944, 41.5632692]}, "properties": {"addr:city": "Griswold", "addr:housenumber": "75", "addr:postcode": "06351", "addr:state": "CT", "addr:street": "Cook Hill Road", "name": "Countryside RV Park", "phone": "+1 860 376 0029", "tourism": "camp_site", "website": "https://www.countrysidervcamp.com", "osm_id": 911886938}}, {"type": "Feature", "geometry": {"type": "Point", "coordinates": [-71.9007842, 41.5488881]}, "properties": {"access": "private", "addr:city": "Griswold", "addr:housenumber": "262", "addr:postcode": "06351", "addr:state": "CT", "addr:street": "Shetucket Turnpike", "email": "BenW@westfordmgt.com", "name": "Pachaug Marina and Campground", "phone": "+1 860 207 4017", "tourism": "camp_site", "website": "http://www.pachaugmarina.net", "osm_id": 912115985}}, {"type": "Feature", "geometry": {"type": "Point", "coordinates": [-71.8079605, 41.6891211]}, "properties": {"leisure": "nature_reserve", "name": "River's Edge Campground", "tourism": "camp_site", "osm_id": 952825549}}, {"type": "Feature", "geometry": {"type": "Point", "coordinates": [-71.8142678, 41.8533126]}, "properties": {"addr:city": "Killingly", "addr:housenumber": "1060", "addr:postcode": "06243", "addr:state": "CT", "addr:street": "North Road", "name": "Hide-Away-Cove Family Campground", "phone": "+1 860 774 1128", "tourism": "caravan_site", "website": "https://hide-away-cove.squarespace.com", "osm_id": 966070560}}, {"type": "Feature", "geometry": {"type": "Point", "coordinates": [-71.8692427, 41.5930154]}, "properties": {"name": "Mount Misery Campground", "tourism": "camp_site", "osm_id": 1009528134}}, {"type": "Feature", "geometry": {"type": "Point", "coordinates": [-71.8698614, 41.509109]}, "properties": {"addr:city": "Griswold", "addr:housenumber": "207", "addr:postcode": "06451", "addr:state": "CT", "addr:street": "Coal Pit Hill Road", "leisure": "nature_reserve", "name": "Camp Wightman", "operator": "American Baptist Churches of Connecticut", "tourism": "camp_site", "website": "https://www.campwightman.org", "osm_id": 1025033388}}, {"type": "Feature", "geometry": {"type": "Point", "coordinates": [-71.7970535, 41.7451529]}, "properties": {"addr:city": "Sterling", "addr:housenumber": "131", "addr:postcode": "06377", "addr:state": "CT", "addr:street": "Calvin French Road", "email": "sunridge1@hotmail.com", "leisure": "nature_reserve", "name": "Sun Ridge Resort", "nudism": "yes", "phone": "+1 860 779 1512", "tourism": "camp_site", "website": "https://sunridgeresortct.com", "osm_id": 1095773777}}, {"type": "Feature", "geometry": {"type": "Point", "coordinates": [-71.1354424, 41.495155]}, "properties": {"access": "permit", "operator": "Town of Little Compton", "tourism": "camp_site", "osm_id": 1299113399}}, {"type": "Feature", "geometry": {"type": "Point", "coordinates": [-71.5095547, 41.4096408]}, "properties": {"name": "Camp Fuller - By The Sea", "operator": "YMCA", "tourism": "camp_site", "osm_id": 1314407535}}, {"type": "Feature", "geometry": {"type": "Point", "coordinates": [-71.7503744, 41.4179767]}, "properties": {"tourism": "caravan_site", "osm_id": 1375032830}}, {"type": "Feature", "geometry": {"type": "Point", "coordinates": [-71.7408608, 41.5289341]}, "properties": {"addr:city": "Hope Valley", "addr:housenumber": "41", "addr:postcode": "02832", "addr:state": "RI", "addr:street": "Saw Mill Road", "name": "Whispering Pines Campground", "tourism": "caravan_site", "website": "https://whisperingpinescamping.com/", "osm_id": 1380138837}}, {"type": "Feature", "geometry": {"type": "Point", "coordinates": [-71.4905031, 41.4192177]}, "properties": {"name": "Long Cove Campground", "tourism": "camp_site", "type": "multipolygon", "osm_id": 11871002}}, {"type": "Feature", "geometry": {"type": "Point", "coordinates": [-71.8121145, 41.9544076]}, "properties": {"ele": "138", "gnis:feature_id": "210034", "leisure": "nature_reserve", "name": "Quaddick State Park", "operator": "Connecticut Department of Energy and Environmental Protection", "ownership": "state", "park:type": "state_park", "source": "CT Department of Environmental Protection shapefile", "source_ref": "http://www.ct.gov/dep/cwp/view.asp?a=2698&q=322898&depNav_GID=1707", "tourism": "camp_site", "type": "multipolygon", "wikidata": "Q14715099", "wikipedia": "en:Quaddick State Park", "osm_id": 13333940}}, {"type": "Feature", "geometry": {"type": "Point", "coordinates": [-71.8490963, 41.4694618]}, "properties": {"description": "Private, Members Or Owners Only", "leisure": "nature_reserve", "magic:CATEGORY": "General Recreation", "name": "Tefftweald at Birchenturn", "operator": "Avalonia Land Conservancy", "tourism": "camp_site", "type": "multipolygon", "osm_id": 16543222}}, {"type": "Feature", "geometry": {"type": "Point", "coordinates": [-71.6966312, 41.3746772]}, "properties": {"name": "Burlingame State Park Campground", "tourism": "camp_site", "type": "multipolygon", "osm_id": 17625136}}, {"type": "Feature", "geometry": {"type": "Point", "coordinates": [-71.7501964, 41.4154355]}, "properties": {"tourism": "caravan_site", "type": "multipolygon", "osm_id": 18946706}}]}