{"type": "FeatureCollection", "features": [{"type": "Feature", "geometry": {"type": "Point", "coordinates": [-82.9601488, 34.7162104]}, "properties": {"ele": "258", "gnis:feature_id": "1243163", "name": "South Cove", "tourism": "camp_site", "osm_id": 154326740}}, {"type": "Feature", "geometry": {"type": "Point", "coordinates": [-83.335467, 34.93831]}, "properties": {"backcountry": "yes", "name": "Wilson Gap", "tourism": "camp_site", "osm_id": 347599113}}, {"type": "Feature", "geometry": {"type": "Point", "coordinates": [-83.368466, 34.89876]}, "properties": {"backcountry": "yes", "tourism": "camp_site", "osm_id": 347600997}}, {"type": "Feature", "geometry": {"type": "Point", "coordinates": [-83.321279, 34.866982]}, "properties": {"backcountry": "yes", "tourism": "camp_site", "osm_id": 347627902}}, {"type": "Feature", "geometry": {"type": "Point", "coordinates": [-83.3104092, 34.9535132]}, "properties": {"backcountry": "yes", "tourism": "camp_site", "osm_id": 347672771}}, {"type": "Feature", "geometry": {"type": "Point", "coordinates": [-83.31616, 34.9483001]}, "properties": {"backcountry": "yes", "tourism": "camp_site", "osm_id": 347695616}}, {"type": "Feature", "geometry": {"type": "Point", "coordinates": [-83.30271, 34.977203]}, "properties": {"backcountry": "yes", "name": "Campground", "tourism": "camp_site", "osm_id": 347719933}}, {"type": "Feature", "geometry": {"type": "Point", "coordinates": [-83.3175303, 34.9446627]}, "properties": {"backcountry": "yes", "tourism": "camp_site", "osm_id": 347761332}}, {"type": "Feature", "geometry": {"type": "Point", "coordinates": [-83.3693312, 34.8939052]}, "properties": {"backcountry": "yes", "tourism": "camp_site", "osm_id": 347763258}}, {"type": "Feature", "geometry": {"type": "Point", "coordinates": [-83.357196, 34.908085]}, "properties": {"backcountry": "yes", "tourism": "camp_site", "osm_id": 347794199}}, {"type": "Feature", "geometry": {"type": "Point", "coordinates": [-83.2911579, 34.9869785]}, "properties": {"backcountry": "yes", "tourism": "camp_site", "osm_id": 347844989}}, {"type": "Feature", "geometry": {"type": "Point", "coordinates": [-83.348534, 34.891953]}, "properties": {"access": "yes", "backcountry": "yes", "caravans": "no", "fee": "no", "static_caravans": "no", "tents": "yes", "tourism": "camp_site", "osm_id": 347917915}}, {"type": "Feature", "geometry": {"type": "Point", "coordinates": [-83.331347, 34.867107]}, "properties": {"backcountry": "yes", "tourism": "camp_site", "osm_id": 347946778}}, {"type": "Feature", "geometry": {"type": "Point", "coordinates": [-83.354807, 34.910616]}, "properties": {"backcountry": "yes", "tourism": "camp_site", "osm_id": 347972722}}, {"type": "Feature", "geometry": {"type": "Point", "coordinates": [-83.297885, 34.979293]}, "properties": {"backcountry": "yes", "name": "Campground", "tourism": "camp_site", "osm_id": 347989059}}, {"type": "Feature", "geometry": {"type": "Point", "coordinates": [-79.6905864, 33.0610831]}, "properties": {"name": "Halfway Creek Trail Camp", "tourism": "camp_site", "osm_id": 1195798996}}, {"type": "Feature", "geometry": {"type": "Point", "coordinates": [-79.0634319, 33.5064765]}, "properties": {"name": "Huntington Beach State Park Campground", "tourism": "camp_site", "osm_id": 1217824312}}, {"type": "Feature", "geometry": {"type": "Point", "coordinates": [-81.0425903, 35.0235898]}, "properties": {"internet_access": "no", "tourism": "caravan_site", "website": "https://www.yorkcountygov.com/212/Ebenezer-Park", "osm_id": 1254048526}}, {"type": "Feature", "geometry": {"type": "Point", "coordinates": [-80.9093419, 34.0860276]}, "properties": {"tourism": "caravan_site", "osm_id": 1300146287}}, {"type": "Feature", "geometry": {"type": "Point", "coordinates": [-80.4367957, 33.5659852]}, "properties": {"tourism": "camp_site", "osm_id": 1309361083}}, {"type": "Feature", "geometry": {"type": "Point", "coordinates": [-79.9271641, 34.5643469]}, "properties": {"tourism": "caravan_site", "osm_id": 1309667536}}, {"type": "Feature", "geometry": {"type": "Point", "coordinates": [-79.9928499, 32.7366132]}, "properties": {"tourism": "caravan_site", "osm_id": 1334581741}}, {"type": "Feature", "geometry": {"type": "Point", "coordinates": [-81.043403, 35.0234738]}, "properties": {"internet_access": "no", "tourism": "caravan_site", "website": "https://www.yorkcountygov.com/212/Ebenezer-Park", "osm_id": 1409254996}}, {"type": "Feature", "geometry": {"type": "Point", "coordinates": [-81.0430623, 35.022369]}, "properties": {"access": "permissive", "bicycle": "yes", "foot": "yes", "motor_vehicle": "yes", "tourism": "camp_site", "website": "https://www.yorkcountygov.com/212/Ebenezer-Park", "osm_id": 1409255033}}, {"type": "Feature", "geometry": {"type": "Point", "coordinates": [-81.0438563, 35.0225052]}, "properties": {"internet_access": "no", "tourism": "caravan_site", "website": "https://www.yorkcountygov.com/212/Ebenezer-Park", "osm_id": 1409255045}}, {"type": "Feature", "geometry": {"type": "Point", "coordinates": [-81.0425742, 35.0228215]}, "properties": {"internet_access": "no", "tourism": "caravan_site", "website": "https://www.yorkcountygov.com/212/Ebenezer-Park", "osm_id": 1409255053}}, {"type": "Feature", "geometry": {"type": "Point", "coordinates": [-81.2045435, 32.4855272]}, "properties": {"tourism": "camp_site", "osm_id": 1471390771}}, {"type": "Feature", "geometry": {"type": "Point", "coordinates": [-80.910382, 34.0870009]}, "properties": {"tourism": "caravan_site", "osm_id": 1636957553}}, {"type": "Feature", "geometry": {"type": "Point", "coordinates": [-80.9118153, 34.0881832]}, "properties": {"tourism": "caravan_site", "osm_id": 1636957995}}, {"type": "Feature", "geometry": {"type": "Point", "coordinates": [-80.3872623, 33.0304106]}, "properties": {"tourism": "caravan_site", "osm_id": 1645662090}}, {"type": "Feature", "geometry": {"type": "Point", "coordinates": [-80.6153785, 33.0642341]}, "properties": {"tourism": "caravan_site", "osm_id": 1646067301}}, {"type": "Feature", "geometry": {"type": "Point", "coordinates": [-80.7605426, 32.1595711]}, "properties": {"addr:city": "Hilton Head Island", "addr:housenumber": "133", "addr:postcode": "29928", "addr:street": "Arrow Road", "capacity": "401", "internet_access": "wlan", "internet_access:fee": "customers", "name": "HHIMR Welcome Center", "power_supply": "yes", "sanitary_dump_station": "no", "tourism": "caravan_site", "website": "http://www.hiltonheadmotorcoachresort.com/", "osm_id": 2546408823}}, {"type": "Feature", "geometry": {"type": "Point", "coordinates": [-80.9420358, 35.0346469]}, "properties": {"tourism": "camp_site", "osm_id": 2594360727}}, {"type": "Feature", "geometry": {"type": "Point", "coordinates": [-80.9421736, 35.034117]}, "properties": {"tourism": "camp_site", "osm_id": 2594360728}}, {"type": "Feature", "geometry": {"type": "Point", "coordinates": [-80.9398529, 35.0349604]}, "properties": {"tourism": "camp_site", "osm_id": 2594360730}}, {"type": "Feature", "geometry": {"type": "Point", "coordinates": [-80.9414464, 35.034825]}, "properties": {"tourism": "camp_site", "osm_id": 2594360731}}, {"type": "Feature", "geometry": {"type": "Point", "coordinates": [-80.941879, 35.0348081]}, "properties": {"tourism": "camp_site", "osm_id": 2594360732}}, {"type": "Feature", "geometry": {"type": "Point", "coordinates": [-83.0407037, 35.0214008]}, "properties": {"impromptu": "yes", "tourism": "camp_site", "osm_id": 2630696106}}, {"type": "Feature", "geometry": {"type": "Point", "coordinates": [-78.7104816, 33.9823148]}, "properties": {"name": "Willow Tree RV Resort", "tourism": "caravan_site", "osm_id": 2692160166}}, {"type": "Feature", "geometry": {"type": "Point", "coordinates": [-78.897437, 33.6840296]}, "properties": {"alt_name": "KOA Campground", "brand": "KOA", "brand:wikidata": "Q16988635", "name": "Kampgrounds of America Myrtle Beach", "short_name": "KOA", "tourism": "caravan_site", "osm_id": 2732305264}}, {"type": "Feature", "geometry": {"type": "Point", "coordinates": [-81.1982407, 33.6687347]}, "properties": {"tourism": "caravan_site", "osm_id": 2886232422}}, {"type": "Feature", "geometry": {"type": "Point", "coordinates": [-82.1336894, 32.0861269]}, "properties": {"tourism": "caravan_site", "osm_id": 3056652845}}, {"type": "Feature", "geometry": {"type": "Point", "coordinates": [-80.4230397, 33.5107996]}, "properties": {"name": "Polly's Landing Campground", "tourism": "camp_site", "osm_id": 3122981642}}, {"type": "Feature", "geometry": {"type": "Point", "coordinates": [-80.4307015, 33.5161169]}, "properties": {"addr:city": "Summerton", "addr:housenumber": "1268", "addr:postcode": "29148", "addr:state": "SC", "addr:street": "Gordon Road", "name": "Santee Lakes Campground", "phone": "+1 803 478 2262", "tourism": "caravan_site", "website": "https://koa.com/campgrounds/santee/", "osm_id": 3122981645}}, {"type": "Feature", "geometry": {"type": "Point", "coordinates": [-80.9095725, 34.0861359]}, "properties": {"tourism": "camp_site", "osm_id": 3163904361}}, {"type": "Feature", "geometry": {"type": "Point", "coordinates": [-82.1176866, 32.5599298]}, "properties": {"access": "destination", "backcountry": "yes", "name": "Primitive 1", "tourism": "camp_site", "osm_id": 3448813843}}, {"type": "Feature", "geometry": {"type": "Point", "coordinates": [-82.117399, 32.561016]}, "properties": {"access": "destination", "backcountry": "yes", "capacity:persons": "6", "drinking_water": "no", "name": "Primitive 2", "openfire": "yes", "picnic_table": "no", "power_supply": "no", "sanitary_dump_station": "no", "shower": "no", "toilets": "no", "tourism": "camp_site", "osm_id": 3448813844}}, {"type": "Feature", "geometry": {"type": "Point", "coordinates": [-82.120956, 32.5627931]}, "properties": {"access": "destination", "backcountry": "yes", "name": "Primative 4", "tourism": "camp_site", "osm_id": 3448813845}}, {"type": "Feature", "geometry": {"type": "Point", "coordinates": [-82.1210431, 32.5638076]}, "properties": {"access": "destination", "backcountry": "yes", "name": "Primative 5", "tourism": "camp_site", "osm_id": 3448813846}}, {"type": "Feature", "geometry": {"type": "Point", "coordinates": [-81.9516292, 32.8810518]}, "properties": {"name": "28", "tourism": "camp_site", "osm_id": 3453155413}}, {"type": "Feature", "geometry": {"type": "Point", "coordinates": [-81.9517109, 32.8813766]}, "properties": {"name": "27", "tourism": "camp_site", "osm_id": 3453155416}}, {"type": "Feature", "geometry": {"type": "Point", "coordinates": [-81.9518946, 32.8809462]}, "properties": {"name": "29", "tourism": "camp_site", "osm_id": 3454964939}}, {"type": "Feature", "geometry": {"type": "Point", "coordinates": [-83.0696111, 34.0204133]}, "properties": {"name": "Pioneer 2", "tourism": "camp_site", "osm_id": 3567238062}}, {"type": "Feature", "geometry": {"type": "Point", "coordinates": [-83.0712196, 34.0209277]}, "properties": {"name": "Pioneer 1", "tourism": "camp_site", "osm_id": 3567238065}}, {"type": "Feature", "geometry": {"type": "Point", "coordinates": [-83.0668923, 34.0238445]}, "properties": {"name": "Pioneer 3", "tourism": "camp_site", "osm_id": 3567330001}}, {"type": "Feature", "geometry": {"type": "Point", "coordinates": [-83.1812151, 34.8235128]}, "properties": {"fishing": "yes", "tourism": "camp_site", "osm_id": 3841772587}}, {"type": "Feature", "geometry": {"type": "Point", "coordinates": [-83.302388, 34.9711838]}, "properties": {"backcountry": "yes", "name": "Campground", "tourism": "camp_site", "osm_id": 4274691893}}, {"type": "Feature", "geometry": {"type": "Point", "coordinates": [-78.6931583, 33.900597]}, "properties": {"addr:housenumber": "1704", "addr:postcode": "29568", "addr:street": "Fairwinds Drive", "name": "Lee Ches's Beach House", "tourism": "camp_site", "osm_id": 4346507444}}, {"type": "Feature", "geometry": {"type": "Point", "coordinates": [-78.6070996, 33.8392323]}, "properties": {"name": "Nice walk up beach", "tourism": "camp_site", "osm_id": 4346735889}}, {"type": "Feature", "geometry": {"type": "Point", "coordinates": [-80.9219437, 35.0093661]}, "properties": {"name": "Sign Language", "tourism": "camp_site", "osm_id": 4357186692}}, {"type": "Feature", "geometry": {"type": "Point", "coordinates": [-82.8962146, 33.5724507]}, "properties": {"name": "Equestrian Camping", "tourism": "camp_site", "osm_id": 4583507171}}, {"type": "Feature", "geometry": {"type": "Point", "coordinates": [-82.8993931, 33.5687604]}, "properties": {"name": "Pioneer Camping Area", "tourism": "camp_site", "osm_id": 4583527300}}, {"type": "Feature", "geometry": {"type": "Point", "coordinates": [-82.9003519, 33.5647473]}, "properties": {"name": "RV/Tent Camping", "tourism": "camp_site", "osm_id": 4583527301}}, {"type": "Feature", "geometry": {"type": "Point", "coordinates": [-83.3942924, 34.6774667]}, "properties": {"tourism": "camp_site", "osm_id": 4852866838}}, {"type": "Feature", "geometry": {"type": "Point", "coordinates": [-83.3946008, 34.6776151]}, "properties": {"tourism": "camp_site", "osm_id": 4852866840}}, {"type": "Feature", "geometry": {"type": "Point", "coordinates": [-81.2763686, 34.1172876]}, "properties": {"addr:city": "Chapin", "addr:housenumber": "2000", "addr:postcode": "29036", "addr:state": "SC", "addr:street": "Johnson Marina Road", "leisure": "park", "name": "Woodmen of the World Park", "phone": "+1-803-732-2963", "tourism": "camp_site", "osm_id": 5331951469}}, {"type": "Feature", "geometry": {"type": "Point", "coordinates": [-83.3515455, 35.0911347]}, "properties": {"backcountry": "yes", "tents": "yes", "tourism": "camp_site", "osm_id": 5574235842}}, {"type": "Feature", "geometry": {"type": "Point", "coordinates": [-78.8659713, 35.0874813]}, "properties": {"tourism": "camp_site", "osm_id": 5581543101}}, {"type": "Feature", "geometry": {"type": "Point", "coordinates": [-82.0877466, 33.5591539]}, "properties": {"tourism": "camp_site", "osm_id": 5607935850}}, {"type": "Feature", "geometry": {"type": "Point", "coordinates": [-82.0871406, 33.5583466]}, "properties": {"tourism": "camp_site", "osm_id": 5607935866}}, {"type": "Feature", "geometry": {"type": "Point", "coordinates": [-82.0873058, 33.5579597]}, "properties": {"tourism": "camp_site", "osm_id": 5607935872}}, {"type": "Feature", "geometry": {"type": "Point", "coordinates": [-82.0880147, 33.5579122]}, "properties": {"tourism": "camp_site", "osm_id": 5607935882}}, {"type": "Feature", "geometry": {"type": "Point", "coordinates": [-82.0886027, 33.5590953]}, "properties": {"tourism": "camp_site", "osm_id": 5607935889}}, {"type": "Feature", "geometry": {"type": "Point", "coordinates": [-82.0884378, 33.5583936]}, "properties": {"tourism": "camp_site", "osm_id": 5607935896}}, {"type": "Feature", "geometry": {"type": "Point", "coordinates": [-82.0866016, 33.5594012]}, "properties": {"tourism": "camp_site", "osm_id": 5607991772}}, {"type": "Feature", "geometry": {"type": "Point", "coordinates": [-82.0871795, 33.5586959]}, "properties": {"tourism": "camp_site", "osm_id": 5607991797}}, {"type": "Feature", "geometry": {"type": "Point", "coordinates": [-81.7047307, 34.4509718]}, "properties": {"name": "Brick House Camp Ground", "tourism": "camp_site", "osm_id": 6077801621}}, {"type": "Feature", "geometry": {"type": "Point", "coordinates": [-80.1464717, 32.776632]}, "properties": {"addr:housenumber": "843-571-1271", "addr:postcode": "29449", "addr:street": "State Highway 162", "internet_access": "wlan", "name": "Lake Aire RV Park", "phone": "+1-843-571-1271", "tourism": "camp_site", "website": "https://www.lakeairerv.com/", "osm_id": 6216642286}}, {"type": "Feature", "geometry": {"type": "Point", "coordinates": [-81.4031607, 35.1213522]}, "properties": {"backcountry": "yes", "capacity": "12", "drinking_water": "no", "fee": "no", "fixme": "position estimated", "name": "Garner Creek Backcountry Campsite", "openfire": "yes", "operator": "National Park Service", "tents": "yes", "tourism": "camp_site", "osm_id": 6293774882}}, {"type": "Feature", "geometry": {"type": "Point", "coordinates": [-82.9523279, 35.0486157]}, "properties": {"backcountry": "yes", "camp_site": "basic", "description": "This campsite is an offical maintained campsite of the Foothills trail and has bear hang cables.", "drinking_water": "untreated", "fee": "no", "name": "Bearcamp Creek Campsite", "openfire": "yes", "tents": "yes", "tourism": "camp_site", "osm_id": 6355584749}}, {"type": "Feature", "geometry": {"type": "Point", "coordinates": [-82.9716582, 35.0444122]}, "properties": {"backcountry": "yes", "fee": "no", "name": "Coley Creek Campsite", "openfire": "yes", "tents": "yes", "tourism": "camp_site", "osm_id": 6355592894}}, {"type": "Feature", "geometry": {"type": "Point", "coordinates": [-79.3663359, 34.4475]}, "properties": {"name": "Bass Lake Campground", "tourism": "camp_site", "osm_id": 6418599704}}, {"type": "Feature", "geometry": {"type": "Point", "coordinates": [-79.1422919, 34.6254987]}, "properties": {"backcountry": "yes", "caravans": "no", "group_only": "no", "name": "John Culberth Campsite", "tents": "yes", "tourism": "camp_site", "wheelchair": "no", "osm_id": 6527687376}}, {"type": "Feature", "geometry": {"type": "Point", "coordinates": [-78.9524236, 34.4845291]}, "properties": {"backcountry": "yes", "caravans": "no", "group_only": "no", "name": "Buck Landing Campsite", "tents": "yes", "tourism": "camp_site", "wheelchair": "no", "osm_id": 6527687377}}, {"type": "Feature", "geometry": {"type": "Point", "coordinates": [-78.9510933, 34.469371]}, "properties": {"backcountry": "yes", "caravans": "no", "group_only": "no", "name": "Piney Island Campsite", "tents": "yes", "tourism": "camp_site", "wheelchair": "no", "osm_id": 6527687382}}, {"type": "Feature", "geometry": {"type": "Point", "coordinates": [-78.9660889, 34.4360469]}, "properties": {"backcountry": "yes", "caravans": "no", "group_only": "no", "name": "Pea Ridge Campsite", "tents": "yes", "tourism": "camp_site", "wheelchair": "no", "osm_id": 6527687383}}, {"type": "Feature", "geometry": {"type": "Point", "coordinates": [-83.3843109, 34.7392087]}, "properties": {"name": "Backcountry Campsite #2", "tourism": "camp_site", "website": "https://gastateparks.org/TallulahGorge", "osm_id": 6534010789}}, {"type": "Feature", "geometry": {"type": "Point", "coordinates": [-83.3846087, 34.7388505]}, "properties": {"name": "Backcountry Campsite #3", "tourism": "camp_site", "website": "https://gastateparks.org/TallulahGorge", "osm_id": 6534010792}}, {"type": "Feature", "geometry": {"type": "Point", "coordinates": [-81.9902699, 33.9902405]}, "properties": {"tourism": "camp_site", "osm_id": 6534452050}}, {"type": "Feature", "geometry": {"type": "Point", "coordinates": [-83.3964071, 34.7423909]}, "properties": {"ref": "Camp Host", "tourism": "camp_site", "osm_id": 6534495278}}, {"type": "Feature", "geometry": {"type": "Point", "coordinates": [-81.9915118, 33.9614867]}, "properties": {"access": "permit", "capacity": "50", "fee": "no", "internet_access": "no", "name": "Faulkner Mountain Campground", "operator": "Sumter National Forest-Long Cane", "power_supply": "no", "sanitary_dump_station": "no", "tourism": "camp_site", "osm_id": 6534511080}}, {"type": "Feature", "geometry": {"type": "Point", "coordinates": [-80.8590025, 34.3540471]}, "properties": {"name": "Camp Longridge", "tourism": "camp_site", "osm_id": 6558308896}}, {"type": "Feature", "geometry": {"type": "Point", "coordinates": [-82.9191694, 35.0456635]}, "properties": {"backcountry": "yes", "drinking_water": "no", "fee": "no", "fixme": "position approximated", "openfire": "yes", "operator": "South Carolina Division of Parks & Recreation", "tents": "yes", "tourism": "camp_site", "osm_id": 6784383817}}, {"type": "Feature", "geometry": {"type": "Point", "coordinates": [-82.9214982, 35.0450239]}, "properties": {"backcountry": "yes", "drinking_water": "no", "fee": "no", "fixme": "position approximated", "openfire": "yes", "operator": "South Carolina Division of Parks & Recreation", "tents": "yes", "tourism": "camp_site", "osm_id": 6784383818}}, {"type": "Feature", "geometry": {"type": "Point", "coordinates": [-82.927554, 35.0640774]}, "properties": {"backcountry": "yes", "drinking_water": "untreated", "fee": "no", "fixme": "position approximated", "name": "Buck Fields", "openfire": "yes", "operator": "North Carolina Wildlife Resources Commission", "tents": "yes", "tourism": "camp_site", "osm_id": 6784385478}}, {"type": "Feature", "geometry": {"type": "Point", "coordinates": [-82.9202852, 35.0593286]}, "properties": {"backcountry": "yes", "drinking_water": "untreated", "fee": "no", "name": "Bear Gap Campsite", "openfire": "yes", "operator": "North Carolina Wildlife Resources Commission", "tents": "yes", "tourism": "camp_site", "osm_id": 6784385517}}, {"type": "Feature", "geometry": {"type": "Point", "coordinates": [-82.916567, 35.0858486]}, "properties": {"backcountry": "yes", "drinking_water": "no", "fee": "no", "fixme": "position approximated", "name": "Indian Camp Campsite", "openfire": "yes", "operator": "North Carolina Division of Parks & Recreation", "tents": "yes", "tourism": "camp_site", "osm_id": 6804571686}}, {"type": "Feature", "geometry": {"type": "Point", "coordinates": [-82.9159346, 35.0909185]}, "properties": {"backcountry": "yes", "drinking_water": "untreated", "fee": "no", "fixme": "position approximated", "name": "Wintergreen Campsite", "openfire": "yes", "operator": "North Carolina Division of Parks & Recreation", "tents": "yes", "tourism": "camp_site", "osm_id": 6804571954}}, {"type": "Feature", "geometry": {"type": "Point", "coordinates": [-82.8927295, 35.0975781]}, "properties": {"backcountry": "yes", "drinking_water": "no", "fee": "no", "fixme": "position approximated", "name": "Heath Pine Ridge Campsite", "openfire": "yes", "operator": "North Carolina Division of Parks & Recreation", "tents": "yes", "tourism": "camp_site", "osm_id": 6804573626}}, {"type": "Feature", "geometry": {"type": "Point", "coordinates": [-82.886087, 35.0708445]}, "properties": {"backcountry": "yes", "drinking_water": "untreated", "fee": "no", "fixme": "position approximated", "name": "Toxaway Creek Campsites", "openfire": "yes", "operator": "North Carolina Division of Parks & Recreation", "tents": "yes", "tourism": "camp_site", "osm_id": 6804577590}}, {"type": "Feature", "geometry": {"type": "Point", "coordinates": [-82.8895471, 35.0594362]}, "properties": {"backcountry": "yes", "drinking_water": "untreated", "fee": "no", "fixme": "position approximated", "name": "Rock Creek Campsite", "openfire": "yes", "operator": "North Carolina Division of Parks & Recreation", "tents": "yes", "tourism": "camp_site", "osm_id": 6804577591}}, {"type": "Feature", "geometry": {"type": "Point", "coordinates": [-81.5277046, 34.8770324]}, "properties": {"addr:housenumber": "527", "addr:street": "Skull Shoals Road", "leaf_cycle": "mixed", "leaf_type": "mixed", "name": "Double Triangle Ranch", "note": "Campground and Christian Retreat", "operator": "Putting God First Ministries, Inc.", "phone": "+18648120924", "tourism": "camp_site", "osm_id": 6848806254}}, {"type": "Feature", "geometry": {"type": "Point", "coordinates": [-82.8930396, 35.0314782]}, "properties": {"name": "Laurel Fork Campsite", "tourism": "camp_site", "osm_id": 6993018065}}, {"type": "Feature", "geometry": {"type": "Point", "coordinates": [-82.769377, 35.0515554]}, "properties": {"name": "Cantrell Campsite", "tourism": "camp_site", "osm_id": 6993018066}}, {"type": "Feature", "geometry": {"type": "Point", "coordinates": [-82.8513398, 35.0415623]}, "properties": {"name": "Virginia Hawkins Campsite", "tourism": "camp_site", "osm_id": 6993018067}}, {"type": "Feature", "geometry": {"type": "Point", "coordinates": [-81.9157616, 33.9983186]}, "properties": {"access": "permit", "addr:city": "Saluda", "addr:housenumber": "1", "addr:state": "SC", "addr:street": "Boggy Campground Fire Trail", "backcountry": "yes", "fee": "no", "name": "Boggy Campground", "operator": "US Forest Service (Dispersed Site)", "tourism": "camp_site", "osm_id": 7333662198}}, {"type": "Feature", "geometry": {"type": "Point", "coordinates": [-81.9151591, 33.994203]}, "properties": {"backcountry": "yes", "fee": "no", "tourism": "camp_site", "osm_id": 7333662207}}, {"type": "Feature", "geometry": {"type": "Point", "coordinates": [-81.9150196, 33.9936693]}, "properties": {"access": "permit", "backcountry": "yes", "fee": "no", "tourism": "camp_site", "osm_id": 7333662208}}, {"type": "Feature", "geometry": {"type": "Point", "coordinates": [-80.5230557, 33.7380564]}, "properties": {"tourism": "camp_site", "osm_id": 7501966180}}, {"type": "Feature", "geometry": {"type": "Point", "coordinates": [-80.5402963, 33.8085777]}, "properties": {"name": "Poinsett State Park Campground", "tourism": "camp_site", "osm_id": 7501966181}}, {"type": "Feature", "geometry": {"type": "Point", "coordinates": [-80.5231287, 33.7377209]}, "properties": {"tourism": "camp_site", "osm_id": 7501997712}}, {"type": "Feature", "geometry": {"type": "Point", "coordinates": [-81.4372941, 34.019953]}, "properties": {"name": "Adams Towne White Oak RV & Boat Park", "tourism": "caravan_site", "osm_id": 7820660020}}, {"type": "Feature", "geometry": {"type": "Point", "coordinates": [-80.4375732, 34.9468669]}, "properties": {"name": "Williams Farm", "tourism": "camp_site", "osm_id": 8070172385}}, {"type": "Feature", "geometry": {"type": "Point", "coordinates": [-83.1207756, 34.9421524]}, "properties": {"backcountry": "yes", "name": "Sandy Beach Campsite", "tourism": "camp_site", "osm_id": 8421919308}}, {"type": "Feature", "geometry": {"type": "Point", "coordinates": [-83.1187579, 34.9431666]}, "properties": {"backcountry": "yes", "description": "Established, but completely unimproved campsite, recently marked as \"Simms Field\".", "name": "Simms Field", "tourism": "camp_site", "osm_id": 8421919309}}, {"type": "Feature", "geometry": {"type": "Point", "coordinates": [-81.0486744, 35.1078449]}, "properties": {"tourism": "camp_site", "osm_id": 8497773662}}, {"type": "Feature", "geometry": {"type": "Point", "coordinates": [-81.046374, 35.1051293]}, "properties": {"tourism": "camp_site", "osm_id": 8497807096}}, {"type": "Feature", "geometry": {"type": "Point", "coordinates": [-79.1992105, 34.4893893]}, "properties": {"addr:city": "Fairmont", "addr:housenumber": "145", "addr:postcode": "28340", "addr:state": "NC", "addr:street": "Grace Drive", "email": "cbmcampgrace@gmail.com", "name": "Camp Grace", "tourism": "camp_site", "website": "https://www.cbmcampgrace.com", "osm_id": 8515715858}}, {"type": "Feature", "geometry": {"type": "Point", "coordinates": [-83.1306648, 34.9299791]}, "properties": {"name": "Licklog Falls Campsite", "tourism": "camp_site", "osm_id": 8613643607}}, {"type": "Feature", "geometry": {"type": "Point", "coordinates": [-82.9054156, 35.0586913]}, "properties": {"tourism": "camp_site", "osm_id": 8633762451}}, {"type": "Feature", "geometry": {"type": "Point", "coordinates": [-82.9072129, 35.062501]}, "properties": {"tourism": "camp_site", "osm_id": 8633762452}}, {"type": "Feature", "geometry": {"type": "Point", "coordinates": [-83.3124694, 34.8702041]}, "properties": {"backcountry": "yes", "tourism": "camp_site", "osm_id": 8739458595}}, {"type": "Feature", "geometry": {"type": "Point", "coordinates": [-83.2892737, 34.8747589]}, "properties": {"backcountry": "yes", "tourism": "camp_site", "osm_id": 8739458596}}, {"type": "Feature", "geometry": {"type": "Point", "coordinates": [-83.2784307, 34.8701127]}, "properties": {"backcountry": "yes", "tourism": "camp_site", "osm_id": 8739458597}}, {"type": "Feature", "geometry": {"type": "Point", "coordinates": [-83.2742733, 34.8693015]}, "properties": {"backcountry": "yes", "tourism": "camp_site", "osm_id": 8739458598}}, {"type": "Feature", "geometry": {"type": "Point", "coordinates": [-83.2472389, 34.8688774]}, "properties": {"backcountry": "yes", "tourism": "camp_site", "osm_id": 8739458599}}, {"type": "Feature", "geometry": {"type": "Point", "coordinates": [-83.2420247, 34.8740846]}, "properties": {"backcountry": "yes", "tourism": "camp_site", "osm_id": 8739458600}}, {"type": "Feature", "geometry": {"type": "Point", "coordinates": [-83.2288558, 34.8854579]}, "properties": {"backcountry": "yes", "tourism": "camp_site", "osm_id": 8739458602}}, {"type": "Feature", "geometry": {"type": "Point", "coordinates": [-83.1999787, 34.9002251]}, "properties": {"backcountry": "yes", "tourism": "camp_site", "osm_id": 8739458603}}, {"type": "Feature", "geometry": {"type": "Point", "coordinates": [-82.9488523, 34.9845892]}, "properties": {"fee": "yes", "name": "Devils Fork State Park Boat-In Campsite", "tourism": "camp_site", "osm_id": 8813200884}}, {"type": "Feature", "geometry": {"type": "Point", "coordinates": [-82.7113023, 34.5619518]}, "properties": {"group_only": "yes", "name": "Anderson Area Day Camp", "tourism": "camp_site", "osm_id": 9012986493}}, {"type": "Feature", "geometry": {"type": "Point", "coordinates": [-78.9632885, 33.6278154]}, "properties": {"name": "Ocean Lakes RV Center", "tourism": "caravan_site", "osm_id": 9014971018}}, {"type": "Feature", "geometry": {"type": "Point", "coordinates": [-83.0593563, 34.9918727]}, "properties": {"backcountry": "yes", "name": "Fish Hatchery Camp", "tourism": "camp_site", "osm_id": 9057954025}}, {"type": "Feature", "geometry": {"type": "Point", "coordinates": [-83.1451682, 35.0222811]}, "properties": {"name": "Ammons Branch Campground", "tourism": "camp_site", "osm_id": 9057954209}}, {"type": "Feature", "geometry": {"type": "Point", "coordinates": [-82.4155088, 35.1008832]}, "properties": {"group_only": "yes", "name": "Look Up Lodge", "tourism": "camp_site", "osm_id": 9199347497}}, {"type": "Feature", "geometry": {"type": "Point", "coordinates": [-82.5388467, 33.9555875]}, "properties": {"addr:city": "Mt. Carmel", "addr:housenumber": "2926", "addr:postcode": "29840", "addr:state": "SC", "addr:street": "Fort Charlotte Road", "capacity:caravans": "44", "name": "Hester's Bottoms Family Campground", "tourism": "camp_site", "osm_id": 9673442906}}, {"type": "Feature", "geometry": {"type": "Point", "coordinates": [-80.5851078, 32.3638473]}, "properties": {"addr:housenumber": "22", "addr:postcode": "29920", "addr:state": "SC", "addr:street": "Tuc in de Woods Lane", "email": "tuckinthewood@islc.net", "internet_access": "wlan", "name": "Tuck In The Wood Campground", "opening_hours": "24/7", "phone": "+1-843-838-2267", "tourism": "camp_site", "website": "https://www.tuckinthewood.com/", "osm_id": 9706261117}}, {"type": "Feature", "geometry": {"type": "Point", "coordinates": [-80.3265282, 33.1809617]}, "properties": {"name": "Tanager Woods RV Campground", "source": "Bing Streetside 2015", "tourism": "camp_site", "osm_id": 9728658690}}, {"type": "Feature", "geometry": {"type": "Point", "coordinates": [-81.3076422, 33.334229]}, "properties": {"name": "Barnwell State Park Campground", "tourism": "camp_site", "osm_id": 9740330921}}, {"type": "Feature", "geometry": {"type": "Point", "coordinates": [-82.8417376, 34.342201]}, "properties": {"name": "Watsadler Campground", "tourism": "camp_site", "osm_id": 9938090399}}, {"type": "Feature", "geometry": {"type": "Point", "coordinates": [-81.9799602, 34.2680215]}, "properties": {"tourism": "camp_site", "osm_id": 9938124768}}, {"type": "Feature", "geometry": {"type": "Point", "coordinates": [-82.8166977, 34.3810362]}, "properties": {"name": "Crescent Group Campground", "tourism": "camp_site", "osm_id": 9938161832}}, {"type": "Feature", "geometry": {"type": "Point", "coordinates": [-82.8163713, 34.3944619]}, "properties": {"name": "Big Water Campground", "tourism": "camp_site", "osm_id": 9938161937}}, {"type": "Feature", "geometry": {"type": "Point", "coordinates": [-81.9925215, 34.3125611]}, "properties": {"name": "Liberty Springs RV Park", "phone": "+1-864-808-2887", "tourism": "caravan_site", "website": "https://libertyspringsrvpark.com/", "osm_id": 9938180444}}, {"type": "Feature", "geometry": {"type": "Point", "coordinates": [-82.0833712, 34.3300812]}, "properties": {"name": "Four Seasons Resort", "tourism": "camp_site", "osm_id": 9938201148}}, {"type": "Feature", "geometry": {"type": "Point", "coordinates": [-82.6076846, 34.2679053]}, "properties": {"name": "Camp Arrowhead", "operator": "Boy Scouts of America", "scout": "yes", "tourism": "camp_site", "osm_id": 9938229422}}, {"type": "Feature", "geometry": {"type": "Point", "coordinates": [-82.3746625, 34.9250301]}, "properties": {"name": "Paris Mountain State Park Campground", "tourism": "camp_site", "osm_id": 9938231125}}, {"type": "Feature", "geometry": {"type": "Point", "coordinates": [-81.7072765, 34.4481676]}, "properties": {"tourism": "camp_site", "osm_id": 9938231356}}, {"type": "Feature", "geometry": {"type": "Point", "coordinates": [-81.9713591, 34.2414127]}, "properties": {"name": "Lighthouse RV Park", "tourism": "camp_site", "osm_id": 9938237767}}, {"type": "Feature", "geometry": {"type": "Point", "coordinates": [-79.9634875, 32.8302185]}, "properties": {"tourism": "caravan_site", "osm_id": 9966705126}}, {"type": "Feature", "geometry": {"type": "Point", "coordinates": [-80.1433351, 33.3421661]}, "properties": {"tourism": "camp_site", "osm_id": 9968771325}}, {"type": "Feature", "geometry": {"type": "Point", "coordinates": [-79.9882532, 33.2574803]}, "properties": {"tourism": "camp_site", "osm_id": 9968837033}}, {"type": "Feature", "geometry": {"type": "Point", "coordinates": [-80.1461073, 33.3299486]}, "properties": {"name": "S & S Camp Ground", "tourism": "camp_site", "osm_id": 9968850917}}, {"type": "Feature", "geometry": {"type": "Point", "coordinates": [-78.6189571, 34.636932]}, "properties": {"cabins": "yes", "caravans": "yes", "fee": "yes", "name": "Greene's Pond Cabins & RV Park", "tourism": "camp_site", "website": "https://greenespond.com/index.html", "osm_id": 10058795266}}, {"type": "Feature", "geometry": {"type": "Point", "coordinates": [-80.1509335, 32.7791772]}, "properties": {"name": "Bon Aire RV Park & Campground", "tourism": "caravan_site", "osm_id": 10159696420}}, {"type": "Feature", "geometry": {"type": "Point", "coordinates": [-83.2006094, 33.2868585]}, "properties": {"tourism": "camp_site", "osm_id": 10220156403}}, {"type": "Feature", "geometry": {"type": "Point", "coordinates": [-83.198633, 33.288409]}, "properties": {"tourism": "camp_site", "osm_id": 10220156516}}, {"type": "Feature", "geometry": {"type": "Point", "coordinates": [-80.6168357, 33.0596302]}, "properties": {"tourism": "caravan_site", "osm_id": 10247947508}}, {"type": "Feature", "geometry": {"type": "Point", "coordinates": [-83.3580083, 34.7304945]}, "properties": {"name": "Backcountry Campsite #1", "tourism": "camp_site", "website": "https://gastateparks.org/TallulahGorge", "osm_id": 10762263297}}, {"type": "Feature", "geometry": {"type": "Point", "coordinates": [-81.3183865, 34.2437314]}, "properties": {"tourism": "camp_site", "osm_id": 10838066395}}, {"type": "Feature", "geometry": {"type": "Point", "coordinates": [-81.3956487, 34.2679324]}, "properties": {"backcountry": "yes", "caravans": "no", "static_caravans": "no", "tents": "yes", "tourism": "camp_site", "osm_id": 11060304306}}, {"type": "Feature", "geometry": {"type": "Point", "coordinates": [-81.3419554, 34.2518565]}, "properties": {"caravans": "yes", "name": "River Road Family Campground", "tents": "yes", "tourism": "camp_site", "website": "https://www.riverroadfamilycampgroundllc.com/", "osm_id": 11060304307}}, {"type": "Feature", "geometry": {"type": "Point", "coordinates": [-83.2287016, 35.0279865]}, "properties": {"access": "yes", "backcountry": "yes", "fee": "no", "operator": "US Forest Service", "tents": "no", "tourism": "camp_site", "osm_id": 11080754648}}, {"type": "Feature", "geometry": {"type": "Point", "coordinates": [-81.8002175, 32.7680444]}, "properties": {"addr:city": "Rocky Ford", "addr:housenumber": "460", "addr:postcode": "30455", "addr:state": "GA", "addr:street": "Sandy Road", "name": "Ponderosa RV Park Inc.", "opening_hours": "24/7", "payment:cash": "yes", "payment:cheque": "yes", "phone": "+1-912-536-3781", "tourism": "caravan_site", "website": "https://ponderosarvparkga.com", "osm_id": 11262406185}}, {"type": "Feature", "geometry": {"type": "Point", "coordinates": [-81.7353301, 34.8731785]}, "properties": {"name": "Bubba's RV Park", "tourism": "caravan_site", "osm_id": 11275778627}}, {"type": "Feature", "geometry": {"type": "Point", "coordinates": [-83.0458759, 35.1317521]}, "properties": {"leisure": "summer_camp", "name": "Camp Merrie-Woode", "tourism": "camp_site", "osm_id": 11284352039}}, {"type": "Feature", "geometry": {"type": "Point", "coordinates": [-82.5796694, 33.9693372]}, "properties": {"tourism": "camp_site", "osm_id": 11329442849}}, {"type": "Feature", "geometry": {"type": "Point", "coordinates": [-82.2546276, 33.3661584]}, "properties": {"tourism": "caravan_site", "osm_id": 11339377062}}, {"type": "Feature", "geometry": {"type": "Point", "coordinates": [-83.3974486, 33.2069082]}, "properties": {"name": "Lake Sinclair", "tourism": "camp_site", "osm_id": 11349352370}}, {"type": "Feature", "geometry": {"type": "Point", "coordinates": [-80.168384, 32.6279445]}, "properties": {"name": "Camp Ho Non Wah", "operator": "Boy Scouts of America", "tourism": "camp_site", "osm_id": 11751908515}}, {"type": "Feature", "geometry": {"type": "Point", "coordinates": [-82.3958713, 34.9497469]}, "properties": {"backcountry": "yes", "name": "Monadnock", "tourism": "camp_site", "osm_id": 11788489041}}, {"type": "Feature", "geometry": {"type": "Point", "coordinates": [-82.3946059, 34.9520366]}, "properties": {"backcountry": "yes", "name": "Bullfrog", "tourism": "camp_site", "osm_id": 11788489042}}, {"type": "Feature", "geometry": {"type": "Point", "coordinates": [-82.3975147, 34.9496526]}, "properties": {"backcountry": "yes", "name": "Ground Cedar", "tourism": "camp_site", "osm_id": 11788489048}}, {"type": "Feature", "geometry": {"type": "Point", "coordinates": [-82.3917443, 34.9520138]}, "properties": {"backcountry": "yes", "name": "Pond Hawk", "tourism": "camp_site", "osm_id": 11788489049}}, {"type": "Feature", "geometry": {"type": "Point", "coordinates": [-82.3920136, 34.9506014]}, "properties": {"backcountry": "yes", "name": "Rhododendron", "tourism": "camp_site", "osm_id": 11788489050}}, {"type": "Feature", "geometry": {"type": "Point", "coordinates": [-83.0321226, 35.0288411]}, "properties": {"backcountry": "yes", "camp_site": "basic", "description": "This campsite is signposted by name on the Foothills Trail and listed in the offical guidbook.", "drinking_water": "untreated", "fee": "no", "name": "Round Mountain Campsite", "openfire": "yes", "tents": "yes", "tourism": "camp_site", "osm_id": 11806031950}}, {"type": "Feature", "geometry": {"type": "Point", "coordinates": [-82.9928631, 35.0257969]}, "properties": {"backcountry": "yes", "camp_site": "basic", "drinking_water": "untreated", "fee": "no", "name": "Whitewater Campsite", "openfire": "yes", "tents": "yes", "tourism": "camp_site", "osm_id": 11806046066}}, {"type": "Feature", "geometry": {"type": "Point", "coordinates": [-82.9638442, 35.053654]}, "properties": {"backcountry": "yes", "camp_site": "basic", "description": "This campsite is an offical maintained campsite of the Foothills trail and has bear hang cables.", "drinking_water": "untreated", "fee": "no", "name": "Glenn Hilliard Campsite", "openfire": "yes", "tents": "yes", "tourism": "camp_site", "osm_id": 11806078150}}, {"type": "Feature", "geometry": {"type": "Point", "coordinates": [-82.9824722, 35.0381597]}, "properties": {"backcountry": "yes", "camp_site": "basic", "description": "This campsite is not an offical maintained campsite of the Foothills trail, but is obviously used, allowed, and mensioned in the offical guidebook.", "drinking_water": "untreated", "fee": "no", "openfire": "yes", "tents": "yes", "tourism": "camp_site", "osm_id": 11806078151}}, {"type": "Feature", "geometry": {"type": "Point", "coordinates": [-83.2464788, 34.8697617]}, "properties": {"backcountry": "yes", "tourism": "camp_site", "osm_id": 11920863235}}, {"type": "Feature", "geometry": {"type": "Point", "coordinates": [-82.4197926, 34.8067101]}, "properties": {"addr:city": "Greenville", "addr:housenumber": "220", "addr:postcode": "29605", "addr:state": "SC", "addr:street": "Old Grove Road", "drinking_water": "no", "fee": "no", "internet_access": "no", "name": "Welcome Creek Mobile Home", "phone": "+1-864-360-4738", "power_supply": "no", "sanitary_dump_station": "yes", "toilets": "no", "tourism": "caravan_site", "wheelchair": "limited", "osm_id": 12069250369}}, {"type": "Feature", "geometry": {"type": "Point", "coordinates": [-83.2318103, 34.8877362]}, "properties": {"backcountry": "yes", "tourism": "camp_site", "osm_id": 12209368894}}, {"type": "Feature", "geometry": {"type": "Point", "coordinates": [-83.2948355, 34.825858]}, "properties": {"backcountry": "yes", "tourism": "camp_site", "osm_id": 12209368921}}, {"type": "Feature", "geometry": {"type": "Point", "coordinates": [-81.1075916, 34.3623511]}, "properties": {"tourism": "caravan_site", "osm_id": 12301573950}}, {"type": "Feature", "geometry": {"type": "Point", "coordinates": [-83.0151028, 34.5389555]}, "properties": {"access": "private", "group_only": "yes", "tourism": "camp_site", "osm_id": 12329752262}}, {"type": "Feature", "geometry": {"type": "Point", "coordinates": [-79.8743547, 34.157775]}, "properties": {"name": "Swamp Fox Campground", "tourism": "camp_site", "osm_id": 12337678885}}, {"type": "Feature", "geometry": {"type": "Point", "coordinates": [-81.5657615, 33.7328518]}, "properties": {"tourism": "caravan_site", "osm_id": 12348883321}}, {"type": "Feature", "geometry": {"type": "Point", "coordinates": [-81.6256184, 32.7393634]}, "properties": {"addr:city": "Sylvania", "addr:housenumber": "101", "addr:postcode": "30467", "addr:state": "GA", "addr:street": "Stockyard Road", "name": "Savannah River RV Parks", "tourism": "caravan_site", "osm_id": 12629907566}}, {"type": "Feature", "geometry": {"type": "Point", "coordinates": [-80.1089619, 32.8076142]}, "properties": {"tourism": "caravan_site", "osm_id": 12950555384}}, {"type": "Feature", "geometry": {"type": "Point", "coordinates": [-83.3856223, 34.9381107]}, "properties": {"tourism": "caravan_site", "osm_id": 13061807249}}, {"type": "Feature", "geometry": {"type": "Point", "coordinates": [-82.8624271, 33.3601131]}, "properties": {"access": "private", "addr:city": "Sparta", "addr:housenumber": "3600", "addr:postcode": "31087", "addr:state": "GA", "addr:street": "Covey Rise Farm Road", "fee": "yes", "name": "Freedom Village", "tourism": "camp_site", "website": "https://www.freedomnation.me/", "osm_id": 13061889613}}, {"type": "Feature", "geometry": {"type": "Point", "coordinates": [-82.9189525, 35.0605907]}, "properties": {"tourism": "camp_site", "osm_id": 13112975901}}, {"type": "Feature", "geometry": {"type": "Point", "coordinates": [-82.8820359, 35.0327162]}, "properties": {"name": "Laurel forks camp site", "tourism": "camp_site", "osm_id": 13112975902}}, {"type": "Feature", "geometry": {"type": "Point", "coordinates": [-82.9652723, 35.0539658]}, "properties": {"tourism": "camp_site", "osm_id": 13112976001}}, {"type": "Feature", "geometry": {"type": "Point", "coordinates": [-82.8404442, 35.0507903]}, "properties": {"tourism": "camp_site", "osm_id": 13112976101}}, {"type": "Feature", "geometry": {"type": "Point", "coordinates": [-82.8829005, 35.0323076]}, "properties": {"tourism": "camp_site", "osm_id": 13113067001}}, {"type": "Feature", "geometry": {"type": "Point", "coordinates": [-80.8273051, 34.0079411]}, "properties": {"tourism": "caravan_site", "osm_id": 13174343857}}, {"type": "Feature", "geometry": {"type": "Point", "coordinates": [-83.0770317, 34.9218473]}, "properties": {"backcountry": "yes", "tourism": "camp_site", "osm_id": 13308618222}}, {"type": "Feature", "geometry": {"type": "Point", "coordinates": [-83.3527067, 34.593255]}, "properties": {"tourism": "caravan_site", "osm_id": 13503012429}}, {"type": "Feature", "geometry": {"type": "Point", "coordinates": [-80.8749103, 32.6253039]}, "properties": {"addr:housenumber": "1292", "addr:postcode": "29945", "addr:street": "Campground Road", "caravans": "yes", "drinking_water": "yes", "internet_access": "wlan", "name": "Thousand Trails Oaks at Point South", "phone": "(843) 726-5728", "power_supply": "yes", "sanitary_dump_station": "yes", "shower": "yes", "tents": "yes", "toilets": "yes", "tourism": "camp_site", "website": "https://thousandtrails.com/south-carolina/the-oaks-at-point-south-rv", "osm_id": 13564013502}}, {"type": "Feature", "geometry": {"type": "Point", "coordinates": [-81.3555214, 32.9097575]}, "properties": {"name": "Smyrna Farm Campground", "tourism": "camp_site", "osm_id": 122519566}}, {"type": "Feature", "geometry": {"type": "Point", "coordinates": [-79.9118031, 34.2949219]}, "properties": {"name": "Pearson Blvd RV Parking", "tourism": "caravan_site", "osm_id": 161135343}}, {"type": "Feature", "geometry": {"type": "Point", "coordinates": [-79.9095293, 34.2898561]}, "properties": {"name": "Petty Blvd RV Parking", "tourism": "caravan_site", "osm_id": 161135344}}, {"type": "Feature", "geometry": {"type": "Point", "coordinates": [-79.9021793, 34.2939656]}, "properties": {"tourism": "caravan_site", "osm_id": 161217502}}, {"type": "Feature", "geometry": {"type": "Point", "coordinates": [-79.9086939, 34.2963133]}, "properties": {"tourism": "camp_site", "osm_id": 161217505}}, {"type": "Feature", "geometry": {"type": "Point", "coordinates": [-79.9088529, 34.2954742]}, "properties": {"tourism": "camp_site", "osm_id": 161217509}}, {"type": "Feature", "geometry": {"type": "Point", "coordinates": [-79.9059936, 34.299702]}, "properties": {"name": "Park Place RV Parking", "tourism": "caravan_site", "osm_id": 161270453}}, {"type": "Feature", "geometry": {"type": "Point", "coordinates": [-79.9058098, 34.2953548]}, "properties": {"name": "Gecko RV Park", "tourism": "caravan_site", "osm_id": 161270454}}, {"type": "Feature", "geometry": {"type": "Point", "coordinates": [-79.9899003, 32.7387891]}, "properties": {"backcountry": "yes", "fee": "yes", "internet_access": "no", "source": "bing", "tourism": "camp_site", "website": "https://www.ccprc.com/index.aspx?NID=1434", "osm_id": 226023955}}, {"type": "Feature", "geometry": {"type": "Point", "coordinates": [-79.9914184, 32.7370124]}, "properties": {"fee": "yes", "internet_access": "wlan", "internet_access:fee": "no", "internet_access:ssid": "Campground_Guest", "name": "Camping at James Island County Park", "sanitary_dump_station": "customers", "source": "bing", "tents": "yes", "tourism": "camp_site", "website": "https://www.ccprc.com/index.aspx?NID=1434", "osm_id": 226023956}}, {"type": "Feature", "geometry": {"type": "Point", "coordinates": [-81.3489235, 35.1498589]}, "properties": {"internet_access": "no", "name": "Kings Mountain State Park Camping Area", "operator": "Kings Mountain State Park", "tourism": "camp_site", "osm_id": 304527100}}, {"type": "Feature", "geometry": {"type": "Point", "coordinates": [-79.3050158, 34.497109]}, "properties": {"addr:city": "Hamer", "addr:country": "US", "addr:housenumber": "3346", "addr:postcode": "29547", "addr:state": "SC", "addr:street": "US 301", "caravans": "yes", "fee": "yes", "internet_access": "wlan", "internet_access:fee": "no", "name": "Pedro's Campground", "nudism": "no", "operator": "South of the Border", "phone": "+1 843 774 2411", "power_supply": "yes", "reservation": "recommended", "tourism": "caravan_site", "website": "https://www.sobpedro.com/accommodations/camp-pedro-rv-park-campground-i95-sc", "osm_id": 308736487}}, {"type": "Feature", "geometry": {"type": "Point", "coordinates": [-80.4983868, 33.5504478]}, "properties": {"name": "Cypress View Campground", "tourism": "camp_site", "osm_id": 320196594}}, {"type": "Feature", "geometry": {"type": "Point", "coordinates": [-82.1247653, 32.5500497]}, "properties": {"power_supply": "yes", "sanitary_dump_station": "yes", "tents": "yes", "tourism": "camp_site", "wheelchair": "yes", "osm_id": 337822459}}, {"type": "Feature", "geometry": {"type": "Point", "coordinates": [-83.3367473, 33.9653662]}, "properties": {"contact:website": "https://bulldogpark.net/", "landuse": "residential", "name": "Bulldog Park", "tourism": "caravan_site", "osm_id": 359610611}}, {"type": "Feature", "geometry": {"type": "Point", "coordinates": [-78.50838, 34.6366894]}, "properties": {"addr:city": "White Lake", "addr:housenumber": "1247", "addr:postcode": "28337", "addr:state": "NC", "addr:street": "NC 53", "cabins": "yes", "caravans": "yes", "fee": "yes", "name": "NC FFA Center White Lake", "tents": "yes", "tourism": "camp_site", "website": "https://ncffa.org/ncffa-more/nc-ffa-center/", "osm_id": 388947984}}, {"type": "Feature", "geometry": {"type": "Point", "coordinates": [-82.5585243, 35.0477289]}, "properties": {"addr:housenumber": "162", "addr:street": "Sakanaga Trace", "alt_name:1": "Camp Marietta", "alt_name:2": "Marietta Baptist Camp", "group_only": "yes", "name": "Sakanaga", "tourism": "camp_site", "website": "https://www.sakanaga.com", "osm_id": 409062773}}, {"type": "Feature", "geometry": {"type": "Point", "coordinates": [-80.8822651, 32.6246024]}, "properties": {"name": "Point South / Yemassee Kampgrounds of America", "short_name": "Point South / Yemassee KOA", "tourism": "camp_site", "osm_id": 423639439}}, {"type": "Feature", "geometry": {"type": "Point", "coordinates": [-78.8488774, 34.1503855]}, "properties": {"addr:city": "Tabor City", "addr:housenumber": "626", "addr:postcode": "28463", "addr:state": "NC", "addr:street": "Richard Wright Road", "brand": "Yogi Bear's Jellystone Park", "brand:wikidata": "Q8054389", "name": "Yogi Bear's Jellystone Park at Daddy Joe's", "official_name": "Yogi Bear's Jellystone Park Camp-Resorts", "phone": "+1 910 653 2155", "tourism": "caravan_site", "website": "https://taborcityjellystone.com/", "osm_id": 427847106}}, {"type": "Feature", "geometry": {"type": "Point", "coordinates": [-79.1001138, 34.6060018]}, "properties": {"addr:city": "Lumberton", "addr:housenumber": "465", "addr:postcode": "28360", "addr:street": "Kenric Drive", "brand": "KOA", "brand:wikidata": "Q16988635", "name": "Lumberton / I-95 KOA Journey", "phone": "+1 910 739 4372", "short_name": "KOA", "tourism": "caravan_site", "website": "https://koa.com/campgrounds/lumberton/", "osm_id": 428004792}}, {"type": "Feature", "geometry": {"type": "Point", "coordinates": [-78.9593723, 33.6251026]}, "properties": {"name": "Ocean Lakes Campground", "tourism": "camp_site", "osm_id": 447687437}}, {"type": "Feature", "geometry": {"type": "Point", "coordinates": [-78.9509659, 33.6337111]}, "properties": {"name": "Lakewood Family Campground", "tourism": "camp_site", "osm_id": 447687438}}, {"type": "Feature", "geometry": {"type": "Point", "coordinates": [-78.944739, 33.6385203]}, "properties": {"addr:city": "Myrtle Beach", "addr:housenumber": "5401", "addr:postcode": "29575", "addr:state": "SC", "addr:street": "South Kings Highway", "name": "Pirateland Family Campground", "tourism": "camp_site", "website": "https://www.pirateland.com/", "osm_id": 447687439}}, {"type": "Feature", "geometry": {"type": "Point", "coordinates": [-78.8994202, 33.6846308]}, "properties": {"brand": "KOA", "brand:wikidata": "Q16988635", "name": "Myrtle Beach K.O.A.", "short_name": "KOA", "tourism": "caravan_site", "osm_id": 447687442}}, {"type": "Feature", "geometry": {"type": "Point", "coordinates": [-78.7696244, 33.7755017]}, "properties": {"name": "Myrtle Beach Travel Park", "tourism": "caravan_site", "osm_id": 449565721}}, {"type": "Feature", "geometry": {"type": "Point", "coordinates": [-79.0009898, 33.6872612]}, "properties": {"name": "Cypress Camping Resort", "tourism": "camp_site", "osm_id": 450593761}}, {"type": "Feature", "geometry": {"type": "Point", "coordinates": [-82.6439475, 35.0630262]}, "properties": {"addr:housenumber": "506", "addr:street": "Table Rock Road", "name": "Palmetto Cove RV Park", "tourism": "caravan_site", "website": "https://palmettocove.com/", "osm_id": 456086193}}, {"type": "Feature", "geometry": {"type": "Point", "coordinates": [-79.5633821, 33.0376167]}, "properties": {"name": "Buckhall Campground", "operator": "USFS", "tourism": "camp_site", "osm_id": 463345418}}, {"type": "Feature", "geometry": {"type": "Point", "coordinates": [-79.4714881, 33.1984269]}, "properties": {"name": "Elmwood Campground", "operator": "USFS", "tourism": "camp_site", "osm_id": 463356658}}, {"type": "Feature", "geometry": {"type": "Point", "coordinates": [-80.4822827, 33.2051414]}, "properties": {"addr:housenumber": "940", "addr:street": "St Paul Road", "alt_name:1": "Saint Paul Camp Ground", "alt_name:2": "Saint Paul African Methodist Episcopal Zion Camp Ground", "heritage": "yes", "name": "Saint Paul Campground", "operator": "Saint Paul African Methodist Episcopal Zion Church", "tourism": "camp_site", "wikidata": "Q16900627", "wikipedia": "en:St. Paul Camp Ground", "osm_id": 475866366}}, {"type": "Feature", "geometry": {"type": "Point", "coordinates": [-80.7510422, 33.3221889]}, "properties": {"alt_name:1": "Cattle Creek Methodist Campground", "denomination": "methodist", "name": "Cattle Creek Campground", "religion": "christian", "start_date": "1899", "tourism": "camp_site", "osm_id": 479879138}}, {"type": "Feature", "geometry": {"type": "Point", "coordinates": [-80.2734642, 33.1036359]}, "properties": {"name": "Cypress Methodist Campground", "tourism": "camp_site", "osm_id": 512590710}}, {"type": "Feature", "geometry": {"type": "Point", "coordinates": [-83.2471043, 35.0778602]}, "properties": {"caravans": "yes", "ele": "1007", "gnis:feature_id": "1016364", "internet_access": "no", "name": "Van Hook Glade Campground", "operator": "United States Forest Service", "sanitary_dump_station": "no", "tents": "yes", "tourism": "camp_site", "wheelchair": "limited", "osm_id": 543909825}}, {"type": "Feature", "geometry": {"type": "Point", "coordinates": [-80.9682172, 35.0641256]}, "properties": {"addr:city": "Fort Mill", "addr:housenumber": "940", "addr:postcode": "29708", "addr:state": "SC", "addr:street": "Gold Hill Road", "caravans": "yes", "drinking_water": "yes", "internet_access": "wlan", "motor_vehicle": "yes", "name": "Charlotte / Fort Mill KOA", "swimming_pool": "yes", "tents": "yes", "tourism": "camp_site", "website": "https://koa.com/campgrounds/charlotte/", "osm_id": 544260755}}, {"type": "Feature", "geometry": {"type": "Point", "coordinates": [-80.9039344, 35.0589836]}, "properties": {"name": "Crown Cove RV Park", "tourism": "caravan_site", "osm_id": 545133129}}, {"type": "Feature", "geometry": {"type": "Point", "coordinates": [-80.9512069, 34.4901332]}, "properties": {"denomination": "methodist", "name": "Camp Welfare", "religion": "christian", "tourism": "camp_site", "wikidata": "Q16851175", "osm_id": 550010357}}, {"type": "Feature", "geometry": {"type": "Point", "coordinates": [-78.7075642, 35.1581793]}, "properties": {"addr:city": "Wade", "addr:housenumber": "6250", "addr:postcode": "28935", "addr:street": "Wade-Stedman Road", "internet_access": "wlan", "internet_access:fee": "yes", "name": "Fayetteville RV Resort and Cottages", "phone": "+1-910-484-5500", "power_supply": "yes", "tents": "no", "tourism": "caravan_site", "website": "https://fayettevillervresort.com/", "osm_id": 551182163}}, {"type": "Feature", "geometry": {"type": "Point", "coordinates": [-81.2041824, 33.8588754]}, "properties": {"name": "Edmund RV Park", "tourism": "caravan_site", "osm_id": 552831160}}, {"type": "Feature", "geometry": {"type": "Point", "coordinates": [-82.2784503, 33.6465214]}, "properties": {"name": "Wildwood Camping Area 1", "tourism": "camp_site", "osm_id": 562554824}}, {"type": "Feature", "geometry": {"type": "Point", "coordinates": [-82.2808117, 33.6501687]}, "properties": {"name": "Camping Municipal", "operator": "Wildwood", "tourism": "camp_site", "osm_id": 562918522}}, {"type": "Feature", "geometry": {"type": "Point", "coordinates": [-82.2807129, 33.6534713]}, "properties": {"tourism": "camp_site", "osm_id": 562918523}}, {"type": "Feature", "geometry": {"type": "Point", "coordinates": [-82.2821086, 33.652369]}, "properties": {"tourism": "camp_site", "osm_id": 562918524}}, {"type": "Feature", "geometry": {"type": "Point", "coordinates": [-82.286401, 33.6501225]}, "properties": {"name": "Camping Municipal", "tourism": "camp_site", "osm_id": 562918787}}, {"type": "Feature", "geometry": {"type": "Point", "coordinates": [-81.3583115, 33.9754983]}, "properties": {"name": "Mr. Z's RV Park", "tourism": "caravan_site", "osm_id": 563249493}}, {"type": "Feature", "geometry": {"type": "Point", "coordinates": [-81.1583459, 33.9771846]}, "properties": {"name": "Barnyard RV Park", "tourism": "caravan_site", "osm_id": 564462394}}, {"type": "Feature", "geometry": {"type": "Point", "coordinates": [-80.4336091, 32.3878037]}, "properties": {"access": "yes", "caravans": "yes", "fee": "yes", "internet_access": "wlan", "internet_access:fee": "no", "name": "Hunting Island State Park Campground", "operator": "Hunting Island State Park", "tents": "yes", "tourism": "camp_site", "osm_id": 572484672}}, {"type": "Feature", "geometry": {"type": "Point", "coordinates": [-82.0877172, 33.560852]}, "properties": {"name": "Camp Blackstone", "tourism": "camp_site", "osm_id": 586992280}}, {"type": "Feature", "geometry": {"type": "Point", "coordinates": [-78.7850809, 33.7663711]}, "properties": {"name": "Apache Campground", "tourism": "camp_site", "osm_id": 605077048}}, {"type": "Feature", "geometry": {"type": "Point", "coordinates": [-83.2897951, 33.1868028]}, "properties": {"name": "Little River Park", "tourism": "caravan_site", "osm_id": 631447981}}, {"type": "Feature", "geometry": {"type": "Point", "coordinates": [-83.131244, 34.880788]}, "properties": {"addr:housenumber": "291", "addr:street": "Camp Chatuga Road", "fee": "yes", "name": "Camp Chatuga", "tourism": "camp_site", "osm_id": 685247884}}, {"type": "Feature", "geometry": {"type": "Point", "coordinates": [-83.3971596, 34.7418368]}, "properties": {"access": "customers", "fee": "yes", "internet_access": "no", "name": "Terrora Campground", "operator": "Georgia State Parks", "tourism": "camp_site", "website": "https://gastateparks.reserveamerica.com/camping/tallulah-gorge-state-park/r/campgroundDetails.do?contractCode=GA&parkId=530196", "wheelchair": "limited", "osm_id": 690077780}}, {"type": "Feature", "geometry": {"type": "Point", "coordinates": [-80.8270644, 33.8357065]}, "properties": {"addr:city": "Hopkins", "addr:postcode": "29061", "addr:state": "SC", "caravans": "no", "fee": "yes", "leisure": "park", "name": "Longleaf Campground", "operator": "National Park Service", "operator:short": "NPS", "operator:type": "public", "operator:wikidata": "Q308439", "operator:wikipedia": "en:National Park Service", "power_supply": "no", "tents": "yes", "tourism": "camp_site", "osm_id": 693959554}}, {"type": "Feature", "geometry": {"type": "Point", "coordinates": [-81.0399253, 32.3228386]}, "properties": {"tourism": "caravan_site", "osm_id": 694939640}}, {"type": "Feature", "geometry": {"type": "Point", "coordinates": [-79.0019727, 34.3873421]}, "properties": {"backcountry": "no", "caravans": "no", "email": "lumber.river@ncparks.gov", "fee": "yes", "group_only": "no", "internet_access": "no", "name": "Princess Ann Campground", "operator": "North Carolina Division of Parks and Recreation", "operator:short": "NCDPR", "operator:type": "public", "operator:wikidata": "Q109328529", "phone": "+1 910 628 4564", "sanitary_dump_station": "no", "tents": "yes", "tourism": "camp_site", "website": "https://www.ncparks.gov/lumber-river-state-park/camping", "wheelchair": "limited", "osm_id": 695513935}}, {"type": "Feature", "geometry": {"type": "Point", "coordinates": [-79.3533535, 34.9168791]}, "properties": {"backcountry": "no", "caravans": "yes", "group_only": "no", "internet_access": "no", "name": "Chalk Banks Campground", "sanitary_dump_station": "no", "tents": "yes", "tourism": "camp_site", "wheelchair": "limited", "osm_id": 695880295}}, {"type": "Feature", "geometry": {"type": "Point", "coordinates": [-82.3207365, 34.9171435]}, "properties": {"addr:city": "Taylors", "addr:housenumber": "3553", "addr:postcode": "29687", "addr:state": "SC", "addr:street": "Rutherford Road", "contact:email": "taylorsrainbowrv@yahoo.com", "contact:phone": "+1 864 244 1271", "contact:website": "http://www.rainbowrvpark.com", "internet_access": "no", "name": "Rainbow R.V. Park", "power_supply": "yes", "tourism": "caravan_site", "osm_id": 711987538}}, {"type": "Feature", "geometry": {"type": "Point", "coordinates": [-78.6017064, 34.6795159]}, "properties": {"backcountry": "no", "caravans": "no", "group_only": "yes", "name": "Jones Lake Group Campground", "tents": "yes", "tourism": "camp_site", "wheelchair": "limited", "osm_id": 729939395}}, {"type": "Feature", "geometry": {"type": "Point", "coordinates": [-78.5994252, 34.6801818]}, "properties": {"backcountry": "no", "caravans": "yes", "group_only": "no", "name": "Jones Lake Family Campground", "operator": "North Carolina Division of Parks & Recreation", "tents": "yes", "tourism": "camp_site", "wheelchair": "limited", "osm_id": 729939396}}, {"type": "Feature", "geometry": {"type": "Point", "coordinates": [-81.826284, 33.0969955]}, "properties": {"tourism": "caravan_site", "osm_id": 736909316}}, {"type": "Feature", "geometry": {"type": "Point", "coordinates": [-81.8212564, 33.0935814]}, "properties": {"tourism": "caravan_site", "osm_id": 736910125}}, {"type": "Feature", "geometry": {"type": "Point", "coordinates": [-80.5147099, 33.1797949]}, "properties": {"tourism": "caravan_site", "osm_id": 755371365}}, {"type": "Feature", "geometry": {"type": "Point", "coordinates": [-82.1666035, 34.9185783]}, "properties": {"addr:city": "Greer", "addr:housenumber": "894", "addr:postcode": "29651", "addr:state": "SC", "addr:street": "Robinson Road", "capacity:caravans": "37", "fee": "yes", "internet_access": "wlan", "internet_access:fee": "yes", "laundry": "no", "name": "GSP RV Park", "phone": "+1 864 655 4399", "power_supply": "yes", "toilets": "no", "tourism": "caravan_site", "website": "https://gsp-rvpark.com/", "osm_id": 755742128}}, {"type": "Feature", "geometry": {"type": "Point", "coordinates": [-78.8432173, 33.8429015]}, "properties": {"addr:city": "Conway", "addr:housenumber": "5800", "addr:postcode": "29526", "addr:state": "SC", "addr:street": "SC 90", "backcountry": "no", "cabins": "yes", "camp_site": "deluxe", "caravans": "yes", "fee": "yes", "name": "Sun Outdoors Myrtle Beach", "operator": "Sun RV Resorts", "tourism": "camp_site", "osm_id": 757085511}}, {"type": "Feature", "geometry": {"type": "Point", "coordinates": [-81.6872027, 33.5982901]}, "properties": {"addr:city": "Aiken", "addr:housenumber": "205", "addr:postcode": "29801", "addr:state": "SC", "addr:street": "Duke Drive", "name": "Pine Acres Campground", "tourism": "caravan_site", "osm_id": 759301968}}, {"type": "Feature", "geometry": {"type": "Point", "coordinates": [-82.4403193, 35.0400727]}, "properties": {"addr:city": "Travelers Rest", "addr:state": "SC", "addr:street": "Stamey Valley Road", "email": "manager@sugarlakervpark.com", "name": "Sugar Lake RV Park", "old_name": "Little Lake RV Park", "opening_hours": "24/7", "phone": "+1-864-834-0776", "power_supply": "yes", "tourism": "caravan_site", "website": "https://www.sugarlakervpark.com/", "osm_id": 760930611}}, {"type": "Feature", "geometry": {"type": "Point", "coordinates": [-82.0421575, 34.9859621]}, "properties": {"addr:housenumber": "600", "caravans": "yes", "name": "Cunningham RV Park", "phone": "+1-864-576-1973", "power_supply": "yes", "sanitary_dump_station": "yes", "shower": "yes", "swimming_pool": "yes", "tents": "yes", "tourism": "camp_site", "waste_disposal": "yes", "website": "http://www.cunninghamrvpark.com/", "osm_id": 767696729}}, {"type": "Feature", "geometry": {"type": "Point", "coordinates": [-78.6673361, 34.811149]}, "properties": {"access": "yes", "backcountry": "yes", "name": "Suggs Mill Pond Game Land Campground", "nudism": "no", "operator": "North Carolina Wildlife Resources Commission", "tents": "yes", "tourism": "camp_site", "osm_id": 776105223}}, {"type": "Feature", "geometry": {"type": "Point", "coordinates": [-80.7591876, 32.1609551]}, "properties": {"addr:city": "Hilton Head Island", "addr:housenumber": "133", "addr:postcode": "29928", "addr:state": "SC", "addr:street": "Arrow Road", "capacity": "401", "internet_access": "wlan", "internet_access:fee": "customers", "landuse": "residential", "name": "Hilton Head Motorcoach Resort", "power_supply": "yes", "sanitary_dump_station": "no", "toilets": "yes", "tourism": "caravan_site", "osm_id": 812556561}}, {"type": "Feature", "geometry": {"type": "Point", "coordinates": [-82.163742, 34.9361126]}, "properties": {"addr:city": "Greer", "addr:housenumber": "1836", "addr:postcode": "29651", "addr:state": "SC", "addr:street": "East Poinsett Street", "addr:unit": "A", "name": "290 RV PARK", "phone": "+1-864-303-1575", "tourism": "caravan_site", "website": "https://www.290rvpark.com/", "osm_id": 845402978}}, {"type": "Feature", "geometry": {"type": "Point", "coordinates": [-81.6826222, 33.400812]}, "properties": {"name": "Pine View Mobile Home Park", "phone": "+1-803-295-7932", "tourism": "caravan_site", "osm_id": 881841526}}, {"type": "Feature", "geometry": {"type": "Point", "coordinates": [-80.9491016, 35.1043547]}, "properties": {"addr:city": "Charlotte", "addr:housenumber": "14609", "addr:postcode": "28273", "addr:state": "NC", "addr:street": "Best Day Boulevard", "fee": "yes", "name": "Carowinds Camp Wilderness", "operator": "Cedar Fair Entertainment Company", "tourism": "caravan_site", "website": "https://www.carowinds.com/stay/camp-wilderness", "osm_id": 896027650}}, {"type": "Feature", "geometry": {"type": "Point", "coordinates": [-82.1143582, 33.4716812]}, "properties": {"tourism": "caravan_site", "osm_id": 956199727}}, {"type": "Feature", "geometry": {"type": "Point", "coordinates": [-81.8329349, 33.1381047]}, "properties": {"tourism": "camp_site", "osm_id": 964587429}}, {"type": "Feature", "geometry": {"type": "Point", "coordinates": [-81.7868867, 33.1437911]}, "properties": {"tourism": "camp_site", "osm_id": 964608879}}, {"type": "Feature", "geometry": {"type": "Point", "coordinates": [-78.955528, 33.6378704]}, "properties": {"tourism": "caravan_site", "osm_id": 974860262}}, {"type": "Feature", "geometry": {"type": "Point", "coordinates": [-82.6351738, 35.1358283]}, "properties": {"addr:city": "Cedar Mountain", "addr:housenumber": "280", "addr:postcode": "28718", "addr:state": "NC", "addr:street": "Summer Road", "name": "Black Forest Family Camping Resort", "note": "approximate shape", "phone": "+1-828-884-2267", "tourism": "camp_site", "osm_id": 995043181}}, {"type": "Feature", "geometry": {"type": "Point", "coordinates": [-81.0251977, 35.0979611]}, "properties": {"name": "McDowell Campground", "tourism": "camp_site", "osm_id": 995905850}}, {"type": "Feature", "geometry": {"type": "Point", "coordinates": [-82.2983775, 34.9902103]}, "properties": {"name": "Rock's RV Park", "tourism": "caravan_site", "osm_id": 996222397}}, {"type": "Feature", "geometry": {"type": "Point", "coordinates": [-82.3498426, 35.1985034]}, "properties": {"caravans": "yes", "name": "Orchard Lake Campground", "tents": "yes", "tourism": "camp_site", "osm_id": 998885183}}, {"type": "Feature", "geometry": {"type": "Point", "coordinates": [-82.3270723, 35.0089375]}, "properties": {"name": "Turkey Trail RV Park", "tourism": "caravan_site", "osm_id": 1001215614}}, {"type": "Feature", "geometry": {"type": "Point", "coordinates": [-82.3189513, 34.9437929]}, "properties": {"name": "Flowermill RV Park", "tourism": "caravan_site", "osm_id": 1001219201}}, {"type": "Feature", "geometry": {"type": "Point", "coordinates": [-82.1980528, 34.9469121]}, "properties": {"name": "Creekside RV Park", "tourism": "caravan_site", "osm_id": 1016024020}}, {"type": "Feature", "geometry": {"type": "Point", "coordinates": [-82.423598, 35.0626247]}, "properties": {"brand": "KOA", "brand:wikidata": "Q16988635", "name": "KOA Holiday", "short_name": "KOA", "tourism": "caravan_site", "osm_id": 1017012402}}, {"type": "Feature", "geometry": {"type": "Point", "coordinates": [-79.7538493, 33.8680299]}, "properties": {"addr:city": "Lake City", "addr:housenumber": "243", "addr:postcode": "29560", "addr:state": "SC", "addr:street": "S Church St", "name": "Crossroads Coach Resort at The ROB", "power_supply": "yes", "tourism": "caravan_site", "website": "https://www.lakecityrv.com/", "osm_id": 1018609637}}, {"type": "Feature", "geometry": {"type": "Point", "coordinates": [-83.0257623, 34.7542136]}, "properties": {"addr:city": "West Union", "addr:housenumber": "150", "addr:postcode": "29696", "addr:state": "SC", "addr:street": "Jefferson Road", "name": "Keowee Falls RV Park", "tourism": "caravan_site", "osm_id": 1050909818}}, {"type": "Feature", "geometry": {"type": "Point", "coordinates": [-81.9185262, 33.6239667]}, "properties": {"addr:city": "North Augusta", "addr:country": "US", "addr:housenumber": "2", "addr:postcode": "29860", "addr:state": "SC", "addr:street": "Powell Place", "name": "Twin Magnolia RV Park", "opening_hours": "24/7", "payment:american_express": "yes", "payment:cash": "yes", "payment:cheque": "yes", "payment:discover_card": "yes", "payment:mastercard": "yes", "payment:visa": "yes", "phone": "+1 803 646 9592", "power_supply": "yes", "sanitary_dump_station": "yes", "tourism": "caravan_site", "website": "https://twinmagnoliarvpark.biz", "osm_id": 1057824580}}, {"type": "Feature", "geometry": {"type": "Point", "coordinates": [-83.259108, 33.2559745]}, "properties": {"capacity:caravans": "10", "internet_access": "wlan", "power_supply": "yes", "sanitary_dump_station": "yes", "tourism": "caravan_site", "website": "https://crookedcreekmarina.com/campgrounds", "osm_id": 1076203910}}, {"type": "Feature", "geometry": {"type": "Point", "coordinates": [-83.2596213, 33.2559756]}, "properties": {"access": "customers", "capacity:caravans": "8", "fee": "yes", "operator": "Crooked Creek Marina", "tourism": "camp_site", "osm_id": 1076203911}}, {"type": "Feature", "geometry": {"type": "Point", "coordinates": [-83.2597893, 33.2554129]}, "properties": {"access": "customers", "capacity:caravans": "6", "fee": "yes", "operator": "Crooked Creek Marina", "tourism": "camp_site", "osm_id": 1076203912}}, {"type": "Feature", "geometry": {"type": "Point", "coordinates": [-81.7548525, 34.4428147]}, "properties": {"tourism": "caravan_site", "osm_id": 1076469701}}, {"type": "Feature", "geometry": {"type": "Point", "coordinates": [-78.6681945, 33.8463529]}, "properties": {"name": "North Myrtle Beach RV Resort", "tourism": "caravan_site", "osm_id": 1078914697}}, {"type": "Feature", "geometry": {"type": "Point", "coordinates": [-81.212891, 34.2166225]}, "properties": {"tourism": "camp_site", "osm_id": 1079342631}}, {"type": "Feature", "geometry": {"type": "Point", "coordinates": [-79.7766229, 32.8654414]}, "properties": {"alt_name": "KOA Campground", "brand": "KOA", "brand:wikidata": "Q16988635", "name": "KOA Kampground", "short_name": "KOA", "tourism": "caravan_site", "osm_id": 1080369989}}, {"type": "Feature", "geometry": {"type": "Point", "coordinates": [-81.9432385, 34.8478452]}, "properties": {"addr:housenumber": "199", "addr:street": "Pineridge Campground Road", "cabins": "yes", "caravans": "yes", "fee": "yes", "name": "Pine Ridge Campground", "opening_hours": "Mo-Sa 10:00-18:00; Su 10:00-16:00", "phone": "+1-864-576-0302", "tourism": "camp_site", "website": "https://www.pineridgecampground.com/", "osm_id": 1084515503}}, {"type": "Feature", "geometry": {"type": "Point", "coordinates": [-82.0765875, 34.7735206]}, "properties": {"caravans": "yes", "name": "Fireside RV Park", "tourism": "camp_site", "website": "https://firesidervpark.com/", "osm_id": 1084516485}}, {"type": "Feature", "geometry": {"type": "Point", "coordinates": [-81.7375152, 34.6310841]}, "properties": {"tourism": "camp_site", "osm_id": 1084516562}}, {"type": "Feature", "geometry": {"type": "Point", "coordinates": [-81.754074, 34.4336807]}, "properties": {"brand": "KOA", "brand:wikidata": "Q16988635", "name": "Newberry KOA Journey", "short_name": "KOA", "tourism": "caravan_site", "osm_id": 1084522853}}, {"type": "Feature", "geometry": {"type": "Point", "coordinates": [-82.0122921, 34.2587818]}, "properties": {"fee": "yes", "name": "Lake Greenwood Motorcoach Resort", "tourism": "camp_site", "website": "https://lakegreenwoodmotorcoachresort.com/", "osm_id": 1084523538}}, {"type": "Feature", "geometry": {"type": "Point", "coordinates": [-80.7790088, 34.5965011]}, "properties": {"cabins": "only", "denomination": "united_methodist", "group_only": "yes", "landuse": "religious", "leisure": "summer_camp", "name": "Mount Carmel Church Camp", "religion": "christian", "tents": "no", "tourism": "camp_site", "osm_id": 1087399823}}, {"type": "Feature", "geometry": {"type": "Point", "coordinates": [-80.0933955, 33.3826829]}, "properties": {"name": "Angel's Landing Campground", "tourism": "camp_site", "osm_id": 1087800778}}, {"type": "Feature", "geometry": {"type": "Point", "coordinates": [-80.1174099, 33.3493273]}, "properties": {"name": "Blacks Camp", "tourism": "camp_site", "website": "https://www.blackscamp.com/", "osm_id": 1087800965}}, {"type": "Feature", "geometry": {"type": "Point", "coordinates": [-80.1399766, 33.3824635]}, "properties": {"name": "Hill's Landing & RV Park", "tourism": "caravan_site", "osm_id": 1087801125}}, {"type": "Feature", "geometry": {"type": "Point", "coordinates": [-81.7826015, 35.1295019]}, "properties": {"name": "Cowpens Battlefield RV Park", "tourism": "caravan_site", "website": "https://www.cowpensrvpark.com/", "osm_id": 1089346811}}, {"type": "Feature", "geometry": {"type": "Point", "coordinates": [-81.7402065, 35.0707094]}, "properties": {"cabins": "yes", "caravans": "yes", "fee": "yes", "name": "Camp Sparrow RV Resort", "tents": "yes", "tourism": "camp_site", "website": "https://campsparrowrvresort.com/", "osm_id": 1089764532}}, {"type": "Feature", "geometry": {"type": "Point", "coordinates": [-81.7293089, 35.1246184]}, "properties": {"name": "Water Wheel RV Park", "tourism": "caravan_site", "osm_id": 1089767361}}, {"type": "Feature", "geometry": {"type": "Point", "coordinates": [-82.786152, 34.6215059]}, "properties": {"name": "Clemson RV Park", "tourism": "caravan_site", "osm_id": 1089786496}}, {"type": "Feature", "geometry": {"type": "Point", "coordinates": [-83.1190145, 34.968343]}, "properties": {"backcountry": "yes", "description": "More than a dozen primative campsite with vault toilet and bear boxes, about 1/3 mile from parking.", "name": "Burrells Ford Campground", "tourism": "camp_site", "website": "https://www.fs.usda.gov/recarea/scnfs/recarea/?recid=47065", "osm_id": 1089973991}}, {"type": "Feature", "geometry": {"type": "Point", "coordinates": [-82.3512149, 35.1989863]}, "properties": {"addr:city": "Saluda", "addr:housenumber": "460", "addr:postcode": "28773", "addr:state": "NC", "addr:street": "Orchard Lake Road", "name": "Orchard Lake Campground", "phone": "+1-828-749-3901", "tourism": "camp_site", "osm_id": 1091983246}}, {"type": "Feature", "geometry": {"type": "Point", "coordinates": [-79.0695484, 33.4996145]}, "properties": {"internet_access": "yes", "internet_access:fee": "no", "name": "Huntington Beach State Park South Campground", "phone": "+1 843 237 4440", "power_supply": "yes", "reservation": "required", "tourism": "caravan_site", "website": "https://southcarolinaparks.com/huntington-beach", "osm_id": 1098678816}}, {"type": "Feature", "geometry": {"type": "Point", "coordinates": [-81.5469544, 32.681941]}, "properties": {"leisure": "summer_camp", "name": "Black Creek Scout Reservation", "note": "approximate area", "scout": "yes", "tourism": "camp_site", "website": "https://coastalgeorgiabsa.org/camp/camp-maps/", "osm_id": 1098969751}}, {"type": "Feature", "geometry": {"type": "Point", "coordinates": [-82.1719669, 34.6635574]}, "properties": {"addr:city": "Fountain Inn", "addr:housenumber": "701", "addr:state": "SC", "addr:street": "South Frontage Road", "email": "shibbyrv@gmail.com", "name": "Shibby RV Living", "phone": "+1-864-733-9956", "tourism": "caravan_site", "website": "https://www.shibbyrv.com/", "osm_id": 1102737363}}, {"type": "Feature", "geometry": {"type": "Point", "coordinates": [-78.7277486, 33.8045076]}, "properties": {"name": "Barefoot RV Resort", "tourism": "camp_site", "osm_id": 1103538230}}, {"type": "Feature", "geometry": {"type": "Point", "coordinates": [-80.0909449, 32.9857127]}, "properties": {"brand": "KOA", "brand:wikidata": "Q16988635", "name": "KOA", "short_name": "KOA", "tourism": "caravan_site", "osm_id": 1106185995}}, {"type": "Feature", "geometry": {"type": "Point", "coordinates": [-79.1653309, 33.7908265]}, "properties": {"name": "Big Cypress Lake RV Park", "tourism": "caravan_site", "osm_id": 1107005698}}, {"type": "Feature", "geometry": {"type": "Point", "coordinates": [-82.3001285, 34.9939853]}, "properties": {"addr:city": "Taylors", "addr:housenumber": "612", "addr:state": "SC", "addr:street": "Groce Meadow Road", "name": "Lake Robinson RV Park", "phone": "+1-864-895-2500", "tourism": "caravan_site", "osm_id": 1107539690}}, {"type": "Feature", "geometry": {"type": "Point", "coordinates": [-82.3019441, 34.9945909]}, "properties": {"addr:city": "Taylors", "addr:housenumber": "638", "addr:state": "SC", "addr:street": "Groce Meadow Road", "name": "Lake Robinson RV Park", "phone": "+1-864-895-2500", "tourism": "caravan_site", "osm_id": 1107540137}}, {"type": "Feature", "geometry": {"type": "Point", "coordinates": [-80.7709519, 32.2223723]}, "properties": {"name": "Hilton Head Harbor RV Resort", "tourism": "camp_site", "osm_id": 1108632846}}, {"type": "Feature", "geometry": {"type": "Point", "coordinates": [-79.3202727, 33.3540288]}, "properties": {"addr:city": "Georgetown", "addr:housenumber": "894", "addr:postcode": "29440", "addr:state": "SC", "addr:street": "Trout Street", "cabins": "yes", "caravans": "yes", "email": "contact@hiddenmarinacampground.com", "fee": "yes", "fishing": "yes", "name": "Hidden Marina & Campground", "phone": "+1-843-545-8633", "tourism": "camp_site", "website": "https://hiddenmarinacampground.com/", "osm_id": 1125948855}}, {"type": "Feature", "geometry": {"type": "Point", "coordinates": [-82.3978104, 33.5041025]}, "properties": {"tourism": "camp_site", "osm_id": 1131280242}}, {"type": "Feature", "geometry": {"type": "Point", "coordinates": [-83.1069196, 34.861911]}, "properties": {"fee": "yes", "tourism": "camp_site", "osm_id": 1138400236}}, {"type": "Feature", "geometry": {"type": "Point", "coordinates": [-80.8512774, 32.0229268]}, "properties": {"name": "River's End Campground and RV Park", "tourism": "camp_site", "website": "https://www.riversendcampground.com/", "osm_id": 1158567351}}, {"type": "Feature", "geometry": {"type": "Point", "coordinates": [-82.4835555, 35.0965143]}, "properties": {"addr:city": "Marietta", "addr:housenumber": "4232", "addr:postcode": "29661", "addr:street": "Highway 11", "fee": "yes", "leisure": "summer_camp", "name": "Camp Spearhead", "operator": "Greenville County Parks And Recreation", "tourism": "camp_site", "osm_id": 1162329697}}, {"type": "Feature", "geometry": {"type": "Point", "coordinates": [-81.0740462, 32.2567462]}, "properties": {"name": "Savannah Lakes RV Resort", "tourism": "caravan_site", "osm_id": 1172674874}}, {"type": "Feature", "geometry": {"type": "Point", "coordinates": [-81.5002267, 35.1201639]}, "properties": {"tourism": "camp_site", "osm_id": 1174687507}}, {"type": "Feature", "geometry": {"type": "Point", "coordinates": [-81.4982433, 35.1251611]}, "properties": {"tourism": "camp_site", "osm_id": 1174687508}}, {"type": "Feature", "geometry": {"type": "Point", "coordinates": [-80.8153286, 33.832066]}, "properties": {"capacity": "6", "name": "Bluff Campground", "nudism": "no", "operator": "National Park Service", "reservation": "required", "tents": "yes", "tourism": "camp_site", "wheelchair": "designated", "osm_id": 1178788556}}, {"type": "Feature", "geometry": {"type": "Point", "coordinates": [-81.0795897, 33.8900791]}, "properties": {"addr:city": "West Columbia", "addr:country": "US", "addr:housenumber": "336", "addr:postcode": "29172", "addr:state": "SC", "addr:street": "Gardners Terrace Road", "name": "Big Rig Friendly RV Resort", "phone": "+1-803-708-5122", "tourism": "caravan_site", "website": "https://bigrigfriendly.com/", "osm_id": 1182129419}}, {"type": "Feature", "geometry": {"type": "Point", "coordinates": [-83.3957999, 32.8804545]}, "properties": {"name": "hunting camp", "tourism": "camp_site", "osm_id": 1188810134}}, {"type": "Feature", "geometry": {"type": "Point", "coordinates": [-83.1608559, 34.3421437]}, "properties": {"addr:city": "Canon", "addr:housenumber": "142", "addr:postcode": "30520", "addr:state": "GA", "addr:street": "Casey Court", "name": "In The Woods", "tourism": "camp_site", "osm_id": 1203825202}}, {"type": "Feature", "geometry": {"type": "Point", "coordinates": [-83.3503653, 34.5350527]}, "properties": {"name": "Currahee RV and Campground", "tourism": "camp_site", "osm_id": 1218074483}}, {"type": "Feature", "geometry": {"type": "Point", "coordinates": [-83.3938204, 34.761594]}, "properties": {"name": "River Falls at the Gorge", "tourism": "camp_site", "osm_id": 1218586839}}, {"type": "Feature", "geometry": {"type": "Point", "coordinates": [-80.869761, 34.4345057]}, "properties": {"tourism": "camp_site", "osm_id": 1225450903}}, {"type": "Feature", "geometry": {"type": "Point", "coordinates": [-80.8632282, 34.4374891]}, "properties": {"tourism": "camp_site", "osm_id": 1225451574}}, {"type": "Feature", "geometry": {"type": "Point", "coordinates": [-78.5334723, 34.6479834]}, "properties": {"access": "yes", "addr:city": "Elizabethtown", "addr:postcode": "28337", "addr:state": "NC", "addr:street": "US-701", "caravans": "yes", "fee": "yes", "name": "Sandy Ridge Campground and RV Resort", "phone": "+19109913043", "tourism": "camp_site", "osm_id": 1226697462}}, {"type": "Feature", "geometry": {"type": "Point", "coordinates": [-81.9793888, 34.2526519]}, "properties": {"name": "Freedom Park Family Campground", "old_name": "Keilan Park", "tourism": "camp_site", "osm_id": 1235008039}}, {"type": "Feature", "geometry": {"type": "Point", "coordinates": [-78.8869906, 34.9749298]}, "properties": {"addr:city": "Fayetteville", "addr:housenumber": "821", "addr:postcode": "28306", "addr:state": "NC", "addr:street": "Lazy Acres Street", "name": "Spacious Skies Campgrounds - Sandy Run", "opening_hours": "Mo-Fr 09:00-18:00", "phone": "+1-910-425-9218", "tourism": "camp_site", "website": "https://campatsandyrun.com", "osm_id": 1238854616}}, {"type": "Feature", "geometry": {"type": "Point", "coordinates": [-83.0645062, 34.0395552]}, "properties": {"tourism": "camp_site", "osm_id": 1240241522}}, {"type": "Feature", "geometry": {"type": "Point", "coordinates": [-81.8410774, 34.8622499]}, "properties": {"tourism": "camp_site", "osm_id": 1293138106}}, {"type": "Feature", "geometry": {"type": "Point", "coordinates": [-78.7499661, 33.797418]}, "properties": {"addr:city": "Myrtle Beach", "addr:housenumber": "10495", "addr:postcode": "29572", "addr:state": "SC", "addr:street": "North Kings Highway", "name": "Briarcliffe RV Resort", "tourism": "caravan_site", "website": "https://briarcliffervresort.com/Home.aspx", "osm_id": 1308050775}}, {"type": "Feature", "geometry": {"type": "Point", "coordinates": [-81.0132587, 33.9758977]}, "properties": {"name": "Cruisers Roost RV Park", "tourism": "caravan_site", "osm_id": 1308849925}}, {"type": "Feature", "geometry": {"type": "Point", "coordinates": [-81.2996551, 32.0089237]}, "properties": {"name": "CreekFire RV Resort", "tourism": "caravan_site", "osm_id": 1312950531}}, {"type": "Feature", "geometry": {"type": "Point", "coordinates": [-80.2026408, 33.5254021]}, "properties": {"tourism": "caravan_site", "osm_id": 1322702572}}, {"type": "Feature", "geometry": {"type": "Point", "coordinates": [-80.2131227, 33.5422216]}, "properties": {"tourism": "camp_site", "osm_id": 1322704748}}, {"type": "Feature", "geometry": {"type": "Point", "coordinates": [-80.213106, 33.5485149]}, "properties": {"tourism": "camp_site", "osm_id": 1322705636}}, {"type": "Feature", "geometry": {"type": "Point", "coordinates": [-80.2644777, 33.5336535]}, "properties": {"tourism": "caravan_site", "osm_id": 1322708732}}, {"type": "Feature", "geometry": {"type": "Point", "coordinates": [-80.419315, 33.5383688]}, "properties": {"tourism": "caravan_site", "osm_id": 1322937737}}, {"type": "Feature", "geometry": {"type": "Point", "coordinates": [-83.1721348, 33.35485]}, "properties": {"name": "Lawrence Shoals Campground", "tourism": "camp_site", "osm_id": 1323676752}}, {"type": "Feature", "geometry": {"type": "Point", "coordinates": [-80.7785022, 34.4367957]}, "properties": {"tourism": "caravan_site", "osm_id": 1325473771}}, {"type": "Feature", "geometry": {"type": "Point", "coordinates": [-81.0520926, 32.9995654]}, "properties": {"tourism": "camp_site", "osm_id": 1331520455}}, {"type": "Feature", "geometry": {"type": "Point", "coordinates": [-83.233407, 33.0293731]}, "properties": {"tourism": "camp_site", "osm_id": 1335075592}}, {"type": "Feature", "geometry": {"type": "Point", "coordinates": [-82.5408199, 33.6508484]}, "properties": {"name": "Holliday Park Campground", "tourism": "camp_site", "osm_id": 1343982293}}, {"type": "Feature", "geometry": {"type": "Point", "coordinates": [-83.1324525, 32.1453342]}, "properties": {"name": "Dream RV Park", "tourism": "caravan_site", "osm_id": 1344068187}}, {"type": "Feature", "geometry": {"type": "Point", "coordinates": [-82.790015, 33.2077296]}, "properties": {"tourism": "camp_site", "osm_id": 1350368322}}, {"type": "Feature", "geometry": {"type": "Point", "coordinates": [-82.4444911, 35.0898193]}, "properties": {"tourism": "caravan_site", "osm_id": 1357561746}}, {"type": "Feature", "geometry": {"type": "Point", "coordinates": [-78.5057348, 33.9346688]}, "properties": {"name": "Brunswick Beaches Campground", "tourism": "caravan_site", "osm_id": 1378642055}}, {"type": "Feature", "geometry": {"type": "Point", "coordinates": [-78.502922, 33.9304864]}, "properties": {"name": "Wishing Well Campground", "tourism": "camp_site", "osm_id": 1378642130}}, {"type": "Feature", "geometry": {"type": "Point", "coordinates": [-78.5555653, 33.8894687]}, "properties": {"name": "Captain Andy's Campground", "tourism": "camp_site", "osm_id": 1378707852}}, {"type": "Feature", "geometry": {"type": "Point", "coordinates": [-82.8682007, 32.9771636]}, "properties": {"tourism": "caravan_site", "osm_id": 1379219686}}, {"type": "Feature", "geometry": {"type": "Point", "coordinates": [-82.3884583, 33.666812]}, "properties": {"name": "Primitive walk-in campsite", "tourism": "camp_site", "osm_id": 1381572372}}, {"type": "Feature", "geometry": {"type": "Point", "coordinates": [-82.1467617, 34.9139641]}, "properties": {"name": "Beckon Ridge RV Park", "tourism": "caravan_site", "osm_id": 1385069526}}, {"type": "Feature", "geometry": {"type": "Point", "coordinates": [-79.0228317, 33.7706446]}, "properties": {"tourism": "caravan_site", "osm_id": 1385803442}}, {"type": "Feature", "geometry": {"type": "Point", "coordinates": [-79.0513749, 34.6639573]}, "properties": {"addr:city": "Lumberton", "addr:housenumber": "4925", "addr:postcode": "28360", "addr:state": "NC", "addr:street": "Pine Log Road", "cabins": "no", "internet_access": "wlan", "name": "Double LL Farms RV Park", "phone": "+1-910-258-2621", "power_supply": "yes", "power_supply:maxcurrent": "30", "tourism": "caravan_site", "osm_id": 1386878614}}, {"type": "Feature", "geometry": {"type": "Point", "coordinates": [-79.464802, 34.3205038]}, "properties": {"addr:city": "Sellers", "addr:country": "US", "addr:housenumber": "356", "addr:postcode": "29592", "addr:state": "SC", "addr:street": "West Canal Road", "name": "Midpoint I95 RV Park", "phone": "+1 843 845 2321", "tourism": "caravan_site", "website": "https://midpointi95rvpark.com/", "osm_id": 1387882139}}, {"type": "Feature", "geometry": {"type": "Point", "coordinates": [-80.8051608, 34.8452537]}, "properties": {"tourism": "caravan_site", "osm_id": 1389238484}}, {"type": "Feature", "geometry": {"type": "Point", "coordinates": [-80.0279154, 32.9076619]}, "properties": {"name": "Fain's RV Park", "tourism": "caravan_site", "osm_id": 1430328030}}, {"type": "Feature", "geometry": {"type": "Point", "coordinates": [-82.9500022, 34.1888803]}, "properties": {"access": "private", "addr:city": "Dewey Rose", "addr:housenumber": "2311", "addr:postcode": "30634", "addr:state": "GA", "addr:street": "Pulliam Mill Road", "internet_access": "wlan", "name": "River's Edge Campground", "phone": "+1-706-213-8081", "tourism": "camp_site", "website": "https://www.camptheriversedge.com/", "osm_id": 1459689395}}, {"type": "Feature", "geometry": {"type": "Point", "coordinates": [-83.2747726, 34.1589495]}, "properties": {"name": "Camp Maranatha", "tourism": "camp_site", "osm_id": 1460309509}}, {"type": "Feature", "geometry": {"type": "Point", "coordinates": [-82.6535743, 35.0875137]}, "properties": {"name": "Asbury Hills Camp and Retreat Center", "tourism": "camp_site", "type": "multipolygon", "osm_id": 8558354}}, {"type": "Feature", "geometry": {"type": "Point", "coordinates": [-82.3830681, 35.1293983]}, "properties": {"access": "private", "caravans": "no", "description": "Campground owned by the Blue Ridge Council of the Boy Scouts of America (BSA)", "drinking_water": "yes", "fee": "yes", "group_only": "yes", "leisure": "summer_camp", "name": "Camp Old Indian", "openfire": "yes", "operator": "Boy Scouts of America", "phone": "+18648958995", "shower": "yes", "static_caravans": "no", "tents": "yes", "tourism": "camp_site", "type": "multipolygon", "website": "https://www.blueridgecouncil.org/camps/camp-old-indian/", "wheelchair": "limited", "osm_id": 8602884}}, {"type": "Feature", "geometry": {"type": "Point", "coordinates": [-82.7770555, 35.0264065]}, "properties": {"name": "Camp Thornwell", "tourism": "camp_site", "type": "multipolygon", "osm_id": 9453917}}, {"type": "Feature", "geometry": {"type": "Point", "coordinates": [-82.7827913, 35.0798135]}, "properties": {"fee": "yes", "name": "Carolina Point", "operator": "Young Life", "tourism": "camp_site", "type": "multipolygon", "osm_id": 9820995}}, {"type": "Feature", "geometry": {"type": "Point", "coordinates": [-82.8136746, 35.0600348]}, "properties": {"name": "Camp Hannon", "tourism": "camp_site", "type": "multipolygon", "osm_id": 10271244}}, {"type": "Feature", "geometry": {"type": "Point", "coordinates": [-83.2794238, 34.7776504]}, "properties": {"addr:city": "Long Creek", "addr:housenumber": "110", "addr:postcode": "29658", "addr:street": "Blalock Place", "fee": "yes", "name": "Chattooga River Lodge and Campground", "shower": "yes", "toilets": "yes", "tourism": "camp_site", "type": "multipolygon", "website": "https://chattoogalodge.com/", "osm_id": 12497273}}, {"type": "Feature", "geometry": {"type": "Point", "coordinates": [-80.3019503, 32.5111487]}, "properties": {"capacity:caravans": "50", "capacity:tents": "55", "name": "Edisto Beach State Park Live Oak Campground", "phone": "+1 843 869 2756", "tourism": "camp_site", "type": "multipolygon", "website": "https://southcarolinaparks.com/edisto-beach/camping", "osm_id": 13938499}}, {"type": "Feature", "geometry": {"type": "Point", "coordinates": [-80.2923108, 32.5073395]}, "properties": {"capacity:caravans": "67", "capacity:tents": "67", "name": "Edisto Beach State Park Beach Campground", "phone": "+1 843 869 2756", "tourism": "camp_site", "type": "multipolygon", "website": "https://southcarolinaparks.com/edisto-beach/camping", "osm_id": 13938500}}, {"type": "Feature", "geometry": {"type": "Point", "coordinates": [-82.8685234, 34.5999321]}, "properties": {"fee": "yes", "name": "Oconee Point Campground", "operator": "US Army Corp of Engineers", "tourism": "camp_site", "type": "multipolygon", "osm_id": 14692775}}, {"type": "Feature", "geometry": {"type": "Point", "coordinates": [-82.8709261, 35.0826188]}, "properties": {"fee": "yes", "group_only": "yes", "name": "The Wilds", "tourism": "camp_site", "type": "multipolygon", "osm_id": 14704942}}, {"type": "Feature", "geometry": {"type": "Point", "coordinates": [-81.0002395, 35.0130939]}, "properties": {"access": "customers", "addr:city": "Rock Hill", "addr:housenumber": "3111", "addr:postcode": "29732", "addr:state": "SC", "addr:street": "Sand Island Road", "fee": "yes", "group_only": "yes", "name": "Camp Canaan", "phone": "+1-803-327-6932", "tourism": "camp_site", "type": "multipolygon", "website": "https://campcanaan.org/", "osm_id": 14743582}}, {"type": "Feature", "geometry": {"type": "Point", "coordinates": [-82.9701096, 34.7642273]}, "properties": {"name": "Crooked Creek RV Park", "tourism": "caravan_site", "type": "multipolygon", "website": "http://www.crookedcreekrvpark.org/", "osm_id": 14783912}}, {"type": "Feature", "geometry": {"type": "Point", "coordinates": [-82.1587575, 34.9607959]}, "properties": {"tourism": "caravan_site", "type": "multipolygon", "osm_id": 14889305}}, {"type": "Feature", "geometry": {"type": "Point", "coordinates": [-82.3652819, 33.8797097]}, "properties": {"name": "Baker Creek State Park Campground", "tourism": "camp_site", "type": "multipolygon", "osm_id": 16660476}}, {"type": "Feature", "geometry": {"type": "Point", "coordinates": [-82.4244958, 33.8827534]}, "properties": {"caravans": "yes", "dog": "leashed", "name": "Hickory Knob Campground", "tourism": "camp_site", "type": "multipolygon", "osm_id": 16660510}}, {"type": "Feature", "geometry": {"type": "Point", "coordinates": [-80.2318274, 33.4029947]}, "properties": {"name": "Rocks Pond Campground", "tourism": "camp_site", "type": "multipolygon", "osm_id": 16711100}}, {"type": "Feature", "geometry": {"type": "Point", "coordinates": [-82.7966639, 35.0496246]}, "properties": {"name": "Rocky Bottom Retreat and Conference Center for the Blind", "tourism": "camp_site", "type": "multipolygon", "website": "https://nfbofsc.org/rbrccb/", "osm_id": 16871727}}, {"type": "Feature", "geometry": {"type": "Point", "coordinates": [-82.7998504, 35.0223982]}, "properties": {"access": "customers", "alt_name:1": "McCall Royal Ambassador Camp", "name": "Camp McCall", "tourism": "camp_site", "type": "multipolygon", "osm_id": 16948270}}, {"type": "Feature", "geometry": {"type": "Point", "coordinates": [-82.947085, 35.0920635]}, "properties": {"access": "yes", "backcountry": "no", "caravans": "yes", "check_date": "2024-03-27", "drinking_water": "yes", "fee": "yes", "group_only": "no", "internet_access": "no", "name": "Gorges State Park Campground", "nudism": "no", "openfire": "yes", "operator": "North Carolina State Parks", "payment:cash": "yes", "payment:mastercard": "yes", "payment:visa": "yes", "phone": "+1 828 966 9099", "picnic_table": "yes", "reservation": "yes", "shower": "yes", "static_caravans": "no", "tents": "yes", "toilets": "yes", "tourism": "camp_site", "type": "multipolygon", "website": "https://northcarolinastateparks.reserveamerica.com/camping/gorges-state-park/r/campgroundDetails.do?contractCode=NC&parkId=552865", "wheelchair": "limited", "osm_id": 17366828}}, {"type": "Feature", "geometry": {"type": "Point", "coordinates": [-82.3860358, 34.7603947]}, "properties": {"name": "Springwood RV park", "tourism": "caravan_site", "type": "multipolygon", "osm_id": 18177113}}, {"type": "Feature", "geometry": {"type": "Point", "coordinates": [-82.8210183, 34.443312]}, "properties": {"name": "Springfield Campground", "tourism": "camp_site", "type": "multipolygon", "website": "https://www.recreation.gov/camping/campgrounds/232711", "osm_id": 18638277}}, {"type": "Feature", "geometry": {"type": "Point", "coordinates": [-82.9509254, 34.9564658]}, "properties": {"backcountry": "no", "caravans": "yes", "drinking_water": "yes", "fee": "yes", "motor_vehicle": "yes", "name": "Devils Fork Campground", "operator": "State of South Carolina", "tents": "yes", "tourism": "camp_site", "type": "multipolygon", "osm_id": 19209077}}, {"type": "Feature", "geometry": {"type": "Point", "coordinates": [-80.3129827, 33.5300461]}, "properties": {"name": "Taw Caw Campground and Marina", "tourism": "camp_site", "type": "multipolygon", "osm_id": 19479964}}, {"type": "Feature", "geometry": {"type": "Point", "coordinates": [-82.6230158, 34.1032273]}, "properties": {"name": "Rustic Tent Camping", "tourism": "camp_site", "type": "multipolygon", "osm_id": 19821654}}, {"type": "Feature", "geometry": {"type": "Point", "coordinates": [-82.623148, 34.0996102]}, "properties": {"name": "Campground #2", "tourism": "camp_site", "type": "multipolygon", "osm_id": 19821655}}, {"type": "Feature", "geometry": {"type": "Point", "coordinates": [-82.6194593, 34.113698]}, "properties": {"name": "Campground #1", "tourism": "camp_site", "type": "multipolygon", "osm_id": 19821656}}]}