{"type": "FeatureCollection", "features": [{"type": "Feature", "geometry": {"type": "Point", "coordinates": [-103.8260216, 44.4715367]}, "properties": {"name": "Mountain View Campground", "tourism": "camp_site", "osm_id": 582170104}}, {"type": "Feature", "geometry": {"type": "Point", "coordinates": [-103.8264066, 44.4707084]}, "properties": {"name": "Chris' Campground", "tourism": "camp_site", "osm_id": 582170109}}, {"type": "Feature", "geometry": {"type": "Point", "coordinates": [-102.4140415, 43.8940435]}, "properties": {"drinking_water": "no", "horse": "yes", "name": "Sage Creek Campground", "source": "NAIP;NPS", "tourism": "camp_site", "osm_id": 849811434}}, {"type": "Feature", "geometry": {"type": "Point", "coordinates": [-103.8030589, 44.0126636]}, "properties": {"addr:city": "Hill City", "addr:state": "SD", "capacity": "17", "charge": "20 USD", "drinking_water": "yes", "fee": "yes", "name": "Whitetail Campground", "operator": "USFS", "toilets": "vault", "tourism": "camp_site", "osm_id": 1076554438}}, {"type": "Feature", "geometry": {"type": "Point", "coordinates": [-103.841585, 43.9599438]}, "properties": {"name": "Ditch Creek Campground", "operator": "USFS", "tents": "yes", "toilets": "vault", "tourism": "camp_site", "osm_id": 1076554446}}, {"type": "Feature", "geometry": {"type": "Point", "coordinates": [-103.8515251, 44.274826]}, "properties": {"capacity:caravans": "13", "caravans": "yes", "fee": "yes", "name": "Hanna Campground", "operator": "USFS", "tents": "yes", "tourism": "camp_site", "osm_id": 1076554455}}, {"type": "Feature", "geometry": {"type": "Point", "coordinates": [-103.5233085, 43.764365]}, "properties": {"name": "Stockade Lake Campground South", "operator": "Custer State Park", "tourism": "camp_site", "osm_id": 1166096780}}, {"type": "Feature", "geometry": {"type": "Point", "coordinates": [-103.465908, 43.763122]}, "properties": {"name": "Legion Lake Campground", "operator": "Custer State Park", "tourism": "camp_site", "osm_id": 1166096875}}, {"type": "Feature", "geometry": {"type": "Point", "coordinates": [-103.511065, 43.7749774]}, "properties": {"addr:city": "Custer", "addr:state": "SD", "capacity": "23", "charge": "268USD", "drinking_water": "yes", "fee": "yes", "name": "Bismark Lake Campground", "operator": "USFS", "phone": "+1 605-574-4402", "reservation": "yes", "seasonal": "spring/summer", "tents": "yes", "tourism": "camp_site", "osm_id": 1166097823}}, {"type": "Feature", "geometry": {"type": "Point", "coordinates": [-103.5352185, 44.1975813]}, "properties": {"addr:city": "Nemo", "addr:state": "SD", "capacity": "14", "charge": "21 USD", "drinking_water": "seasonal", "fee": "yes", "name": "Boxelder Forks Campground", "operator": "USFS", "tents": "yes", "toilets": "vault", "tourism": "camp_site", "osm_id": 1176536311}}, {"type": "Feature", "geometry": {"type": "Point", "coordinates": [-103.4756318, 44.230029]}, "properties": {"addr:city": "Nemo", "addr:state": "SD", "capacity": "11", "drinking_water": "seasonal", "fee": "yes", "name": "Dalton Lake Campground", "operator": "USFS", "tents": "yes", "toilets": "vault", "tourism": "camp_site", "osm_id": 1176559248}}, {"type": "Feature", "geometry": {"type": "Point", "coordinates": [-103.3077547, 43.9739218]}, "properties": {"name": "Mystery Mountain Resort", "tourism": "caravan_site", "osm_id": 1257001182}}, {"type": "Feature", "geometry": {"type": "Point", "coordinates": [-96.6507479, 43.6113468]}, "properties": {"name": "Yogi Bear's Camp Jellystone", "tourism": "caravan_site", "osm_id": 1345443280}}, {"type": "Feature", "geometry": {"type": "Point", "coordinates": [-101.9789141, 43.7286679]}, "properties": {"name": "Badlands Interior Campground", "tourism": "camp_site", "osm_id": 1392553956}}, {"type": "Feature", "geometry": {"type": "Point", "coordinates": [-103.0227224, 43.6619706]}, "properties": {"internet_access": "no", "name": "French Creek Campground", "operator": "Buffalo Gap National Grassland", "tourism": "camp_site", "osm_id": 1417334191}}, {"type": "Feature", "geometry": {"type": "Point", "coordinates": [-98.1917553, 45.8775474]}, "properties": {"designation": "Day Use Area", "name": "Hecla Day Use Area", "source": "Sand Lake NWR", "tourism": "camp_site", "osm_id": 1496868044}}, {"type": "Feature", "geometry": {"type": "Point", "coordinates": [-96.8054393, 44.3177108]}, "properties": {"addr:city": "Brookings", "addr:state": "SD", "charge": "25 USD", "fee": "yes", "name": "Sexauer City Park", "phone": "+1 605-692-2708", "reservation": "yes", "tents": "yes", "tourism": "caravan_site", "osm_id": 1505843783}}, {"type": "Feature", "geometry": {"type": "Point", "coordinates": [-103.7272065, 44.0803071]}, "properties": {"addr:city": "Hill City", "addr:state": "SD", "capacity": "9", "charge": "16 USD", "drinking_water": "no", "fee": "yes", "internet_access": "no", "name": "Castle Peak Campground", "operator": "USFS", "toilets": "vault", "tourism": "camp_site", "osm_id": 1518957525}}, {"type": "Feature", "geometry": {"type": "Point", "coordinates": [-103.4209753, 43.8072056]}, "properties": {"name": "Center Lake Campground Upper Loop", "tourism": "camp_site", "osm_id": 1722493270}}, {"type": "Feature", "geometry": {"type": "Point", "coordinates": [-103.4682331, 44.3751268]}, "properties": {"name": "Alkali Creek Campground", "tourism": "camp_site", "osm_id": 1843430740}}, {"type": "Feature", "geometry": {"type": "Point", "coordinates": [-103.4550388, 43.714515]}, "properties": {"name": "FRENCH CREEK HORSE CG", "source": "GPS", "tourism": "camp_site", "osm_id": 1911811607}}, {"type": "Feature", "geometry": {"type": "Point", "coordinates": [-96.514228, 43.6907468]}, "properties": {"tourism": "caravan_site", "osm_id": 2471646177}}, {"type": "Feature", "geometry": {"type": "Point", "coordinates": [-96.513823, 43.6898178]}, "properties": {"tourism": "caravan_site", "osm_id": 2471646301}}, {"type": "Feature", "geometry": {"type": "Point", "coordinates": [-97.1689263, 44.9329018]}, "properties": {"tourism": "caravan_site", "osm_id": 2513459108}}, {"type": "Feature", "geometry": {"type": "Point", "coordinates": [-97.1699885, 44.9310828]}, "properties": {"tourism": "caravan_site", "osm_id": 2513459155}}, {"type": "Feature", "geometry": {"type": "Point", "coordinates": [-97.2404096, 44.8938052]}, "properties": {"source": "Bing", "tourism": "caravan_site", "osm_id": 2515768810}}, {"type": "Feature", "geometry": {"type": "Point", "coordinates": [-97.2401376, 44.894165]}, "properties": {"source": "Bing", "tourism": "camp_site", "osm_id": 2515778176}}, {"type": "Feature", "geometry": {"type": "Point", "coordinates": [-97.2445268, 44.9177607]}, "properties": {"tourism": "caravan_site", "osm_id": 2515843927}}, {"type": "Feature", "geometry": {"type": "Point", "coordinates": [-97.2192568, 44.9095594]}, "properties": {"name": "The Prop Stoney Point", "source": "Bing", "tourism": "caravan_site", "osm_id": 2519517597}}, {"type": "Feature", "geometry": {"type": "Point", "coordinates": [-97.2427331, 44.9181074]}, "properties": {"source": "Bing", "tourism": "caravan_site", "osm_id": 2519566584}}, {"type": "Feature", "geometry": {"type": "Point", "coordinates": [-97.2392945, 44.9202764]}, "properties": {"source": "Bing", "tourism": "caravan_site", "osm_id": 2519566591}}, {"type": "Feature", "geometry": {"type": "Point", "coordinates": [-97.2408663, 44.9193382]}, "properties": {"source": "Bing", "tourism": "caravan_site", "osm_id": 2519566600}}, {"type": "Feature", "geometry": {"type": "Point", "coordinates": [-97.237374, 44.9205499]}, "properties": {"source": "Bing", "tourism": "caravan_site", "osm_id": 2519566602}}, {"type": "Feature", "geometry": {"type": "Point", "coordinates": [-98.0098461, 43.6938703]}, "properties": {"name": "R&R RV Park Campground", "source": "Bing", "tourism": "caravan_site", "osm_id": 2527650890}}, {"type": "Feature", "geometry": {"type": "Point", "coordinates": [-96.4669532, 42.5592745]}, "properties": {"caravans": "yes", "drinking_water": "yes", "name": "Stone State Park Campground", "power_supply": "yes", "shower": "yes", "tents": "yes", "tourism": "camp_site", "osm_id": 2528749675}}, {"type": "Feature", "geometry": {"type": "Point", "coordinates": [-98.4784004, 45.4457006]}, "properties": {"name": "Melgaard Park Campground", "source": "Bing", "tourism": "caravan_site", "osm_id": 2569151046}}, {"type": "Feature", "geometry": {"type": "Point", "coordinates": [-98.4783147, 45.4452095]}, "properties": {"name": "Melgaard Park Campground", "source": "Bing", "tourism": "camp_site", "osm_id": 2569151063}}, {"type": "Feature", "geometry": {"type": "Point", "coordinates": [-98.6215734, 45.5344175]}, "properties": {"name": "Group Area", "tourism": "camp_site", "osm_id": 2573981347}}, {"type": "Feature", "geometry": {"type": "Point", "coordinates": [-98.620879, 45.5335512]}, "properties": {"name": "Campground", "source": "Bing", "tourism": "caravan_site", "osm_id": 2573981348}}, {"type": "Feature", "geometry": {"type": "Point", "coordinates": [-98.6212435, 45.5346373]}, "properties": {"name": "Group Area", "tourism": "camp_site", "osm_id": 2573981457}}, {"type": "Feature", "geometry": {"type": "Point", "coordinates": [-98.613263, 45.5407113]}, "properties": {"name": "Group Area Camping", "tourism": "camp_site", "osm_id": 2575432966}}, {"type": "Feature", "geometry": {"type": "Point", "coordinates": [-98.0974983, 45.4537399]}, "properties": {"addr:housenumber": "800", "addr:postcode": "87445", "addr:street": "North Main Street", "name": "Groton City Park", "source": "Bing", "tourism": "caravan_site", "website": "https://city.grotonsd.gov/park.html", "osm_id": 2578899974}}, {"type": "Feature", "geometry": {"type": "Point", "coordinates": [-99.3291161, 43.8183661]}, "properties": {"addr:city": "Chamberlain", "addr:postcode": "57325", "addr:state": "SD", "backcountry": "no", "caravans": "yes", "email": "acc@midstatesd.net", "fee": "yes", "group_only": "no", "internet_access": "wlan", "name": "American Creek Campground", "phone": "+1-605-234-5151", "sanitary_dump_station": "yes", "tents": "yes", "tourism": "caravan_site", "website": "http://www.americancreekcampground.net/", "osm_id": 2588639683}}, {"type": "Feature", "geometry": {"type": "Point", "coordinates": [-99.3459757, 43.8259438]}, "properties": {"source": "Bing", "tourism": "caravan_site", "osm_id": 2591275096}}, {"type": "Feature", "geometry": {"type": "Point", "coordinates": [-99.3445059, 43.8274647]}, "properties": {"source": "Bing", "tourism": "caravan_site", "osm_id": 2591275157}}, {"type": "Feature", "geometry": {"type": "Point", "coordinates": [-103.2948564, 44.0570192]}, "properties": {"name": "Canyon Lake Cottages", "tourism": "camp_site", "osm_id": 2619319279}}, {"type": "Feature", "geometry": {"type": "Point", "coordinates": [-103.2946659, 44.0576244]}, "properties": {"name": "Lake Park Campground", "tourism": "caravan_site", "osm_id": 2619319300}}, {"type": "Feature", "geometry": {"type": "Point", "coordinates": [-103.2945372, 44.0581487]}, "properties": {"name": "Canyon Lake Cottages", "tourism": "camp_site", "osm_id": 2619319315}}, {"type": "Feature", "geometry": {"type": "Point", "coordinates": [-103.3772411, 43.8353098]}, "properties": {"addr:country": "US", "addr:housenumber": "24631", "addr:postcode": "57751", "addr:state": "SD", "addr:street": "Iron Mountain Road", "charge": "$25-$45", "fee": "yes", "name": "Spokane Creek Cabins & Campground", "tourism": "camp_site", "website": "https://www.spokanecreek.com/", "osm_id": 3012506320}}, {"type": "Feature", "geometry": {"type": "Point", "coordinates": [-96.7293605, 42.6047529]}, "properties": {"source": "outdoornebraska.ne.gov", "tourism": "camp_site", "osm_id": 3432438190}}, {"type": "Feature", "geometry": {"type": "Point", "coordinates": [-96.7290154, 42.6058256]}, "properties": {"source": "outdoornebraska.ne.gov", "tourism": "camp_site", "osm_id": 3432438901}}, {"type": "Feature", "geometry": {"type": "Point", "coordinates": [-96.7299391, 42.6060063]}, "properties": {"source": "outdoornebraska.ne.gov", "tourism": "camp_site", "osm_id": 3432438910}}, {"type": "Feature", "geometry": {"type": "Point", "coordinates": [-96.7308766, 42.6065994]}, "properties": {"source": "outdoornebraska.ne.gov", "tourism": "camp_site", "osm_id": 3432438916}}, {"type": "Feature", "geometry": {"type": "Point", "coordinates": [-96.7166048, 42.6068114]}, "properties": {"source": "outdoornebraska.ne.gov", "tents": "yes", "tourism": "camp_site", "osm_id": 3432438926}}, {"type": "Feature", "geometry": {"type": "Point", "coordinates": [-103.3269122, 43.9748988]}, "properties": {"name": "Shadows of Rushmore", "power_supply": "yes", "sanitary_dump_station": "yes", "tourism": "caravan_site", "osm_id": 4137772713}}, {"type": "Feature", "geometry": {"type": "Point", "coordinates": [-104.0925397, 44.5159621]}, "properties": {"tourism": "camp_site", "osm_id": 4852084726}}, {"type": "Feature", "geometry": {"type": "Point", "coordinates": [-104.0837206, 44.5167653]}, "properties": {"addr:city": "Beulah", "addr:state": "WY", "backcountry": "yes", "fee": "no", "name": "Sand Creek Public Access - East Oxbow - WGF", "reservation": "no", "toilets": "vault", "tourism": "camp_site", "osm_id": 4852084728}}, {"type": "Feature", "geometry": {"type": "Point", "coordinates": [-104.097872, 44.5158014]}, "properties": {"tourism": "camp_site", "osm_id": 4852084730}}, {"type": "Feature", "geometry": {"type": "Point", "coordinates": [-104.089128, 44.5158779]}, "properties": {"addr:city": "Beulah", "addr:state": "WY", "backcountry": "yes", "drinking_water": "no", "name": "Sand Creek Public Access - Rogers - WGF", "reservation": "no", "toilets": "vault", "tourism": "camp_site", "osm_id": 4852084731}}, {"type": "Feature", "geometry": {"type": "Point", "coordinates": [-103.4154936, 43.7777114]}, "properties": {"internet_access": "no", "name": "Shady Rest Youth Area", "tourism": "camp_site", "osm_id": 4919945016}}, {"type": "Feature", "geometry": {"type": "Point", "coordinates": [-96.8099757, 43.9788259]}, "properties": {"capacity": "27", "charge": "18 USD/tent; 27 USD/RV", "drinking_water": "yes", "fee": "yes", "name": "Colman Campgrounds", "phone": "+1 605-534-3121", "power_supply": "yes", "reservation": "yes", "shower": "yes", "toilets:type": "flush", "tourism": "camp_site", "osm_id": 5264885903}}, {"type": "Feature", "geometry": {"type": "Point", "coordinates": [-99.8366895, 43.929979]}, "properties": {"backcountry": "yes", "drinking_water": "no", "name": "Byre Lake Recreation Area", "reservation": "no", "tourism": "camp_site", "osm_id": 5713959426}}, {"type": "Feature", "geometry": {"type": "Point", "coordinates": [-97.201796, 44.65365]}, "properties": {"tourism": "caravan_site", "osm_id": 5866996083}}, {"type": "Feature", "geometry": {"type": "Point", "coordinates": [-97.2016187, 44.6536568]}, "properties": {"tourism": "caravan_site", "osm_id": 5866996084}}, {"type": "Feature", "geometry": {"type": "Point", "coordinates": [-97.2014081, 44.6536676]}, "properties": {"tourism": "caravan_site", "osm_id": 5866998585}}, {"type": "Feature", "geometry": {"type": "Point", "coordinates": [-97.2012156, 44.653677]}, "properties": {"tourism": "caravan_site", "osm_id": 5866998586}}, {"type": "Feature", "geometry": {"type": "Point", "coordinates": [-97.2010231, 44.6536858]}, "properties": {"tourism": "caravan_site", "osm_id": 5866998587}}, {"type": "Feature", "geometry": {"type": "Point", "coordinates": [-97.2008174, 44.6536851]}, "properties": {"tourism": "caravan_site", "osm_id": 5866998588}}, {"type": "Feature", "geometry": {"type": "Point", "coordinates": [-103.5928042, 43.8914234]}, "properties": {"addr:housenumber": "12325", "addr:street": "Rafter J-Bar Road", "name": "Rafter J Bar Ranch", "tourism": "camp_site", "osm_id": 5894006486}}, {"type": "Feature", "geometry": {"type": "Point", "coordinates": [-101.1536044, 42.6893172]}, "properties": {"name": "Steer Creek Campground", "tourism": "camp_site", "osm_id": 6513856696}}, {"type": "Feature", "geometry": {"type": "Point", "coordinates": [-103.4215169, 43.8048774]}, "properties": {"name": "Center Lake Campground Lower Loop", "tourism": "camp_site", "osm_id": 6537191886}}, {"type": "Feature", "geometry": {"type": "Point", "coordinates": [-103.1664084, 44.0702151]}, "properties": {"name": "Rapid City - Black Hills KOA", "tourism": "camp_site", "website": "https://koa.com/campgrounds/rapid-city/", "osm_id": 6548340585}}, {"type": "Feature", "geometry": {"type": "Point", "coordinates": [-103.6790419, 44.2965763]}, "properties": {"name": "Creekside", "name:en": "Creekside campground", "tourism": "caravan_site", "osm_id": 6604097385}}, {"type": "Feature", "geometry": {"type": "Point", "coordinates": [-96.8353608, 45.5925865]}, "properties": {"tourism": "caravan_site", "osm_id": 6817794703}}, {"type": "Feature", "geometry": {"type": "Point", "coordinates": [-96.5681882, 44.0559324]}, "properties": {"charge": "12 USD", "drinking_water": "yes", "fee": "yes", "name": "Flandreau Municipal Park Campground", "phone": "+1 605-573-2056", "power_supply": "yes", "reservation": "no", "shower": "yes", "toilets:type": "flush", "tourism": "camp_site", "osm_id": 7142076455}}, {"type": "Feature", "geometry": {"type": "Point", "coordinates": [-96.6950366, 45.4273957]}, "properties": {"access": "permit", "addr:city": "Ortonville", "addr:housenumber": "35889", "addr:postcode": "56278", "addr:state": "MN", "addr:street": "Meadowbrook State Park Road", "capacity": "37", "charge": "20 USD", "drinking_water": "yes", "fee": "yes", "name": "Big Stone Lake State Park Campground", "power_supply": "yes", "sanitary_dump_station": "yes", "shower": "yes", "toilets": "yes", "tourism": "camp_site", "osm_id": 7149135348}}, {"type": "Feature", "geometry": {"type": "Point", "coordinates": [-96.4508247, 45.3025719]}, "properties": {"addr:city": "Ortonville", "addr:state": "MN", "charge": "$10", "drinking_water": "yes", "fee": "yes", "name": "Riverside Park Campground", "toilets": "yes", "tourism": "camp_site", "website": "https://mnortonville.com/riverside-park-campground/", "osm_id": 7161402297}}, {"type": "Feature", "geometry": {"type": "Point", "coordinates": [-97.2978568, 45.3412221]}, "properties": {"addr:city": "Waubay", "addr:housenumber": "524", "addr:state": "SD", "addr:street": "East Lakeshore Drive", "fee": "no", "name": "Waubay City Campground", "toilets": "pit", "tourism": "camp_site", "osm_id": 7161429887}}, {"type": "Feature", "geometry": {"type": "Point", "coordinates": [-96.4429044, 45.55438]}, "properties": {"addr:city": "Graceville", "addr:state": "MN", "capacity": "28", "charge": "20 USD", "description": "$10-$20", "fee": "yes", "name": "Big Stone County Toqua Park", "phone": "+1-320-305-3920", "reservation": "yes", "shower": "yes", "tourism": "camp_site", "osm_id": 7332068956}}, {"type": "Feature", "geometry": {"type": "Point", "coordinates": [-96.489572, 45.3370418]}, "properties": {"addr:city": "Big Stone City", "addr:state": "SD", "backcountry": "yes", "drinking_water": "no", "fee": "no", "name": "Big Stone Rearing Pond", "toilets": "vault", "tourism": "camp_site", "osm_id": 7489794568}}, {"type": "Feature", "geometry": {"type": "Point", "coordinates": [-96.8404491, 45.5975848]}, "properties": {"addr:city": "Browns Valley", "addr:state": "MN", "capacity": "4", "charge": "15 USD", "description": "$10-$15", "fee": "yes", "name": "Browns Valley City Park", "phone": "+1-320-695-2110", "power_supply": "yes", "reservation": "no", "tourism": "camp_site", "osm_id": 7507583544}}, {"type": "Feature", "geometry": {"type": "Point", "coordinates": [-96.7826736, 45.6665246]}, "properties": {"addr:city": "Brows Valley", "addr:state": "MN", "capacity": "60", "charge": "20 USD", "description": "$10-$20", "fee": "yes", "name": "Traverse County. Park Campground", "reservation": "no", "tourism": "camp_site", "osm_id": 7507583545}}, {"type": "Feature", "geometry": {"type": "Point", "coordinates": [-96.4349671, 44.5066637]}, "properties": {"addr:city": "Hendricks", "addr:state": "MN", "capacity": "27", "charge": "24 USD", "description": "$18-$24", "fee": "yes", "name": "Laek Hendricks City Park", "phone": "+1-507-275-3192", "power_supply": "yes", "shower": "yes", "toilets": "yes", "tourism": "camp_site", "osm_id": 7633859595}}, {"type": "Feature", "geometry": {"type": "Point", "coordinates": [-96.4770966, 44.4802779]}, "properties": {"addr:city": "White", "addr:state": "SD", "capacity": "15", "drinking_water": "no", "fee": "no", "name": "Lake Hendricks LUA_GFP", "phone": "+1-605-627-5441", "toilets:type": "pit latrine", "tourism": "camp_site", "osm_id": 7633859596}}, {"type": "Feature", "geometry": {"type": "Point", "coordinates": [-97.133894, 44.3647923]}, "properties": {"addr:city": "Arlington", "addr:state": "SD", "capacity": "10", "charge": "10 USD", "fee": "yes", "name": "Maxwell Park Campground", "phone": "+1 605 983-5251", "power_supply": "yes", "tourism": "camp_site", "osm_id": 7633859597}}, {"type": "Feature", "geometry": {"type": "Point", "coordinates": [-97.1295549, 44.3611922]}, "properties": {"addr:city": "Arlington", "addr:state": "SD", "capacity": "10", "drinking_water": "yes", "fee": "yes", "name": "Northland Park Campground", "phone": "+1 605-983-5251", "power_supply": "yes", "seasonal": "spring;summer;autumn", "tourism": "camp_site", "osm_id": 7633859598}}, {"type": "Feature", "geometry": {"type": "Point", "coordinates": [-97.5597611, 44.3859666]}, "properties": {"addr:city": "De Smet", "addr:state": "SD", "capacity": "10", "charge": "20 USD", "drinking_water": "yes", "fee": "yes", "name": "Washington Park", "phone": "+1 605-854-3731", "reservation": "no", "tourism": "camp_site", "osm_id": 7633859599}}, {"type": "Feature", "geometry": {"type": "Point", "coordinates": [-97.5409169, 44.3667119]}, "properties": {"addr:city": "De Smet", "addr:state": "SD", "capacity": "9", "charge": "30 USD", "fee": "yes", "name": "Ingalls Homestead Museum", "phone": "+1-800-776-3594", "power_supply": "yes", "shower": "yes", "toilets": "yes", "tourism": "camp_site", "osm_id": 7633859600}}, {"type": "Feature", "geometry": {"type": "Point", "coordinates": [-98.1925526, 44.3689684]}, "properties": {"addr:city": "Huron", "addr:state": "SD", "capacity": "73", "charge": "30 USD", "fee": "yes", "name": "Memorial Park County Park Campground", "power_supply": "yes", "reservation": "yes", "shower": "yes", "tourism": "camp_site", "osm_id": 7633859601}}, {"type": "Feature", "geometry": {"type": "Point", "coordinates": [-98.2775062, 44.0572455]}, "properties": {"addr:city": "Woonsocket", "addr:state": "SD", "capacity": "5", "charge": "15 USD", "drinking_water": "yes", "fee": "yes", "name": "Lake Prior City Park", "phone": "+1 605-796-4112", "tourism": "camp_site", "osm_id": 7633859602}}, {"type": "Feature", "geometry": {"type": "Point", "coordinates": [-98.5724411, 44.0756141]}, "properties": {"addr:city": "Wessington Springs", "addr:state": "SD", "capacity": "13", "charge": "15 USD", "fee": "yes", "name": "Wessington Springs City Park", "phone": "+1 605-539-1691", "reservation": "no", "shower": "yes", "tourism": "camp_site", "osm_id": 7633859603}}, {"type": "Feature", "geometry": {"type": "Point", "coordinates": [-99.4783659, 44.0670857]}, "properties": {"addr:city": "Fort Thompson", "addr:state": "SD", "capacity": "24", "fee": "no", "name": "North Shore -COE", "phone": "+1 605-245-2255", "toilets:type": "pit latrine", "tourism": "camp_site", "osm_id": 7633859604}}, {"type": "Feature", "geometry": {"type": "Point", "coordinates": [-99.4481923, 44.0604109]}, "properties": {"addr:city": "Fort Thompson", "addr:state": "SD", "fee": "no", "name": "Old Fort Thompson - COE", "phone": "+1 605-245-2255", "toilets:disposal": "flush", "tourism": "camp_site", "osm_id": 7633859605}}, {"type": "Feature", "geometry": {"type": "Point", "coordinates": [-99.4392474, 44.0362521]}, "properties": {"addr:city": "Fort Thompson", "addr:state": "SD", "backcountry": "yes", "drinking_water": "yes", "name": "Right Tailrace - COE", "toilets": "yes", "tourism": "camp_site", "osm_id": 7633859606}}, {"type": "Feature", "geometry": {"type": "Point", "coordinates": [-99.4254282, 43.7807786]}, "properties": {"addr:city": "Chaberlain", "addr:state": "SD", "backcountry": "yes", "drinking_water": "no", "name": "Dude Rach DFG", "toilets:type": "pit latrine", "tourism": "camp_site", "osm_id": 7633859607}}, {"type": "Feature", "geometry": {"type": "Point", "coordinates": [-96.436579, 43.3090489]}, "properties": {"addr:city": "Inwood", "addr:state": "IA", "capacity": "4", "fee": "yes", "name": "Foote City Park", "phone": "+1-712-753-4833", "shower": "yes", "toilets": "yes", "tourism": "camp_site", "osm_id": 7635617699}}, {"type": "Feature", "geometry": {"type": "Point", "coordinates": [-96.6024312, 43.2990628]}, "properties": {"addr:city": "Canton", "addr:state": "IA", "capacity": "7", "fee": "yes", "name": "West Ball Park Campground", "phone": "+1 605-987-2881", "toilets": "vault", "tourism": "camp_site", "osm_id": 7635617700}}, {"type": "Feature", "geometry": {"type": "Point", "coordinates": [-96.4711653, 43.0585641]}, "properties": {"addr:city": "Hawarden", "addr:state": "IA", "capacity": "49", "charge": "23 USD", "fee": "yes", "name": "Oak Grove County Park - Deer Run", "phone": "+1-712-552-1047", "power_supply": "yes", "reservation": "yes", "tourism": "camp_site", "osm_id": 7635617701}}, {"type": "Feature", "geometry": {"type": "Point", "coordinates": [-96.4594304, 43.0614472]}, "properties": {"addr:city": "Hawarden", "addr:state": "IA", "capacity": "18", "charge": "23 USD", "fee": "yes", "name": "Oak Grove County Park - Turkey Ridge", "phone": "+1-712-552-1047", "shower": "fee", "tourism": "camp_site", "osm_id": 7635617702}}, {"type": "Feature", "geometry": {"type": "Point", "coordinates": [-103.2685565, 44.1487182]}, "properties": {"addr:city": "Rapid City", "addr:state": "SD", "capacity": "15", "charge": "35 USD", "fee": "yes", "name": "Little Jon Park", "phone": "+1 605-787-4410", "power_supply": "yes", "tourism": "camp_site", "osm_id": 7636925878}}, {"type": "Feature", "geometry": {"type": "Point", "coordinates": [-103.4401686, 43.8766299]}, "properties": {"addr:city": "Keystone", "addr:state": "SD", "capacity": "20", "caravans": "yes", "charge": "20 USD", "drinking_water": "yes", "fee": "yes", "name": "Grizzly Creek - USFS", "operator": "USFS", "reservation": "yes", "tents": "yes", "toilets": "vault", "tourism": "camp_site", "osm_id": 7636925880}}, {"type": "Feature", "geometry": {"type": "Point", "coordinates": [-103.4694548, 43.8877244]}, "properties": {"addr:city": "Keystone", "addr:state": "SD", "backcountry": "yes", "drinking_water": "yes", "fee": "no", "toilets": "vault", "tourism": "camp_site", "osm_id": 7636925881}}, {"type": "Feature", "geometry": {"type": "Point", "coordinates": [-103.7811944, 44.0227644]}, "properties": {"addr:city": "Hill City", "addr:state": "SD", "capacity": "44", "charge": "20 USD", "drinking_water": "yes", "fee": "yes", "name": "Dutchman - USFS", "operator": "USFS", "tents": "yes", "toilets": "vault", "tourism": "camp_site", "osm_id": 7636925882}}, {"type": "Feature", "geometry": {"type": "Point", "coordinates": [-103.7988966, 44.0253014]}, "properties": {"addr:city": "Hill City", "addr:state": "SD", "capacity": "16", "drinking_water": "yes", "name": "Custer Trail - USFS", "operator": "USFS", "reservation": "no", "tents": "yes", "toilets": "vault", "tourism": "camp_site", "osm_id": 7636925883}}, {"type": "Feature", "geometry": {"type": "Point", "coordinates": [-97.2651027, 43.4263858]}, "properties": {"addr:city": "Marion", "addr:state": "SD", "capacity": "7", "fee": "no", "name": "Hieb Memorial Park Campground", "reservation": "no", "shower": "yes", "tourism": "camp_site", "osm_id": 7638845505}}, {"type": "Feature", "geometry": {"type": "Point", "coordinates": [-97.4309892, 43.3561217]}, "properties": {"addr:city": "Freeman", "addr:state": "SD", "capacity": "7", "fee": "yes", "name": "Freeman City Park Campground", "phone": "+1 605-925-7127", "shower": "yes", "tourism": "camp_site", "osm_id": 7638845506}}, {"type": "Feature", "geometry": {"type": "Point", "coordinates": [-97.6088037, 43.2625861]}, "properties": {"addr:city": "Menno", "addr:state": "SD", "capacity": "10", "charge": "10 USD", "fee": "yes", "name": "Menno Lake Rec Area", "phone": "+1 605-387-2427", "tourism": "camp_site", "osm_id": 7638845507}}, {"type": "Feature", "geometry": {"type": "Point", "coordinates": [-103.8454387, 44.1448497]}, "properties": {"addr:city": "Rochford", "addr:state": "SD", "charge": "16 USD", "drinking_water": "no", "fee": "yes", "name": "Black Fox Campground", "toilets": "vault", "tourism": "camp_site", "osm_id": 7638845512}}, {"type": "Feature", "geometry": {"type": "Point", "coordinates": [-103.6623129, 44.1991825]}, "properties": {"addr:city": "Deadwood", "addr:state": "SD", "capacity": "56", "charge": "28 USD", "drinking_water": "seasonal", "fee": "yes", "name": "Roubaix Lake Campground", "operator": "USFS", "reservation": "yes", "tents": "yes", "toilets": "vault", "tourism": "camp_site", "osm_id": 7638845514}}, {"type": "Feature", "geometry": {"type": "Point", "coordinates": [-103.4695391, 44.157522]}, "properties": {"addr:city": "Nemo", "addr:state": "SD", "capacity": "9", "charge": "14 USD", "drinking_water": "no", "fee": "yes", "name": "Steamboat Rock Picnic & Tent Camping Area", "operator": "USFS", "tents": "yes", "toilets": "vault", "tourism": "camp_site", "osm_id": 7638845515}}, {"type": "Feature", "geometry": {"type": "Point", "coordinates": [-103.6914829, 44.3108851]}, "properties": {"addr:city": "Deadwood", "addr:state": "SD", "capacity": "5", "capacity:tents": "4", "charge": "14 USD", "drinking_water": "no", "fee": "yes", "name": "Strawberry Picnic & Tent Camping Area", "operator": "USFS", "tents": "yes", "toilets": "yes", "tourism": "camp_site", "osm_id": 7638845516}}, {"type": "Feature", "geometry": {"type": "Point", "coordinates": [-104.0504141, 44.0753712]}, "properties": {"addr:city": "Hill City", "addr:state": "SD", "capacity": "8", "charge": "16 USD", "drinking_water": "seasonal", "fee": "yes", "name": "Beaver Creek Campground", "tents": "yes", "toilets": "vault", "tourism": "camp_site", "osm_id": 7638845520}}, {"type": "Feature", "geometry": {"type": "Point", "coordinates": [-103.0094245, 42.6966494]}, "properties": {"name": "Red Cloud Campground", "tourism": "camp_site", "osm_id": 7641213318}}, {"type": "Feature", "geometry": {"type": "Point", "coordinates": [-103.1506344, 42.6786704]}, "properties": {"caravans": "yes", "drinking_water": "no", "fee": "yes", "name": "Roberts Tract Campground", "operator": "US Forest", "power_supply": "no", "static_caravans": "no", "tents": "yes", "tourism": "camp_site", "website": "https://www.fs.usda.gov/recarea/nebraska/recarea/?recid=10618", "osm_id": 7650644312}}, {"type": "Feature", "geometry": {"type": "Point", "coordinates": [-103.5692173, 42.6957792]}, "properties": {"name": "Soldier Creek Campground", "tourism": "camp_site", "osm_id": 7674822452}}, {"type": "Feature", "geometry": {"type": "Point", "coordinates": [-96.4594674, 43.3870899]}, "properties": {"description": "RV Camping", "tourism": "camp_site", "osm_id": 8206818295}}, {"type": "Feature", "geometry": {"type": "Point", "coordinates": [-102.4839695, 43.5291985]}, "properties": {"access": "private", "addr:housenumber": "1118", "addr:street": "Chanku Waste Drive", "alt_name": "Chanku Waste Ranch", "description": "The good road in the badlands.", "group_only": "yes", "name": "\u0108hank\u00fa Wast\u00e9 Ranch", "tourism": "camp_site", "website": "https://www.chankuwaste.com/", "osm_id": 8402367595}}, {"type": "Feature", "geometry": {"type": "Point", "coordinates": [-97.4720761, 42.8494135]}, "properties": {"name": "South Shore Recreation Area", "operator": "US Army Corps of Engineers", "tourism": "camp_site", "osm_id": 8515350641}}, {"type": "Feature", "geometry": {"type": "Point", "coordinates": [-98.0627096, 42.7523203]}, "properties": {"tourism": "camp_site", "osm_id": 8571661855}}, {"type": "Feature", "geometry": {"type": "Point", "coordinates": [-103.6762816, 44.3068892]}, "properties": {"access": "customers", "name": "Wild Bills Campground", "tourism": "camp_site", "osm_id": 8707449863}}, {"type": "Feature", "geometry": {"type": "Point", "coordinates": [-102.4503858, 44.0688398]}, "properties": {"addr:city": "Wasta", "addr:housenumber": "51", "addr:postcode": "57791", "addr:state": "SD", "addr:street": "C Avenue", "lit": "no", "name": "24 Express Camp Ground", "phone": "+1 605 993 3007", "source": "Esri", "tourism": "caravan_site", "website": "https://24-express-wasta.edan.io/", "osm_id": 8849453820}}, {"type": "Feature", "geometry": {"type": "Point", "coordinates": [-102.444675, 44.0710025]}, "properties": {"addr:city": "Wasta", "addr:housenumber": "22", "addr:postcode": "57791", "addr:state": "SD", "addr:street": "A Street", "capacity": "47", "internet_access": "no", "name": "Sunrise Campground & RV Park", "source": "Esri", "tourism": "caravan_site", "osm_id": 8849763055}}, {"type": "Feature", "geometry": {"type": "Point", "coordinates": [-103.5200188, 43.7666057]}, "properties": {"group_only": "yes", "name": "Group Campground", "tourism": "camp_site", "osm_id": 9815906912}}, {"type": "Feature", "geometry": {"type": "Point", "coordinates": [-100.8930155, 42.5928154]}, "properties": {"tourism": "camp_site", "osm_id": 9936781969}}, {"type": "Feature", "geometry": {"type": "Point", "coordinates": [-100.8652343, 42.6300836]}, "properties": {"addr:housenumber": "88337", "fee": "yes", "name": "Merritt Trading Post", "opening_hours": "Su-Sa 05:00-17:00", "phone": "+1-402-376-3437", "tourism": "camp_site", "website": "https://merritttradingpost.com/", "osm_id": 9936803355}}, {"type": "Feature", "geometry": {"type": "Point", "coordinates": [-100.8953735, 42.5995758]}, "properties": {"tourism": "camp_site", "osm_id": 9936818422}}, {"type": "Feature", "geometry": {"type": "Point", "coordinates": [-96.5000131, 42.991831]}, "properties": {"capacity:caravans": "16", "fee": "yes", "internet_access": "no", "name": "Eagle View Campground", "operator": "Sioux County Conservation Board", "shower": "yes", "toilets": "yes", "tourism": "camp_site", "osm_id": 10612879170}}, {"type": "Feature", "geometry": {"type": "Point", "coordinates": [-96.4986312, 42.9963197]}, "properties": {"addr:housenumber": "84", "addr:street": "W 10th Street", "capacity:caravans": "19", "fee": "yes", "internet_access": "no", "name": "Meadowlark Campground", "operator": "Sioux County Conservation Board", "shower": "yes", "toilets": "yes", "tourism": "camp_site", "osm_id": 10612889157}}, {"type": "Feature", "geometry": {"type": "Point", "coordinates": [-101.5212291, 43.8371263]}, "properties": {"caravans": "yes", "charge": "20 USD/site", "fee": "yes", "internet_access": "no", "name": "Kodako Kampground", "power_supply": "yes", "sanitary_dump_station": "customers", "shower": "yes", "tents": "yes", "tourism": "camp_site", "water_source": "main", "wheelchair": "limited", "osm_id": 11195011211}}, {"type": "Feature", "geometry": {"type": "Point", "coordinates": [-103.6778253, 44.3017771]}, "properties": {"addr:city": "Deadwood", "addr:housenumber": "21390", "addr:postcode": "57732", "addr:state": "SD", "addr:street": "US Highway 385", "name": "Fish n Fry Campground", "phone": "+1 605-578-2150", "tourism": "camp_site", "website": "https://stay.fishnfrycampground.com/", "osm_id": 11360990464}}, {"type": "Feature", "geometry": {"type": "Point", "coordinates": [-100.7413578, 43.5645192]}, "properties": {"tourism": "caravan_site", "osm_id": 11608758050}}, {"type": "Feature", "geometry": {"type": "Point", "coordinates": [-96.6471509, 45.2266781]}, "properties": {"tourism": "caravan_site", "osm_id": 11792828019}}, {"type": "Feature", "geometry": {"type": "Point", "coordinates": [-103.8787321, 44.2363906]}, "properties": {"camp_site": "basic", "drinking_water": "no", "fee": "no", "static_caravans": "no", "toilets": "no", "tourism": "camp_site", "osm_id": 12036804107}}, {"type": "Feature", "geometry": {"type": "Point", "coordinates": [-99.4199613, 43.2219177]}, "properties": {"name": "Ace RV Park", "tourism": "caravan_site", "osm_id": 12326228695}}, {"type": "Feature", "geometry": {"type": "Point", "coordinates": [-103.4455249, 43.3251304]}, "properties": {"tourism": "camp_site", "osm_id": 12376288552}}, {"type": "Feature", "geometry": {"type": "Point", "coordinates": [-103.614149, 43.7777191]}, "properties": {"tourism": "camp_site", "osm_id": 12376880656}}, {"type": "Feature", "geometry": {"type": "Point", "coordinates": [-103.4463385, 43.9014291]}, "properties": {"tourism": "camp_site", "osm_id": 12376949592}}, {"type": "Feature", "geometry": {"type": "Point", "coordinates": [-103.4453585, 44.3465939]}, "properties": {"name": "Kickstands Campground", "tourism": "caravan_site", "osm_id": 12450670258}}, {"type": "Feature", "geometry": {"type": "Point", "coordinates": [-103.318722, 44.1739424]}, "properties": {"name": "Three Flags RV Park", "tourism": "caravan_site", "osm_id": 12450670291}}, {"type": "Feature", "geometry": {"type": "Point", "coordinates": [-103.2008714, 43.8408475]}, "properties": {"camp_site": "basic", "fee": "no", "impromptu": "yes", "note": "Overnight parking on the gravel parking allowed and tolerated by staff", "tourism": "camp_site", "osm_id": 12771329992}}, {"type": "Feature", "geometry": {"type": "Point", "coordinates": [-101.9273796, 43.6917401]}, "properties": {"camp_site": "standard", "group_only": "yes", "name": "127", "tents": "yes", "tourism": "camp_site", "osm_id": 13064814905}}, {"type": "Feature", "geometry": {"type": "Point", "coordinates": [-103.3726926, 43.7560369]}, "properties": {"tourism": "caravan_site", "osm_id": 13427656780}}, {"type": "Feature", "geometry": {"type": "Point", "coordinates": [-103.4923963, 43.5662733]}, "properties": {"capacity": "61", "capacity:caravans": "48", "capacity:groups": "2", "capacity:tents": "61", "caravans": "yes", "drinking_water": "yes", "group_only": "no", "internet_access": "no", "name": "Elk Mountain Campground", "opening_hours": "24/7", "reservation": "required", "sanitary_dump_station": "no", "shower": "no", "source": "GPS", "tents": "yes", "toilets": "yes", "tourism": "camp_site", "website": "https://www.nps.gov/wica/planyourvisit/campgrounds.htm", "osm_id": 232171432}}, {"type": "Feature", "geometry": {"type": "Point", "coordinates": [-103.6617117, 44.1999395]}, "properties": {"name": "Robaix Lake Campground", "operator": "USFS", "tourism": "camp_site", "osm_id": 241878514}}, {"type": "Feature", "geometry": {"type": "Point", "coordinates": [-103.9882365, 44.3280689]}, "properties": {"caravans": "yes", "drinking_water": "yes", "name": "Timon Campground", "operator": "USFS", "tents": "yes", "toilets": "yes", "tourism": "camp_site", "osm_id": 247087232}}, {"type": "Feature", "geometry": {"type": "Point", "coordinates": [-98.4845379, 43.7097478]}, "properties": {"name": "Chuck's Trailer Park", "old_name": "Gordy's Campground", "source": "Bing", "tourism": "caravan_site", "osm_id": 253538085}}, {"type": "Feature", "geometry": {"type": "Point", "coordinates": [-97.3597399, 42.8760328]}, "properties": {"brand": "KOA", "brand:wikidata": "Q16988635", "name": "KOA Holiday", "operator": "KOA", "short_name": "KOA", "tourism": "caravan_site", "osm_id": 271867526}}, {"type": "Feature", "geometry": {"type": "Point", "coordinates": [-103.8475033, 44.6728966]}, "properties": {"access": "yes", "addr:city": "Belle Fourche", "addr:housenumber": "418", "addr:postcode": "57717", "addr:state": "SD", "addr:street": "9th Avenue", "caravans": "yes", "fee": "yes", "name": "Riverside Campground", "phone": "+1 605-892-6446", "reservation": "yes", "tents": "yes", "tourism": "camp_site", "osm_id": 292341567}}, {"type": "Feature", "geometry": {"type": "Point", "coordinates": [-103.8448573, 44.670909]}, "properties": {"name": "The Playground Campground", "tourism": "camp_site", "osm_id": 292345678}}, {"type": "Feature", "geometry": {"type": "Point", "coordinates": [-96.9379777, 42.7862401]}, "properties": {"name": "Lion's Park Campground", "phone": "+1-605-677-7082", "tourism": "camp_site", "osm_id": 301869425}}, {"type": "Feature", "geometry": {"type": "Point", "coordinates": [-103.4857732, 45.8754617]}, "properties": {"addr:city": "Ludlow", "addr:postcode": "57755", "addr:state": "SD", "addr:street": "FSR 3123", "caravans": "yes", "drinking_water": "no", "name": "Picnic Spring Campground", "operator": "United States Forest Service", "power_supply": "no", "shower": "no", "tents": "yes", "toilets": "yes", "tourism": "camp_site", "osm_id": 321246474}}, {"type": "Feature", "geometry": {"type": "Point", "coordinates": [-103.9638342, 44.3386674]}, "properties": {"drinking_water": "yes", "fee": "yes", "name": "Rod and Gun Campground", "operator": "USFS", "tents": "yes", "toilets": "yes", "tourism": "camp_site", "osm_id": 321404505}}, {"type": "Feature", "geometry": {"type": "Point", "coordinates": [-96.7309565, 42.6107522]}, "properties": {"note": "Not sure of extents", "source": "outdoornebraska.ne.gov", "tourism": "camp_site", "osm_id": 336164587}}, {"type": "Feature", "geometry": {"type": "Point", "coordinates": [-96.7303878, 42.6080226]}, "properties": {"capacity": "30", "power_supply": "yes", "tents": "yes", "tourism": "caravan_site", "osm_id": 336164590}}, {"type": "Feature", "geometry": {"type": "Point", "coordinates": [-96.7268488, 42.6072081]}, "properties": {"capacity": "30", "power_supply": "yes", "source": "outdoornebraska.ne.gov", "tents": "yes", "tourism": "caravan_site", "osm_id": 336164593}}, {"type": "Feature", "geometry": {"type": "Point", "coordinates": [-98.0616461, 42.7511809]}, "properties": {"capacity": "76", "source": "outdoornebraska.ne.gov", "tourism": "caravan_site", "osm_id": 336605405}}, {"type": "Feature", "geometry": {"type": "Point", "coordinates": [-103.0140727, 42.7155551]}, "properties": {"tents": "yes", "tourism": "caravan_site", "osm_id": 336607614}}, {"type": "Feature", "geometry": {"type": "Point", "coordinates": [-103.4613717, 42.6628303]}, "properties": {"capacity": "32", "name": "Red Cloud Campground", "power_supply": "yes", "tourism": "caravan_site", "osm_id": 336613665}}, {"type": "Feature", "geometry": {"type": "Point", "coordinates": [-103.4669114, 42.6627506]}, "properties": {"capacity": "76", "name": "Soldier Creek Campground", "power_supply": "yes", "tourism": "caravan_site", "osm_id": 336613667}}, {"type": "Feature", "geometry": {"type": "Point", "coordinates": [-99.119209, 43.3887598]}, "properties": {"name": "Snake Creek Recreation Area", "tourism": "caravan_site", "osm_id": 385038056}}, {"type": "Feature", "geometry": {"type": "Point", "coordinates": [-99.1117321, 43.3856849]}, "properties": {"tourism": "caravan_site", "osm_id": 385039004}}, {"type": "Feature", "geometry": {"type": "Point", "coordinates": [-103.3750395, 43.7611086]}, "properties": {"capacity": "60", "fee": "yes", "name": "Game Lodge Campground", "operator": "State", "power_supply": "yes", "sanitary_dump_station": "yes", "shower": "yes", "tents": "yes", "tourism": "caravan_site", "osm_id": 389689883}}, {"type": "Feature", "geometry": {"type": "Point", "coordinates": [-100.0521187, 43.903646]}, "properties": {"caravans": "yes", "name": "New Frontier Campground", "source": "bing", "tourism": "camp_site", "osm_id": 426742914}}, {"type": "Feature", "geometry": {"type": "Point", "coordinates": [-97.2011224, 44.8561886]}, "properties": {"tourism": "camp_site", "osm_id": 486424738}}, {"type": "Feature", "geometry": {"type": "Point", "coordinates": [-103.5381309, 43.8958552]}, "properties": {"name": "Willow Creek Horse Camp", "tourism": "camp_site", "osm_id": 505704896}}, {"type": "Feature", "geometry": {"type": "Point", "coordinates": [-103.5112747, 44.4185018]}, "properties": {"tourism": "camp_site", "osm_id": 506518855}}, {"type": "Feature", "geometry": {"type": "Point", "coordinates": [-97.2751002, 43.0567033]}, "properties": {"addr:city": "Irene", "addr:postcode": "57037", "addr:state": "SD", "addr:street": "446th Avenue", "name": "Broom Tree Youth and Family Camp", "operator": "Broom Tree Retreat Ministries", "tourism": "camp_site", "website": "http://www.broom-tree.org/Content.aspx?id=17&office=broomtree", "osm_id": 556876076}}, {"type": "Feature", "geometry": {"type": "Point", "coordinates": [-97.034583, 44.718071]}, "properties": {"name": "Castlewood Campground", "tourism": "camp_site", "osm_id": 566456092}}, {"type": "Feature", "geometry": {"type": "Point", "coordinates": [-96.7530175, 45.4869754]}, "properties": {"addr:city": "Wilmot", "addr:housenumber": "47218", "addr:state": "SD", "addr:street": "131st Street", "name": "Camp Iyataka", "operator": "Sioux Council", "tourism": "camp_site", "osm_id": 566497613}}, {"type": "Feature", "geometry": {"type": "Point", "coordinates": [-103.0288642, 42.829352]}, "properties": {"name": "Eagle Rest RV Park", "tourism": "caravan_site", "osm_id": 642733690}}, {"type": "Feature", "geometry": {"type": "Point", "coordinates": [-102.1780074, 45.7742844]}, "properties": {"access": "yes", "fee": "no", "internet_access:fee": "no", "name": "Lewellyn Johns", "tourism": "camp_site", "osm_id": 649745184}}, {"type": "Feature", "geometry": {"type": "Point", "coordinates": [-102.2411688, 45.7383987]}, "properties": {"fee": "no", "internet_access:fee": "no", "name": "Hugh Glass Campeground", "tourism": "camp_site", "osm_id": 649745185}}, {"type": "Feature", "geometry": {"type": "Point", "coordinates": [-97.5704998, 42.8354904]}, "properties": {"name": "Wiegand Recreation Area", "tourism": "camp_site", "osm_id": 656699650}}, {"type": "Feature", "geometry": {"type": "Point", "coordinates": [-103.5794346, 43.7149316]}, "properties": {"capacity": "51", "internet_access": "wlan", "internet_access:fee": "no", "name": "Broken Arrow RV Park", "power_supply": "yes", "tourism": "caravan_site", "osm_id": 693425802}}, {"type": "Feature", "geometry": {"type": "Point", "coordinates": [-103.2680142, 43.9899769]}, "properties": {"addr:housenumber": "8990", "addr:street": "South Highway 16", "capacity": "100", "internet_access": "wlan", "internet_access:fee": "no", "name": "Happy Holidays RV Resort", "power_supply": "yes", "sanitary_dump_station": "yes", "tourism": "caravan_site", "website": "https://happyholidayrvresort.com/", "osm_id": 713455168}}, {"type": "Feature", "geometry": {"type": "Point", "coordinates": [-96.7625464, 45.6747376]}, "properties": {"name": "Rosebud RV Park", "tourism": "caravan_site", "osm_id": 727507905}}, {"type": "Feature", "geometry": {"type": "Point", "coordinates": [-96.8045499, 43.4453527]}, "properties": {"name": "Red Barn RV Park", "tourism": "caravan_site", "osm_id": 761769800}}, {"type": "Feature", "geometry": {"type": "Point", "coordinates": [-96.7066236, 43.6069009]}, "properties": {"addr:city": "Sioux Falls", "addr:housenumber": "1401", "addr:postcode": "57104", "addr:state": "SD", "addr:street": "East Robur Drive", "brand": "KOA", "brand:wikidata": "Q16988635", "email": "siouxfalls@koa.com", "fee": "yes", "internet_access": "wlan", "internet_access:fee": "customers", "internet_access:ssid": "KOA Guest", "name": "Sioux Falls KOA Journey", "opening_hours": "Dec-Feb closed \"winter off\"", "phone": "+1-605-332-9987", "power_supply": "yes", "reservation": "required", "sanitary_dump_station": "yes", "short_name": "KOA", "tourism": "caravan_site", "website": "https://koa.com/campgrounds/sioux-falls/", "osm_id": 808867362}}, {"type": "Feature", "geometry": {"type": "Point", "coordinates": [-103.4259518, 44.432728]}, "properties": {"addr:housenumber": "20494", "name": "Ride N Rest Campground", "tourism": "camp_site", "osm_id": 818474182}}, {"type": "Feature", "geometry": {"type": "Point", "coordinates": [-103.4252753, 44.4366376]}, "properties": {"name": "Iron Horse Campground", "tourism": "camp_site", "osm_id": 818487750}}, {"type": "Feature", "geometry": {"type": "Point", "coordinates": [-103.5928163, 43.9030263]}, "properties": {"name": "Creekside Mountain Resort", "tourism": "camp_site", "osm_id": 821999369}}, {"type": "Feature", "geometry": {"type": "Point", "coordinates": [-96.6473688, 43.6111265]}, "properties": {"landuse": "commercial", "name": "Camp Jellystone", "tourism": "camp_site", "osm_id": 836494244}}, {"type": "Feature", "geometry": {"type": "Point", "coordinates": [-98.0123612, 43.6955069]}, "properties": {"addr:city": "Mitchell", "addr:housenumber": "911", "addr:postcode": "57301", "addr:state": "SD", "addr:street": "East Kay Avenue", "capacity": "50", "fee": "yes", "name": "Rondees Campground", "tourism": "camp_site", "website": "http://rondeescampground.com/index.htm", "osm_id": 836614700}}, {"type": "Feature", "geometry": {"type": "Point", "coordinates": [-98.0497175, 43.6881825]}, "properties": {"addr:city": "Mitchell", "addr:housenumber": "1800", "addr:postcode": "57301", "addr:state": "SD", "addr:street": "West Spruce Street", "fee": "yes", "name": "Dakota Campgrounds", "tourism": "camp_site", "website": "https://www.dakotacampground.net/", "osm_id": 836614702}}, {"type": "Feature", "geometry": {"type": "Point", "coordinates": [-98.027959, 43.7346864]}, "properties": {"addr:city": "Mitchell", "addr:housenumber": "2601", "addr:postcode": "57301", "addr:state": "SD", "addr:street": "North Main Street", "fee": "yes", "name": "Lake Mitchell Campground", "tourism": "camp_site", "website": "https://www.cityofmitchell.org/448/Lake-Mitchell-Campground", "osm_id": 836614703}}, {"type": "Feature", "geometry": {"type": "Point", "coordinates": [-101.1483322, 43.8906248]}, "properties": {"addr:city": "Midland", "addr:country": "US", "addr:housenumber": "24201", "addr:postcode": "57552", "addr:state": "SD", "addr:street": "South Dakota Highway 63", "backcountry": "no", "brand": "KOA", "brand:wikidata": "Q16988635", "caravans": "yes", "email": "belvidere@koa.com", "group_only": "no", "internet_access": "wlan", "internet_access:fee": "no", "name": "Belvidere East / Exit 170 KOA", "opening_hours": "09:00-21:00", "operator": "KOA", "phone": "+1 605 344 2247", "reservation": "recommended", "sanitary_dump_station": "customers", "tents": "yes", "tourism": "caravan_site", "website": "https://koa.com/campgrounds/belvidere", "osm_id": 847583054}}, {"type": "Feature", "geometry": {"type": "Point", "coordinates": [-103.5137737, 43.9523246]}, "properties": {"addr:city": "Hill City", "addr:housenumber": "23821", "addr:postcode": "57745", "addr:state": "SD", "addr:street": "Highway 385", "name": "Three Forks Campground", "owner": "Jesse Dejong", "phone": "+1 605-574-4546", "tourism": "camp_site", "website": "https://www.threeforkscampgroundsd.com/", "osm_id": 928731813}}, {"type": "Feature", "geometry": {"type": "Point", "coordinates": [-103.3954293, 43.4081614]}, "properties": {"addr:city": "Hot Springs", "addr:country": "US", "addr:housenumber": "27585", "addr:postcode": "57747", "addr:state": "SD", "addr:street": "SD 79", "brand": "KOA", "brand:wikidata": "Q16988635", "camp_site": "deluxe", "caravans": "yes", "internet_access": "wlan", "internet_access:fee": "customers", "name": "KOA Holiday", "operator": "Hot Springs KOA", "power_supply": "yes", "sanitary_dump_station": "customers", "short_name": "KOA", "tents": "yes", "tourism": "caravan_site", "osm_id": 966347379}}, {"type": "Feature", "geometry": {"type": "Point", "coordinates": [-96.782596, 43.5420036]}, "properties": {"addr:city": "Sioux Falls", "addr:housenumber": "4609", "addr:postcode": "57106", "addr:state": "SD", "addr:street": "West 12th Street", "name": "Tower Campground", "tourism": "caravan_site", "osm_id": 1043114206}}, {"type": "Feature", "geometry": {"type": "Point", "coordinates": [-96.9843251, 44.4450172]}, "properties": {"tourism": "camp_site", "osm_id": 1076973853}}, {"type": "Feature", "geometry": {"type": "Point", "coordinates": [-100.4563036, 45.5616721]}, "properties": {"name": "Country Cabins RV Park", "tourism": "caravan_site", "osm_id": 1078670604}}, {"type": "Feature", "geometry": {"type": "Point", "coordinates": [-100.4468377, 45.562185]}, "properties": {"ele": "517", "gnis:feature_id": "1253883", "name": "Bethel Bible Camp", "tourism": "camp_site", "osm_id": 1078670605}}, {"type": "Feature", "geometry": {"type": "Point", "coordinates": [-103.4514376, 44.4589173]}, "properties": {"name": "Bear Butte Campground", "tourism": "camp_site", "osm_id": 1078834356}}, {"type": "Feature", "geometry": {"type": "Point", "coordinates": [-98.2309194, 44.3606873]}, "properties": {"tourism": "caravan_site", "osm_id": 1079047185}}, {"type": "Feature", "geometry": {"type": "Point", "coordinates": [-103.6133426, 43.7585426]}, "properties": {"name": "Buffalo Ridge Camp Resort", "tourism": "camp_site", "osm_id": 1080852287}}, {"type": "Feature", "geometry": {"type": "Point", "coordinates": [-103.5435705, 43.7656594]}, "properties": {"caravans": "yes", "name": "Custer's Gulch RV Park and Campground", "sanitary_dump_station": "yes", "tents": "yes", "tourism": "camp_site", "website": "https://custersgulch.com/", "osm_id": 1080854206}}, {"type": "Feature", "geometry": {"type": "Point", "coordinates": [-103.2553384, 44.0026034]}, "properties": {"addr:city": "Rapid City", "addr:housenumber": "2200", "addr:postcode": "57702", "addr:state": "SD", "addr:street": "Fort Hayes Drive", "email": "rcrvsouth@gmail.com", "internet_access": "yes", "internet_access:fee": "yes", "internet_access:ssid": "RCRV Guest WiFi", "name": "Rapid City South RV Park", "phone": "+1-605-343-6319", "power_supply": "yes", "reservation": "recommended", "sanitary_dump_station": "customers", "smoking": "outside", "tourism": "caravan_site", "website": "https://rcrvsouth.com/", "osm_id": 1082217852}}, {"type": "Feature", "geometry": {"type": "Point", "coordinates": [-103.2432687, 44.0436004]}, "properties": {"addr:city": "Rapid City", "addr:housenumber": "4110", "addr:postcode": "57701", "addr:state": "SD", "addr:street": "Mount Rushmore Road", "charge": "48.5 USD/night", "email": "rcrvpark@gmail.com", "fee": "yes", "internet_access": "yes", "internet_access:fee": "customers", "internet_access:ssid": "RCRV Guest WiFi", "name": "Rapid City RV Park & Campground", "phone": "+1-605-342-2751", "power_supply": "yes", "reservation": "required", "sanitary_dump_station": "yes", "tourism": "caravan_site", "website": "https://rcrvpark.com/", "osm_id": 1082601699}}, {"type": "Feature", "geometry": {"type": "Point", "coordinates": [-97.713001, 43.1502765]}, "properties": {"addr:city": "Scotland", "addr:state": "SD", "capacity": "12", "fee": "yes", "name": "Scotland Campground", "phone": "+1 605-464-0238", "tourism": "camp_site", "osm_id": 1084353659}}, {"type": "Feature", "geometry": {"type": "Point", "coordinates": [-100.5701244, 42.9318819]}, "properties": {"addr:housenumber": "90440", "email": "fishberrycampground@gmail.com", "fee": "yes", "name": "Fishberry Campground", "phone": "+1-402-376-1662", "tourism": "camp_site", "website": "https://www.fishberrycamp.com/", "osm_id": 1084368873}}, {"type": "Feature", "geometry": {"type": "Point", "coordinates": [-100.2754457, 44.3428428]}, "properties": {"tourism": "camp_site", "osm_id": 1085020265}}, {"type": "Feature", "geometry": {"type": "Point", "coordinates": [-100.2632811, 44.343712]}, "properties": {"tourism": "camp_site", "osm_id": 1085021355}}, {"type": "Feature", "geometry": {"type": "Point", "coordinates": [-100.4082979, 44.1477093]}, "properties": {"name": "Pierre National Grassland", "operator": "Pierre National Grassland", "tourism": "camp_site", "osm_id": 1134933877}}, {"type": "Feature", "geometry": {"type": "Point", "coordinates": [-101.9498353, 43.7433755]}, "properties": {"capacity": "96", "charge": "37 USD", "fee": "yes", "name": "Cedar Pass Campground", "phone": "+1 605-433-5361", "power_supply": "yes", "reservation": "yes", "shower": "yes", "tourism": "camp_site", "osm_id": 1134933878}}, {"type": "Feature", "geometry": {"type": "Point", "coordinates": [-103.6111703, 43.8779528]}, "properties": {"addr:city": "Hill CXity", "addr:state": "SD", "capacity": "24", "caravans": "yes", "charge": "20 USD", "fee": "yes", "name": "Oreville Campground", "operator": "USFS", "reservation": "yes", "tents": "yes", "toilets": "vault", "tourism": "camp_site", "osm_id": 1134933890}}, {"type": "Feature", "geometry": {"type": "Point", "coordinates": [-103.5565963, 43.8395934]}, "properties": {"fee": "yes", "fee:amount": "$21 per site, $25 per electric site", "name": "Sylvan Lake Campground", "opening_hours": "May 27-Sep 30 00:00-24:00", "operator": "Custer State Park", "phone:booking": "+1-800-710-2267", "tourism": "camp_site", "website": "https://www.gfp.sd.gov/state-parks/directory/custer/campgrounds/sylvan-lake/", "osm_id": 1134933899}}, {"type": "Feature", "geometry": {"type": "Point", "coordinates": [-103.5860979, 43.783433]}, "properties": {"addr:housenumber": "24992", "addr:postcode": "57730", "addr:street": "Sylvan Lake Road", "name": "Fort Welikit Family Campground", "phone": "+1 605-673-3600", "tourism": "camp_site", "website": "https://www.blackhillsrv.com/", "osm_id": 1134933906}}, {"type": "Feature", "geometry": {"type": "Point", "coordinates": [-103.4015885, 43.7768834]}, "properties": {"name": "Grace Coolidge Campground", "operator": "Custer State Park", "tourism": "camp_site", "osm_id": 1134933907}}, {"type": "Feature", "geometry": {"type": "Point", "coordinates": [-103.483962, 43.8955584]}, "properties": {"addr:city": "Keystone", "addr:state": "SD", "capacity": "36", "caravans": "yes", "charge": "26 USD", "fee": "yes", "name": "Horse Thief Lake Campground", "operator": "USFS", "reservation": "yes", "seasonal": "spring/summer", "tents": "yes", "toilets": "yes", "tourism": "camp_site", "osm_id": 1134933908}}, {"type": "Feature", "geometry": {"type": "Point", "coordinates": [-103.4730122, 43.8269012]}, "properties": {"capacity": "10", "caravans": "yes", "name": "Iron Creek Horse Camp", "operator": "United States Forest Service", "reservation": "yes", "tents": "yes", "tourism": "camp_site", "osm_id": 1186895079}}, {"type": "Feature", "geometry": {"type": "Point", "coordinates": [-103.4815275, 43.7188943]}, "properties": {"capacity": "34", "caravans": "yes", "name": "Blue Bell Campground", "operator": "Custer State Park", "tents": "yes", "tourism": "camp_site", "osm_id": 1219109135}}, {"type": "Feature", "geometry": {"type": "Point", "coordinates": [-96.4871658, 42.5338605]}, "properties": {"tourism": "caravan_site", "osm_id": 1235349928}}, {"type": "Feature", "geometry": {"type": "Point", "coordinates": [-103.4816703, 43.449045]}, "properties": {"caravans": "yes", "tourism": "camp_site", "osm_id": 1241448107}}, {"type": "Feature", "geometry": {"type": "Point", "coordinates": [-103.5227484, 43.7713959]}, "properties": {"name": "Stockade Lake North Campground", "operator": "Custer State Park", "tourism": "camp_site", "osm_id": 1250876956}}, {"type": "Feature", "geometry": {"type": "Point", "coordinates": [-103.5393056, 43.7710977]}, "properties": {"caravans": "yes", "name": "Gold Valley Camp", "tourism": "camp_site", "osm_id": 1250876987}}, {"type": "Feature", "geometry": {"type": "Point", "coordinates": [-103.1660924, 44.069356]}, "properties": {"alt_name": "KOA Campground", "brand": "KOA", "brand:wikidata": "Q16988635", "name": "KOA Kampground", "short_name": "KOA", "tourism": "caravan_site", "osm_id": 1290318697}}, {"type": "Feature", "geometry": {"type": "Point", "coordinates": [-103.1925504, 44.0777204]}, "properties": {"addr:city": "Rapid City", "addr:state": "SD", "capacity": "225", "charge": "35 USD", "fee": "yes", "name": "Central States Fairgrounds", "phone": "+1 605-355-3861", "power_supply": "yes", "reservation": "yes", "tourism": "camp_site", "osm_id": 1291785369}}, {"type": "Feature", "geometry": {"type": "Point", "coordinates": [-96.7977386, 43.543394]}, "properties": {"addr:city": "Sioux Falls", "addr:housenumber": "5801", "addr:postcode": "57106", "addr:state": "SD", "addr:street": "West 12th Street", "name": "Westwick Motel and Campground", "tourism": "caravan_site", "osm_id": 1298993323}}, {"type": "Feature", "geometry": {"type": "Point", "coordinates": [-98.3552485, 44.8851614]}, "properties": {"addr:city": "Frankfort", "addr:housenumber": "17290", "addr:postcode": "57440", "addr:state": "SD", "addr:street": "Fishers Lane", "caravans": "yes", "fee": "yes", "name": "Fisher Grove State Park", "operator": "South Dakota Game, Fish and Parks", "phone": "+1-605-626-3488", "tents": "yes", "tourism": "camp_site", "website": "https://gfp.sd.gov/parks/detail/fisher-grove-state-park/", "osm_id": 1299085316}}, {"type": "Feature", "geometry": {"type": "Point", "coordinates": [-102.2301627, 43.9013288]}, "properties": {"camp_site": "basic", "caravans": "yes", "drinking_water": "no", "fee": "no", "name": "Buffalo Gap National Grassland", "static_caravans": "no", "tents": "yes", "toilets": "no", "tourism": "camp_site", "osm_id": 1299398879}}, {"type": "Feature", "geometry": {"type": "Point", "coordinates": [-103.1506254, 42.6786645]}, "properties": {"tourism": "camp_site", "osm_id": 1300131302}}, {"type": "Feature", "geometry": {"type": "Point", "coordinates": [-103.5714402, 43.4396149]}, "properties": {"name": "Cottonwood Springs Campground", "operator": "Army Corps of Engineers", "tourism": "camp_site", "osm_id": 1307470371}}, {"type": "Feature", "geometry": {"type": "Point", "coordinates": [-97.4590328, 42.87404]}, "properties": {"tourism": "caravan_site", "osm_id": 1308303705}}, {"type": "Feature", "geometry": {"type": "Point", "coordinates": [-103.8541332, 44.680611]}, "properties": {"access": "yes", "amenity": "parking", "caravan_site": "motorhome_stopover", "tourism": "caravan_site", "osm_id": 1309989683}}, {"type": "Feature", "geometry": {"type": "Point", "coordinates": [-103.5355926, 44.4212372]}, "properties": {"name": "Days End Campground", "tourism": "camp_site", "osm_id": 1312089305}}, {"type": "Feature", "geometry": {"type": "Point", "coordinates": [-103.4675818, 44.3637769]}, "properties": {"addr:city": "Sturgis", "addr:housenumber": "20899", "addr:postcode": "57785", "addr:state": "SD", "addr:street": "Pleasant Valley Drive", "caravans": "yes", "drinking_water": "yes", "fee": "yes", "name": "No Name City Luxury Cabins & RV, LLC", "phone": "+1-605-347-8891", "power_supply": "yes", "sanitary_dump_station": "yes", "shower": "yes", "static_caravans": "no", "tents": "yes", "toilets": "yes", "tourism": "camp_site", "website": "https://nonamecity.com/", "osm_id": 1312115222}}, {"type": "Feature", "geometry": {"type": "Point", "coordinates": [-103.7534328, 44.3941985]}, "properties": {"camp_site": "basic", "drinking_water": "no", "fee": "no", "impromptu": "yes", "openfire": "no", "power_supply": "no", "static_caravans": "no", "toilets": "no", "tourism": "camp_site", "osm_id": 1312123644}}, {"type": "Feature", "geometry": {"type": "Point", "coordinates": [-103.7605284, 44.3872556]}, "properties": {"camp_site": "basic", "drinking_water": "no", "fee": "no", "impromptu": "yes", "openfire": "no", "power_supply": "no", "static_caravans": "no", "toilets": "no", "tourism": "camp_site", "osm_id": 1312123646}}, {"type": "Feature", "geometry": {"type": "Point", "coordinates": [-103.7639541, 44.3851127]}, "properties": {"camp_site": "basic", "drinking_water": "no", "fee": "no", "impromptu": "yes", "openfire": "no", "power_supply": "no", "static_caravans": "no", "toilets": "no", "tourism": "camp_site", "osm_id": 1312123647}}, {"type": "Feature", "geometry": {"type": "Point", "coordinates": [-97.6030057, 42.8688944]}, "properties": {"group_only": "yes", "name": "Crazy Horse", "tourism": "camp_site", "osm_id": 1314714748}}, {"type": "Feature", "geometry": {"type": "Point", "coordinates": [-102.245697, 43.9920578]}, "properties": {"tourism": "camp_site", "osm_id": 1317681059}}, {"type": "Feature", "geometry": {"type": "Point", "coordinates": [-103.8219178, 44.6205896]}, "properties": {"addr:city": "Belle Fourche", "addr:housenumber": "11144", "addr:state": "SD", "addr:street": "SD-34", "name": "Best Black Hills Camprounds", "phone": "+1 605-892-0600", "tourism": "camp_site", "osm_id": 1317926132}}, {"type": "Feature", "geometry": {"type": "Point", "coordinates": [-102.243316, 43.9964493]}, "properties": {"caravans": "yes", "name": "Sleepy Hollow Campground & RV Park", "tourism": "camp_site", "osm_id": 1317974074}}, {"type": "Feature", "geometry": {"type": "Point", "coordinates": [-101.9294812, 43.6918943]}, "properties": {"addr:city": "Interior", "addr:housenumber": "20720", "addr:postcode": "57750", "addr:state": "SD", "addr:street": "SD Highway 44", "brand": "KOA", "brand:wikidata": "Q16988635", "email": "info@badlandskoa.com", "internet_access": "wlan", "name": "Badlands/White River KOA Holiday", "opening_hours": "April 24-October 12 open", "phone": "+1 800 562 3897", "power_supply": "yes", "sanitary_dump_station": "yes", "short_name": "KOA", "tourism": "caravan_site", "website": "https://koa.com/campgrounds/badlands/", "osm_id": 1319709874}}, {"type": "Feature", "geometry": {"type": "Point", "coordinates": [-104.0676327, 44.0868858]}, "properties": {"capacity:caravans": "8", "caravans": "yes", "name": "Mallo Campground", "shower": "yes", "toilets": "yes", "tourism": "camp_site", "website": "https://www.mallocamp.com/camping", "osm_id": 1319940371}}, {"type": "Feature", "geometry": {"type": "Point", "coordinates": [-104.0504351, 44.0753583]}, "properties": {"name": "Beaver Creek Campground", "operator": "Black Hills National Forest", "tourism": "camp_site", "osm_id": 1319940391}}, {"type": "Feature", "geometry": {"type": "Point", "coordinates": [-99.2351848, 43.138166]}, "properties": {"name": "Captain Zippy's Campground", "tourism": "camp_site", "osm_id": 1332705101}}, {"type": "Feature", "geometry": {"type": "Point", "coordinates": [-100.7096389, 43.8851211]}, "properties": {"name": "American Inn & RV Park", "tourism": "caravan_site", "osm_id": 1333247026}}, {"type": "Feature", "geometry": {"type": "Point", "coordinates": [-98.5601441, 43.0846756]}, "properties": {"tourism": "caravan_site", "osm_id": 1337272149}}, {"type": "Feature", "geometry": {"type": "Point", "coordinates": [-98.5376155, 43.068017]}, "properties": {"tourism": "caravan_site", "osm_id": 1337272150}}, {"type": "Feature", "geometry": {"type": "Point", "coordinates": [-103.4110777, 43.3192349]}, "properties": {"tourism": "camp_site", "osm_id": 1337802619}}, {"type": "Feature", "geometry": {"type": "Point", "coordinates": [-103.4144002, 43.3396214]}, "properties": {"tourism": "caravan_site", "osm_id": 1337803666}}, {"type": "Feature", "geometry": {"type": "Point", "coordinates": [-103.4006531, 43.3018657]}, "properties": {"tourism": "camp_site", "osm_id": 1337807354}}, {"type": "Feature", "geometry": {"type": "Point", "coordinates": [-103.4544006, 43.2970658]}, "properties": {"tourism": "camp_site", "osm_id": 1337993199}}, {"type": "Feature", "geometry": {"type": "Point", "coordinates": [-103.4727794, 43.4506955]}, "properties": {"name": "Sunrise Ridge Campground", "tourism": "camp_site", "osm_id": 1338003971}}, {"type": "Feature", "geometry": {"type": "Point", "coordinates": [-103.4921831, 43.4623206]}, "properties": {"tourism": "camp_site", "osm_id": 1338004564}}, {"type": "Feature", "geometry": {"type": "Point", "coordinates": [-103.6097743, 43.7358455]}, "properties": {"tourism": "caravan_site", "osm_id": 1338016317}}, {"type": "Feature", "geometry": {"type": "Point", "coordinates": [-103.6439977, 43.7501324]}, "properties": {"addr:housenumber": "12084", "addr:postcode": "57730", "addr:street": "Big Pine Road", "email": "bigpine@gwtc.net", "name": "Big Pine Campground", "phone": "+1 605-673-4054", "tourism": "camp_site", "website": "http://bigpinecampiground.com", "osm_id": 1338017692}}, {"type": "Feature", "geometry": {"type": "Point", "coordinates": [-103.6546915, 43.7406717]}, "properties": {"brand": "KOA", "brand:wikidata": "Q16988635", "internet_access": "wlan", "name": "KOA", "short_name": "KOA", "tourism": "caravan_site", "osm_id": 1338017955}}, {"type": "Feature", "geometry": {"type": "Point", "coordinates": [-103.6563087, 43.7386408]}, "properties": {"tourism": "camp_site", "osm_id": 1338017956}}, {"type": "Feature", "geometry": {"type": "Point", "coordinates": [-103.7356403, 43.7428148]}, "properties": {"tourism": "camp_site", "osm_id": 1338021864}}, {"type": "Feature", "geometry": {"type": "Point", "coordinates": [-103.7130449, 43.7341696]}, "properties": {"addr:city": "Custer", "addr:state": "SD", "capacity": "34", "capacity:tents": "12", "caravans": "yes", "charge": "24 USD", "fee": "yes", "name": "Comanche Park Campground", "operator": "USFS", "phone": "+1 605-574-4402", "reservation": "yes", "seasonal": "spring;summer;autumn", "tents": "yes", "toilets": "vault", "tourism": "camp_site", "osm_id": 1338022294}}, {"type": "Feature", "geometry": {"type": "Point", "coordinates": [-103.6121081, 43.777301]}, "properties": {"tourism": "camp_site", "osm_id": 1338061367}}, {"type": "Feature", "geometry": {"type": "Point", "coordinates": [-103.600331, 43.764583]}, "properties": {"tourism": "caravan_site", "osm_id": 1338064279}}, {"type": "Feature", "geometry": {"type": "Point", "coordinates": [-103.6738117, 43.7322374]}, "properties": {"tourism": "caravan_site", "osm_id": 1338073164}}, {"type": "Feature", "geometry": {"type": "Point", "coordinates": [-103.5619399, 43.9329992]}, "properties": {"tourism": "caravan_site", "osm_id": 1338076440}}, {"type": "Feature", "geometry": {"type": "Point", "coordinates": [-99.3875486, 43.801625]}, "properties": {"name": "Oasis Campground", "phone": "+1-605-234-6959", "source": "Bing", "tourism": "caravan_site", "osm_id": 1342449531}}, {"type": "Feature", "geometry": {"type": "Point", "coordinates": [-99.8671797, 43.9015188]}, "properties": {"alt_name": "KOA Campground", "brand": "KOA", "brand:wikidata": "Q16988635", "name": "KOA Kampground", "short_name": "KOA", "tourism": "caravan_site", "osm_id": 1342948672}}, {"type": "Feature", "geometry": {"type": "Point", "coordinates": [-100.3108658, 42.8919025]}, "properties": {"tourism": "camp_site", "osm_id": 1364839948}}, {"type": "Feature", "geometry": {"type": "Point", "coordinates": [-98.7193181, 43.7169838]}, "properties": {"name": "White Lake Lodge and RV Campground", "tourism": "caravan_site", "osm_id": 1370423046}}, {"type": "Feature", "geometry": {"type": "Point", "coordinates": [-99.1065926, 43.3948742]}, "properties": {"tourism": "caravan_site", "osm_id": 1382782099}}, {"type": "Feature", "geometry": {"type": "Point", "coordinates": [-98.5248933, 45.4938366]}, "properties": {"tourism": "camp_site", "osm_id": 1386144735}}, {"type": "Feature", "geometry": {"type": "Point", "coordinates": [-98.5240465, 45.4895187]}, "properties": {"tourism": "camp_site", "osm_id": 1386144736}}, {"type": "Feature", "geometry": {"type": "Point", "coordinates": [-100.3883663, 44.4239704]}, "properties": {"name": "Campground 3", "ref": "3", "tourism": "camp_site", "osm_id": 1390211293}}, {"type": "Feature", "geometry": {"type": "Point", "coordinates": [-100.3912221, 44.434501]}, "properties": {"name": "Campground 1", "ref": "1", "tourism": "camp_site", "osm_id": 1390211296}}, {"type": "Feature", "geometry": {"type": "Point", "coordinates": [-100.3887844, 44.4318493]}, "properties": {"name": "Campground 2", "ref": "2", "tourism": "camp_site", "osm_id": 1390211297}}, {"type": "Feature", "geometry": {"type": "Point", "coordinates": [-96.5259956, 42.5746084]}, "properties": {"tourism": "camp_site", "website": "https://parkjeffcampground.com/", "osm_id": 1414344988}}, {"type": "Feature", "geometry": {"type": "Point", "coordinates": [-99.308421, 43.768012]}, "properties": {"addr:city": "Chamberlain", "addr:housenumber": "2010", "addr:postcode": "57325", "addr:state": "SD", "addr:street": "East King Avenue", "capacity": "155", "caravans": "yes", "name": "Happy Campers Campground", "phone": "+1-605-734-4050", "tourism": "camp_site", "website": "http://www.happycamperscampground.com/", "osm_id": 1429831889}}, {"type": "Feature", "geometry": {"type": "Point", "coordinates": [-103.1764524, 45.5275469]}, "properties": {"access": "yes", "camp_site": "basic", "fee": "no", "name": "Reva Gap Campground", "operator": "United States Forest Service", "tourism": "camp_site", "osm_id": 1436495757}}, {"type": "Feature", "geometry": {"type": "Point", "coordinates": [-101.8977082, 43.8333517]}, "properties": {"name": "Circle 10 Campground & RV Park", "tourism": "caravan_site", "osm_id": 1463570156}}, {"type": "Feature", "geometry": {"type": "Point", "coordinates": [-103.8576591, 44.479788]}, "properties": {"addr:city": "Spearfish", "addr:housenumber": "404", "addr:postcode": "57783", "addr:state": "SD", "addr:street": "South Canyon Street", "capacity": "211", "capacity:caravans": "62", "caravans": "yes", "drinking_water": "yes", "fee": "yes", "fee_zone": "$25-$45", "name": "Spearfish City Campground", "operator": "City of Spearfish", "phone": "+1 605-642-1340", "power_supply": "yes", "reservation": "yes", "shower": "yes", "source": "https://www.cityofspearfish.com/Facilities/Facility/Details/Spearfish-City-Campground-1", "tents": "yes", "toilets": "yes", "tourism": "camp_site", "type": "multipolygon", "osm_id": 3535934}}, {"type": "Feature", "geometry": {"type": "Point", "coordinates": [-104.0938181, 44.5453704]}, "properties": {"tourism": "camp_site", "type": "multipolygon", "osm_id": 3537530}}, {"type": "Feature", "geometry": {"type": "Point", "coordinates": [-103.735173, 44.4705384]}, "properties": {"addr:city": "Spearfish", "addr:housenumber": "20189", "addr:postcode": "57783", "addr:state": "SD", "addr:street": "US Highway 85", "name": "Elkhorn Ridge Campground", "tourism": "camp_site", "type": "multipolygon", "osm_id": 3556146}}, {"type": "Feature", "geometry": {"type": "Point", "coordinates": [-103.8674236, 44.5169192]}, "properties": {"brand": "KOA", "brand:wikidata": "Q16988635", "name": "KOA", "short_name": "KOA", "tourism": "caravan_site", "type": "multipolygon", "osm_id": 3615817}}, {"type": "Feature", "geometry": {"type": "Point", "coordinates": [-103.4082969, 44.4166227]}, "properties": {"name": "Buffalo Chip", "tourism": "camp_site", "type": "multipolygon", "osm_id": 5768421}}, {"type": "Feature", "geometry": {"type": "Point", "coordinates": [-103.9308412, 44.5246563]}, "properties": {"name": "Broken Boot Campground", "tourism": "camp_site", "type": "multipolygon", "osm_id": 5943087}}, {"type": "Feature", "geometry": {"type": "Point", "coordinates": [-103.5835986, 42.8571365]}, "properties": {"name": "Toadstool Geological Park and Campground", "source": "Bing", "tourism": "camp_site", "type": "multipolygon", "website": "https://www.fs.usda.gov/recarea/nebraska/recarea/?recid=10616", "osm_id": 11241991}}, {"type": "Feature", "geometry": {"type": "Point", "coordinates": [-100.4837917, 45.5662564]}, "properties": {"name": "Grand River Casino Campground", "static_caravans": "yes", "tourism": "camp_site", "type": "multipolygon", "osm_id": 14353978}}, {"type": "Feature", "geometry": {"type": "Point", "coordinates": [-103.5031451, 44.0654962]}, "properties": {"addr:city": "Rapid City", "addr:state": "SD", "charge": "26 USD", "drinking_water": "seasonal", "fee": "yes", "name": "Pactola Campground", "operator": "USFS", "tents": "yes", "toilets": "vault", "tourism": "camp_site", "type": "multipolygon", "osm_id": 15360388}}, {"type": "Feature", "geometry": {"type": "Point", "coordinates": [-103.4734667, 43.9687713]}, "properties": {"addr:city": "Hill City", "addr:state": "SD", "capacity": "129", "charge": "26 USD", "drinking_water": "seasonal", "fee": "yes", "name": "Sheridan Lake South Shore Campground", "tents": "yes", "toilets": "vault", "tourism": "camp_site", "type": "multipolygon", "osm_id": 15360389}}, {"type": "Feature", "geometry": {"type": "Point", "coordinates": [-103.5783607, 43.9244492]}, "properties": {"addr:city": "Hill City", "addr:housenumber": "24024", "addr:state": "SD", "addr:street": "Main Street", "name": "Black Hills Trailside Park Resort", "phone": "+1 605-574-9079", "tourism": "caravan_site", "type": "multipolygon", "osm_id": 15360390}}, {"type": "Feature", "geometry": {"type": "Point", "coordinates": [-96.7075113, 43.8195963]}, "properties": {"access": "yes", "addr:city": "Dell Rapids", "addr:housenumber": "600", "addr:postcode": "57022", "addr:state": "SD", "addr:street": "Zero Street", "name": "Dell Rapids Campground", "tourism": "camp_site", "type": "multipolygon", "osm_id": 15842692}}, {"type": "Feature", "geometry": {"type": "Point", "coordinates": [-103.729442, 43.9015873]}, "properties": {"access": "private", "addr:city": "Custer", "addr:country": "US", "addr:housenumber": "24201", "addr:postcode": "57730-6503", "addr:state": "SD", "addr:street": "Bobcat Road", "name": "Medicine Mountain Scout Ranch", "tourism": "camp_site", "type": "multipolygon", "osm_id": 16775477}}, {"type": "Feature", "geometry": {"type": "Point", "coordinates": [-103.5850301, 43.8711511]}, "properties": {"name": "Horse Thief Campground & Resort", "tourism": "camp_site", "type": "multipolygon", "osm_id": 16778881}}, {"type": "Feature", "geometry": {"type": "Point", "coordinates": [-103.5351609, 43.9048904]}, "properties": {"addr:city": "Hill City", "addr:housenumber": "12620", "addr:postcode": "57745", "addr:state": "SD", "addr:street": "Highway 244", "brand": "KOA", "brand:wikidata": "Q16988635", "name": "Mount Rushmore KOA Resort at Palmer Gulch Resort", "short_name": "KOA", "tourism": "caravan_site", "type": "multipolygon", "osm_id": 16778885}}, {"type": "Feature", "geometry": {"type": "Point", "coordinates": [-96.7383747, 43.7652861]}, "properties": {"name": "River Park Campground", "tourism": "camp_site", "type": "multipolygon", "osm_id": 17153210}}, {"type": "Feature", "geometry": {"type": "Point", "coordinates": [-96.501774, 42.5359773]}, "properties": {"addr:city": "North Sioux City", "addr:housenumber": "675", "addr:postcode": "57049", "addr:state": "SD", "addr:street": "Streeter Drive", "brand": "KOA", "brand:wikidata": "Q16988635", "name": "KOA Holiday Sioux City North", "short_name": "KOA", "tourism": "caravan_site", "type": "multipolygon", "osm_id": 17294628}}, {"type": "Feature", "geometry": {"type": "Point", "coordinates": [-98.4838158, 43.7081368]}, "properties": {"addr:housenumber": "608", "addr:postcode": "57368", "addr:street": "South Main Street", "contact:phone": "+1 605-770-0300", "name": "Hill's RV Park & Campground", "source": "Bing", "tourism": "caravan_site", "type": "multipolygon", "osm_id": 17922509}}, {"type": "Feature", "geometry": {"type": "Point", "coordinates": [-97.4636542, 44.320402]}, "properties": {"addr:city": "Lake Preston", "addr:housenumber": "1730", "addr:postcode": "57249", "addr:state": "SD", "addr:street": "Twin Lakes Road", "caravans": "yes", "name": "Martens Campground", "tourism": "camp_site", "type": "multipolygon", "osm_id": 18372621}}, {"type": "Feature", "geometry": {"type": "Point", "coordinates": [-97.4627981, 44.323474]}, "properties": {"addr:city": "Lake Preston", "addr:housenumber": "2012", "addr:postcode": "57249", "addr:state": "SD", "addr:street": "McMasters Ridge Road", "name": "Lake Henry Campground", "tourism": "caravan_site", "type": "multipolygon", "osm_id": 18374964}}, {"type": "Feature", "geometry": {"type": "Point", "coordinates": [-103.3718566, 44.2180266]}, "properties": {"addr:city": "Piedmont", "addr:housenumber": "14240", "addr:postcode": "57769", "addr:state": "SD", "addr:street": "Sturgis Road", "caravans": "yes", "drinking_water": "yes", "email": "info@blackhillsstation.com", "fee": "yes", "name": "Black Hills Station RV & Campground", "phone": "+1-605-787-9797", "power_supply": "yes", "shower": "yes", "static_caravans": "no", "tents": "yes", "tourism": "camp_site", "type": "multipolygon", "website": "https://blackhillsstation.com/", "osm_id": 18484588}}, {"type": "Feature", "geometry": {"type": "Point", "coordinates": [-103.392996, 43.2978533]}, "properties": {"tourism": "camp_site", "type": "multipolygon", "osm_id": 18511168}}, {"type": "Feature", "geometry": {"type": "Point", "coordinates": [-97.3695249, 44.3595648]}, "properties": {"capacity:motorhome": "17", "caravans": "only", "contact:phone": "+1 605 847-4140", "contact:website": "https://lakeprestonsd.com/campground", "fee": "yes", "name": "City Campground", "reservation": "required", "tourism": "camp_site", "type": "multipolygon", "osm_id": 18693075}}, {"type": "Feature", "geometry": {"type": "Point", "coordinates": [-97.2390635, 45.7407018]}, "properties": {"name": "Sica Hollow State Park Campground", "tourism": "camp_site", "type": "multipolygon", "osm_id": 19236269}}, {"type": "Feature", "geometry": {"type": "Point", "coordinates": [-96.4347849, 44.5064682]}, "properties": {"addr:city": "Hendricks", "addr:postcode": "56136", "addr:state": "MN", "capacity": "27", "charge": "25 USD", "description": "$18-$25", "fee": "yes", "motor_vehicle": "yes", "name": "Lake Hendricks Campground", "note": "Currently undergoing construction to campground; area should likely encompass expansion.", "tents": "yes", "tourism": "camp_site", "type": "multipolygon", "website": "http://www.hendricksmn.com/HendricksCampGrounds.asp", "osm_id": 19672607}}]}