{"type": "FeatureCollection", "features": [{"type": "Feature", "geometry": {"type": "Point", "coordinates": [-122.0706905, 48.974095]}, "properties": {"access": "yes", "backcountry": "no", "camp_site": "standard", "capacity:persons": "90", "capacity:tents": "15", "caravans": "no", "fee": "yes", "name": "Silver Lake Park - Cedar Campground", "openfire": "yes", "operator": "Whatcom County", "static_caravans": "no", "tents": "yes", "tourism": "camp_site", "type": "multipolygon", "website": "https://www.whatcomcounty.us/3518/Camping-at-Silver-Lake-Park", "osm_id": 1380032043}}, {"type": "Feature", "geometry": {"type": "Point", "coordinates": [-122.0721631, 48.9659563]}, "properties": {"access": "yes", "area": "yes", "backcountry": "no", "camp_site": "standard", "capacity:caravans": "15", "capacity:persons": "90", "caravans": "yes", "fee": "yes", "group_only": "yes", "name": "Silver Lake Park - Group Camp", "openfire": "yes", "operator": "Whatcom County", "static_caravans": "no", "tents": "yes", "tourism": "camp_site", "type": "multipolygon", "website": "https://www.whatcomcounty.us/3518/Camping-at-Silver-Lake-Park", "osm_id": 1380032044}}, {"type": "Feature", "geometry": {"type": "Point", "coordinates": [-124.1722783, 48.8346837]}, "properties": {"leisure": "park", "name": "Bald Mountain Recreation Site", "ref:FFID": "REC0208", "source": "DataBC - Recreation Polygon", "tourism": "camp_site", "type": "multipolygon", "website": "https://www.sitesandtrailsbc.ca/search/search-result.aspx?site=REC0208&type=Site", "osm_id": 2240359}}, {"type": "Feature", "geometry": {"type": "Point", "coordinates": [-123.4448363, 48.4605238]}, "properties": {"charge": "$90 (incl. taxes) full service", "fee": "yes", "internet_access": "wlan", "internet_access:fee": "yes", "name": "Fort Victoria RV Park", "permanent_camping": "yes", "power_supply": "yes", "sanitary_dump_station": "yes", "toilets": "yes", "tourism": "caravan_site", "type": "multipolygon", "website": "https://fortvictoria.ca/", "osm_id": 2569490}}, {"type": "Feature", "geometry": {"type": "Point", "coordinates": [-123.7384668, 48.4618222]}, "properties": {"capacity": "67", "caravans": "yes", "internet_access": "no", "name": "Spring Salmon Place Campground", "operator": "T\u2019Sou-ke Nation", "sanitary_dump_station": "no", "seasonal": "yes", "smoking": "no", "tents": "yes", "tourism": "camp_site", "type": "multipolygon", "osm_id": 2742794}}, {"type": "Feature", "geometry": {"type": "Point", "coordinates": [-122.1136003, 47.5771539]}, "properties": {"access": "private", "addr:city": "Bellevue", "addr:housenumber": "3560", "addr:postcode": "98008", "addr:state": "WA", "addr:street": "West Lake Sammamish Parkway Southeast", "fee": "yes", "name": "Vasa Park Resort", "tourism": "camp_site", "type": "multipolygon", "website": "https://www.vasaparkresorteventcenter.com/", "osm_id": 3113613}}, {"type": "Feature", "geometry": {"type": "Point", "coordinates": [-123.8551255, 47.9650399]}, "properties": {"access": "yes", "backcountry": "no", "caravans": "yes", "check_date": "2025-06-13", "dog": "leashed", "drinking_water": "yes", "fee": "yes", "group_only": "no", "internet_access": "no", "name": "Sol Duc Campground", "nudism": "no", "openfire": "yes", "opening_hours": "24/7", "operator": "National Park Service", "picnic_table": "yes", "power_supply": "yes", "reservation": "yes", "sanitary_dump_station": "yes", "shower": "no", "tents": "yes", "toilets": "yes", "tourism": "camp_site", "type": "multipolygon", "website": "https://www.recreation.gov/camping/campgrounds/251906", "wheelchair": "yes", "osm_id": 4813238}}, {"type": "Feature", "geometry": {"type": "Point", "coordinates": [-117.4909459, 47.6954276]}, "properties": {"caravans": "yes", "fee": "yes", "internet_access": "no", "name": "Bowl and Pitcher Campground", "operator": "Riverside State Park", "sanitary_dump_station": "yes", "tents": "yes", "tourism": "camp_site", "type": "multipolygon", "osm_id": 5849951}}, {"type": "Feature", "geometry": {"type": "Point", "coordinates": [-123.7666303, 48.4082293]}, "properties": {"access": "private", "addr:housenumber": "3202", "addr:street": "Young Lake Road", "group_only": "yes", "leisure": "summer_camp", "name": "Camp Barnard", "operator": "Scouts Canada", "scout": "yes", "tourism": "camp_site", "type": "multipolygon", "osm_id": 7012185}}, {"type": "Feature", "geometry": {"type": "Point", "coordinates": [-119.0532191, 47.9279402]}, "properties": {"leisure": "resort", "name": "Sunbanks Lake Resort", "phone": "+1-509-633-3786", "shop": "convenience", "tourism": "camp_site", "tourism_1": "caravan_site", "type": "multipolygon", "website": "https://sunbanksresort.com/", "osm_id": 7762976}}, {"type": "Feature", "geometry": {"type": "Point", "coordinates": [-124.053365, 48.4213843]}, "properties": {"capacity": "22", "fee": "yes", "name": "Jordan River Regional Park Campground", "operator": "Capital Regional District", "tourism": "camp_site", "type": "multipolygon", "website": "https://www.crd.bc.ca/docs/default-source/parks-pdf/jordanriver-campground.pdf?sfvrsn=78e989c9_10", "osm_id": 7929847}}, {"type": "Feature", "geometry": {"type": "Point", "coordinates": [-124.0497717, 46.3130809]}, "properties": {"addr:city": "Ilwaco", "addr:housenumber": "700", "addr:postcode": "98624", "addr:street": "North Head Road", "name": "Eagle's Nest Resort RV Park", "phone": "+1-360-642-8351", "tourism": "caravan_site", "type": "multipolygon", "osm_id": 7930750}}, {"type": "Feature", "geometry": {"type": "Point", "coordinates": [-117.8246275, 47.3562338]}, "properties": {"name": "Fishtrap Lake Resort", "phone": "+1-509-235-2284", "tourism": "caravan_site", "type": "multipolygon", "osm_id": 7940502}}, {"type": "Feature", "geometry": {"type": "Point", "coordinates": [-122.7507153, 48.1180008]}, "properties": {"access": "customers", "fee": "yes", "name": "Point Hudson Marina & RV Park", "tourism": "caravan_site", "type": "multipolygon", "website": "https://portofpt.com/recreation-and-lodging/rv-facilities", "osm_id": 8061551}}, {"type": "Feature", "geometry": {"type": "Point", "coordinates": [-122.2795188, 47.1925617]}, "properties": {"name": "Riverview RV Park", "tourism": "caravan_site", "type": "multipolygon", "osm_id": 8091321}}, {"type": "Feature", "geometry": {"type": "Point", "coordinates": [-124.701974, 48.8020931]}, "properties": {"leisure": "nature_reserve", "name": "Knob Point Recreation Site", "ref:FFID": "REC0271", "source": "DataBC - Recreation Polygon", "tourism": "camp_site", "type": "multipolygon", "website": "https://www.sitesandtrailsbc.ca/search/search-result.aspx?site=REC0271&type=Site", "osm_id": 9538525}}, {"type": "Feature", "geometry": {"type": "Point", "coordinates": [-124.6795005, 48.8049274]}, "properties": {"name": "Nitinat Lake Recreation Site", "ref:FFID": "REC0272", "source": "DataBC - Recreation Polygon", "tourism": "camp_site", "type": "multipolygon", "website": "https://www.sitesandtrailsbc.ca/search/search-result.aspx?site=REC0272&type=Site", "osm_id": 9551207}}, {"type": "Feature", "geometry": {"type": "Point", "coordinates": [-124.285667, 48.8953245]}, "properties": {"leisure": "park", "name": "Maple Grove Recreation Site", "ref:FFID": "REC0206", "tourism": "camp_site", "type": "multipolygon", "osm_id": 11026276}}, {"type": "Feature", "geometry": {"type": "Point", "coordinates": [-124.4574477, 48.9209782]}, "properties": {"name": "Heather Campsite", "tourism": "camp_site", "type": "multipolygon", "osm_id": 11026277}}, {"type": "Feature", "geometry": {"type": "Point", "coordinates": [-124.305943, 48.8713026]}, "properties": {"name": "Caycuse Campsite", "tourism": "camp_site", "type": "multipolygon", "osm_id": 11026279}}, {"type": "Feature", "geometry": {"type": "Point", "coordinates": [-122.8086538, 47.225532]}, "properties": {"addr:city": "Lakebay", "addr:housenumber": "20001", "addr:postcode": "98349", "addr:state": "WA", "addr:street": "Bay Road SW", "backcountry": "no", "caravans": "yes", "description": "All primitive sites", "group_only": "no", "name": "Joemma Beach Campground", "operator": "Washington State Parks", "shower": "no", "tents": "yes", "toilets": "yes", "tourism": "camp_site", "type": "multipolygon", "website": "https://www.parks.state.wa.us/524/Joemma-Beach", "osm_id": 11788979}}, {"type": "Feature", "geometry": {"type": "Point", "coordinates": [-122.4055159, 47.3785584]}, "properties": {"caravans": "no", "description": "Primitive camping available for those arriving via bicycle or human powered boat. Reservations required.", "name": "Maury Island Campground", "openfire": "no", "reservation": "required", "shower": "no", "tents": "yes", "toilets": "yes", "toilets:disposal": "chemical", "tourism": "camp_site", "type": "multipolygon", "website": "https://www.vashonadventures.com/campingmimp", "osm_id": 11794172}}, {"type": "Feature", "geometry": {"type": "Point", "coordinates": [-122.4821457, 47.5406861]}, "properties": {"caravans": "no", "drinking_water": "seasonal", "name": "Blake Island Marine State Park Campground", "openfire": "yes", "operator": "Washington State Parks", "shower": "yes", "tents": "yes", "toilets": "yes", "tourism": "camp_site", "type": "multipolygon", "website": "https://parks.wa.gov/find-parks/state-parks/blake-island-marine-state-park", "osm_id": 11797102}}, {"type": "Feature", "geometry": {"type": "Point", "coordinates": [-122.7673358, 48.1387208]}, "properties": {"drinking_water": "yes", "name": "Fort Worden State Park Campground", "tourism": "camp_site", "type": "multipolygon", "website": "https://parks.wa.gov/find-parks/state-parks/fort-worden-historical-state-park", "osm_id": 11803376}}, {"type": "Feature", "geometry": {"type": "Point", "coordinates": [-121.6932031, 48.6549562]}, "properties": {"access": "customers", "access:conditional": "customers @ (Memorial Day weekend-Labor Day)", "capacity": "108", "charge": "30 USD", "fee": "yes", "name": "Kulshan Campground", "operator": "Puget Sound Energy", "payment:cash": "yes", "payment:cheque": "yes", "reservation": "no", "tourism": "camp_site", "type": "multipolygon", "osm_id": 12122306}}, {"type": "Feature", "geometry": {"type": "Point", "coordinates": [-122.9023069, 47.6888159]}, "properties": {"capacity": "137", "caravans": "yes", "drinking_water": "yes", "fee": "yes", "name": "Dosewallips State Park Campground", "tents": "yes", "tourism": "camp_site", "type": "multipolygon", "website": "https://parks.wa.gov/find-parks/state-parks/dosewallips-state-park", "osm_id": 12988266}}, {"type": "Feature", "geometry": {"type": "Point", "coordinates": [-121.4034464, 47.8973027]}, "properties": {"camp_site": "standard", "caravans": "yes", "charge": "28 USD/night", "drinking_water": "no", "fee": "yes", "name": "Troublesome Creek Campground", "note": "Drinking water is temporarily unavailable (as of 2021-09-10); will hopefully be restored at a later date.", "openfire": "yes", "opening_hours": "May 27-Sep 19 Mo-Su,PH", "operator": "Mt. Baker-Snoqualmie National Forest", "picnic_table": "yes", "power_supply": "no", "quiet_time": "22:00-08:00", "reservation": "recommended", "reservation:website": "https://www.recreation.gov/camping/campgrounds/232315", "shower": "no", "tents": "yes", "toilets": "yes", "tourism": "camp_site", "type": "multipolygon", "waste_disposal": "no", "website": "https://www.fs.usda.gov/recarea/mbs/recreation/recarea/?recid=17958", "osm_id": 13200212}}, {"type": "Feature", "geometry": {"type": "Point", "coordinates": [-117.2867252, 48.8401984]}, "properties": {"name": "West Sullivan Lake Campground", "tourism": "camp_site", "type": "multipolygon", "osm_id": 13902640}}, {"type": "Feature", "geometry": {"type": "Point", "coordinates": [-117.4073892, 48.7542524]}, "properties": {"name": "Edgewater Campground", "tourism": "camp_site", "type": "multipolygon", "osm_id": 13916212}}, {"type": "Feature", "geometry": {"type": "Point", "coordinates": [-117.5626524, 48.7284047]}, "properties": {"name": "Big Meadow Lake Campground", "tourism": "camp_site", "type": "multipolygon", "osm_id": 14309063}}, {"type": "Feature", "geometry": {"type": "Point", "coordinates": [-117.7084914, 48.9478139]}, "properties": {"addr:housenumber": "4706", "addr:street": "Northport-Waneta Road", "name": "Upper Columbia RV Park", "tourism": "caravan_site", "type": "multipolygon", "osm_id": 14359503}}, {"type": "Feature", "geometry": {"type": "Point", "coordinates": [-117.5314778, 48.6275694]}, "properties": {"name": "Princess Pine Campground", "tourism": "camp_site", "type": "multipolygon", "osm_id": 14467783}}, {"type": "Feature", "geometry": {"type": "Point", "coordinates": [-121.841556, 48.7409017]}, "properties": {"backcountry": "yes", "description": "High camp for climbers attempting to summit Kulshan (Mount Baker) via the Easton Glacier route", "fee": "no", "name": "Sandy Camp", "operator": "Mt. Baker-Snoqualmie National Forest", "reservation": "no", "toilets": "no", "tourism": "camp_site", "type": "site", "osm_id": 14600180}}, {"type": "Feature", "geometry": {"type": "Point", "coordinates": [-121.8406332, 48.7275195]}, "properties": {"backcountry": "yes", "fee": "no", "name": "Cathedral Camp", "operator": "Mt. Baker-Snoqualmie National Forest", "reservation": "no", "tents": "yes", "toilets": "no", "tourism": "camp_site", "type": "site", "osm_id": 14600181}}, {"type": "Feature", "geometry": {"type": "Point", "coordinates": [-120.8266581, 48.1401292]}, "properties": {"access": "yes", "backcountry": "yes", "fee": "no", "name": "Leroy Basin Camp", "toilets": "yes", "tourism": "camp_site", "type": "site", "osm_id": 14707066}}, {"type": "Feature", "geometry": {"type": "Point", "coordinates": [-123.1590187, 47.6224749]}, "properties": {"backcountry": "yes", "capacity": "28", "caravans": "no", "fee": "no", "name": "Lena Lake Campground", "operator": "U.S. Forest Service", "tents": "yes", "tourism": "camp_site", "type": "multipolygon", "osm_id": 15258583}}, {"type": "Feature", "geometry": {"type": "Point", "coordinates": [-123.2095657, 47.6337992]}, "properties": {"backcountry": "yes", "name": "Upper Lena Lake Campground", "operator": "National Park Service", "tourism": "camp_site", "type": "multipolygon", "osm_id": 15260234}}, {"type": "Feature", "geometry": {"type": "Point", "coordinates": [-121.7597017, 45.9408957]}, "properties": {"name": "Goose Lake Campground", "tourism": "camp_site", "type": "multipolygon", "website": "https://www.fs.usda.gov/recarea/giffordpinchot/recarea/?recid=31764", "osm_id": 15522535}}, {"type": "Feature", "geometry": {"type": "Point", "coordinates": [-117.4979425, 48.6489842]}, "properties": {"name": "Leo Lake Campground", "tourism": "camp_site", "type": "multipolygon", "osm_id": 16075524}}, {"type": "Feature", "geometry": {"type": "Point", "coordinates": [-121.3293187, 47.4204101]}, "properties": {"backcountry": "yes", "drinking_water": "no", "name": "Rachel Lake Camping", "toilets": "yes", "tourism": "camp_site", "type": "multipolygon", "osm_id": 16215470}}, {"type": "Feature", "geometry": {"type": "Point", "coordinates": [-123.6056305, 47.3905307]}, "properties": {"name": "Coho Campground", "operator": "U.S. Forest Service", "tourism": "camp_site", "type": "multipolygon", "website": "https://www.fs.usda.gov/recarea/olympic/recarea/?recid=47807", "osm_id": 16277559}}, {"type": "Feature", "geometry": {"type": "Point", "coordinates": [-121.4253004, 47.7846461]}, "properties": {"access": "yes", "backcountry": "yes", "dog": "leashed", "drinking_water": "no", "fee": "no", "group_only": "no", "internet_access": "no", "name": "Barclay Lake Backcountry Sites", "openfire": "yes", "power_supply": "no", "shower": "no", "tourism": "camp_site", "type": "multipolygon", "osm_id": 16867241}}, {"type": "Feature", "geometry": {"type": "Point", "coordinates": [-120.8188275, 47.4801395]}, "properties": {"access": "yes", "backcountry": "yes", "group_only": "no", "internet_access": "no", "name": "Tranquil Lake Backcountry Camping", "power_supply": "no", "shower": "no", "toilets": "yes", "tourism": "camp_site", "type": "multipolygon", "osm_id": 17089253}}, {"type": "Feature", "geometry": {"type": "Point", "coordinates": [-120.7988907, 47.4821789]}, "properties": {"access": "yes", "backcountry": "yes", "group_only": "no", "internet_access": "no", "name": "Inspiration Lake Backcountry Camping", "power_supply": "no", "shower": "no", "toilets": "yes", "tourism": "camp_site", "type": "multipolygon", "osm_id": 17089256}}, {"type": "Feature", "geometry": {"type": "Point", "coordinates": [-120.8136083, 47.4777289]}, "properties": {"access": "yes", "backcountry": "yes", "group_only": "no", "internet_access": "no", "name": "Lake Olrun Backcountry Camping", "power_supply": "no", "shower": "no", "tourism": "camp_site", "type": "multipolygon", "osm_id": 17089536}}, {"type": "Feature", "geometry": {"type": "Point", "coordinates": [-118.9971289, 47.9341789]}, "properties": {"name": "King's Court R.V. Park", "tourism": "caravan_site", "type": "multipolygon", "osm_id": 17457818}}, {"type": "Feature", "geometry": {"type": "Point", "coordinates": [-120.2067563, 47.7089871]}, "properties": {"fee": "yes", "name": "Daroga State Park Campground", "tents": "yes", "tourism": "camp_site", "type": "multipolygon", "osm_id": 17827238}}, {"type": "Feature", "geometry": {"type": "Point", "coordinates": [-116.9467705, 48.6319122]}, "properties": {"name": "Nordman RV Park", "power_supply": "yes", "sanitary_dump_station": "yes", "tourism": "caravan_site", "type": "multipolygon", "website": "https://www.nordmanresort.com/rv-park-and-lodge", "osm_id": 18099564}}, {"type": "Feature", "geometry": {"type": "Point", "coordinates": [-123.5664992, 47.3675425]}, "properties": {"fee": "yes", "name": "Satsop Center Campground", "operator": "U.S. Forest Service", "payment:cash": "yes", "tourism": "camp_site", "type": "multipolygon", "website": "https://www.fs.usda.gov/recarea/olympic/recreation/hiking/recarea/?recid=81862&actid=50", "osm_id": 18286378}}, {"type": "Feature", "geometry": {"type": "Point", "coordinates": [-121.8547446, 48.7224863]}, "properties": {"backcountry": "yes", "name": "Mazama Camp", "operator": "Mt. Baker-Snoqualmie National Forest", "tourism": "camp_site", "type": "site", "osm_id": 18380229}}, {"type": "Feature", "geometry": {"type": "Point", "coordinates": [-123.1262301, 47.0493394]}, "properties": {"access": "private", "caravans": "no", "name": "Camp Thunderbird", "operator": "Boy Scouts of America", "shower": "yes", "tents": "yes", "toilets": "yes", "tourism": "camp_site", "type": "multipolygon", "website": "http://campthunderbird.net/", "osm_id": 18380341}}, {"type": "Feature", "geometry": {"type": "Point", "coordinates": [-117.2827464, 48.7900647]}, "properties": {"caravans": "yes", "fee": "yes", "name": "Noisy Creek Campground", "operator": "Scenic Canyons Recreational Services", "phone": "+1-435-245-6521", "tents": "yes", "tourism": "camp_site", "type": "multipolygon", "website": "https://www.fs.usda.gov/recarea/colville/recreation/hiking/recarea/?recid=67946&actid=29", "osm_id": 18434754}}, {"type": "Feature", "geometry": {"type": "Point", "coordinates": [-116.9253, 48.5501311]}, "properties": {"fee": "yes", "name": "Luby Bay Campground", "operator": "Idaho Panhandle National Forests", "tourism": "camp_site", "type": "multipolygon", "website": "https://www.fs.usda.gov/recarea/ipnf/recarea/?recid=6767", "osm_id": 18480895}}, {"type": "Feature", "geometry": {"type": "Point", "coordinates": [-116.9402585, 48.5558815]}, "properties": {"access": "yes", "camp_site": "basic", "charge": "50 USD", "fee": "yes", "name": "Reynolds Creek Group Campground", "phone": "+1 208-304-8134", "tourism": "camp_site", "type": "multipolygon", "osm_id": 18636852}}, {"type": "Feature", "geometry": {"type": "Point", "coordinates": [-116.9006505, 48.4515921]}, "properties": {"addr:city": "Coolin", "addr:housenumber": "1096", "addr:postcode": "83821", "addr:state": "ID", "addr:street": "Dickensheet Road", "camp_site": "standard", "dog": "leashed", "name": "Priest Lake State Park Dickensheet Unit Campground", "operator": "Idaho Department of Parks and Recreation", "tourism": "camp_site", "type": "multipolygon", "website": "https://parksandrecreation.idaho.gov/parks/priest-lake/", "osm_id": 18703580}}, {"type": "Feature", "geometry": {"type": "Point", "coordinates": [-119.4767813, 46.2545425]}, "properties": {"name": "The Beaches RV Park", "tourism": "caravan_site", "type": "multipolygon", "osm_id": 18733713}}, {"type": "Feature", "geometry": {"type": "Point", "coordinates": [-121.501373, 46.508598]}, "properties": {"backcountry": "yes", "camp_site": "basic", "caravans": "no", "drinking_water": "no", "fee": "no", "internet_access": "no", "name": "Goat Ridge Trail Dispersed Camping", "openfire": "no", "operator": "United States Forest Service", "picnic_table": "no", "reservation": "no", "shower": "no", "static_caravans": "no", "tents": "yes", "tourism": "camp_site", "type": "multipolygon", "osm_id": 18789570}}, {"type": "Feature", "geometry": {"type": "Point", "coordinates": [-121.470025, 46.4961565]}, "properties": {"backcountry": "yes", "camp_site": "basic", "caravans": "no", "drinking_water": "no", "fee": "no", "internet_access": "no", "name": "Snowgrass Flat", "openfire": "no", "operator": "United States Forest Service", "picnic_table": "no", "reservation": "no", "shower": "no", "static_caravans": "no", "tents": "yes", "tourism": "camp_site", "type": "multipolygon", "osm_id": 18789580}}, {"type": "Feature", "geometry": {"type": "Point", "coordinates": [-117.2798565, 48.8400196]}, "properties": {"name": "East Sullivan Campground", "tourism": "camp_site", "type": "multipolygon", "osm_id": 18794325}}, {"type": "Feature", "geometry": {"type": "Point", "coordinates": [-122.0811533, 48.9756314]}, "properties": {"access": "yes", "backcountry": "no", "camp_site": "standard", "capacity:caravans": "28", "capacity:persons": "168", "caravans": "yes", "fee": "yes", "name": "Silver Lake Park - Red Mountain Campground", "openfire": "yes", "operator": "Whatcom County", "static_caravans": "no", "tents": "yes", "tourism": "camp_site", "type": "multipolygon", "website": "https://www.whatcomcounty.us/3518/Camping-at-Silver-Lake-Park", "osm_id": 18990045}}, {"type": "Feature", "geometry": {"type": "Point", "coordinates": [-117.1962477, 48.4357575]}, "properties": {"fee": "yes", "name": "Browns Lake Campground", "operator": "Scenic Canyons Recreation Service", "source": "US Forest Service", "tents": "yes", "tourism": "camp_site", "type": "multipolygon", "website": "https://www.fs.usda.gov/recarea/colville/recarea/?recid=67820", "osm_id": 18993863}}, {"type": "Feature", "geometry": {"type": "Point", "coordinates": [-122.0732994, 48.968259]}, "properties": {"access": "yes", "backcountry": "no", "camp_site": "standard", "capacity:caravans": "51", "capacity:persons": "306", "caravans": "yes", "fee": "yes", "name": "Silver Lake Park - Maple Creek Campground", "openfire": "yes", "operator": "Whatcom County", "static_caravans": "no", "tents": "yes", "tourism": "camp_site", "type": "multipolygon", "website": "https://www.whatcomcounty.us/3518/Camping-at-Silver-Lake-Park", "osm_id": 18994577}}, {"type": "Feature", "geometry": {"type": "Point", "coordinates": [-119.3517899, 46.9804721]}, "properties": {"access": "yes", "backcountry": "no", "camp_site": "serviced", "capacity": "60", "capacity:caravans": "61", "capacity:tents": "60", "caravans": "yes", "check_date": "2025-04-18", "dog": "leashed", "drinking_water": "yes", "fee": "yes", "group_only": "no", "internet_access": "wlan", "internet_access:fee": "no", "name": "Potholes State Park Campground", "nudism": "no", "openfire": "yes", "payment:cash": "yes", "payment:credit_cards": "yes", "payment:debit_cards": "yes", "picnic_table": "yes", "power_supply": "yes", "reservation": "yes", "shower": "yes", "static_caravans": "no", "tents": "yes", "toilets": "yes", "tourism": "camp_site", "type": "multipolygon", "osm_id": 19020521}}, {"type": "Feature", "geometry": {"type": "Point", "coordinates": [-117.2696466, 48.5087537]}, "properties": {"contact:website": "https://www.fs.usda.gov/r06/colville/recreation/panhandle-campground", "name": "Panhandle Campground", "operator": "Scenic Canyons Recreational Services, Inc.", "tourism": "camp_site", "type": "multipolygon", "osm_id": 19061876}}, {"type": "Feature", "geometry": {"type": "Point", "coordinates": [-123.461725, 46.2702494]}, "properties": {"camp_site": "serviced", "caravans": "yes", "email": "info@wahport2.org", "fee": "yes", "name": "Skamokawa Vista Park Campground", "phone": "+1-360-795-8605", "tents": "yes", "tourism": "camp_site", "type": "multipolygon", "website": "https://wahport2.org/", "osm_id": 19153788}}, {"type": "Feature", "geometry": {"type": "Point", "coordinates": [-117.2913777, 48.8546901]}, "properties": {"camp_site": "standard", "caravans": "yes", "fee": "yes", "name": "Mill Pond Campground", "operator": "Scenic Canyons", "tents": "yes", "tourism": "camp_site", "type": "multipolygon", "website": "https://www.fs.usda.gov/r06/colville/recreation/mill-pond-campground", "osm_id": 19163865}}, {"type": "Feature", "geometry": {"type": "Point", "coordinates": [-117.31444, 48.9878264]}, "properties": {"access": "yes", "camp_site": "basic", "description": "From USFS GIS: Beautiful twenty-two acre lake located just a mile south of the Canadian border along the International Selkirk Loop. Numerous recreation opportunities exist in the surrounding area.", "name": "Crescent Lake Campground", "operator": "Colville National Forest", "reservation": "no", "tents": "yes", "tourism": "camp_site", "type": "multipolygon", "osm_id": 19232430}}, {"type": "Feature", "geometry": {"type": "Point", "coordinates": [-117.0885143, 48.6386266]}, "properties": {"access": "yes", "camp_site": "basic", "fee": "no", "name": "Petit Lake Campground", "operator": "Idaho Panhandle National Forests", "tents": "yes", "tourism": "camp_site", "type": "multipolygon", "osm_id": 19232919}}, {"type": "Feature", "geometry": {"type": "Point", "coordinates": [-121.1915132, 47.2481593]}, "properties": {"name": "Lake Easton State Park Campground", "operator": "Washington State Parks and Recreation Commission", "tents": "yes", "toilets": "yes", "tourism": "camp_site", "type": "multipolygon", "osm_id": 19289040}}, {"type": "Feature", "geometry": {"type": "Point", "coordinates": [-119.744334, 48.5575137]}, "properties": {"name": "Conconully State Park Campground", "tourism": "camp_site", "type": "multipolygon", "osm_id": 19289497}}, {"type": "Feature", "geometry": {"type": "Point", "coordinates": [-118.6617181, 48.7193984]}, "properties": {"name": "Curlew Lake State Park Campground", "tourism": "camp_site", "type": "multipolygon", "osm_id": 19289540}}, {"type": "Feature", "geometry": {"type": "Point", "coordinates": [-119.9534045, 46.9222437]}, "properties": {"access": "yes", "backcountry": "no", "caravans": "yes", "check_date": "2025-06-22", "dog": "leashed", "drinking_water": "no", "fee": "yes", "internet_access": "no", "name": "Sand Hollow Campground", "openfire": "yes", "opening_hours": "24/7", "operator": "Grant PUD", "picnic_table": "yes", "power_supply": "no", "reservation": "recommended", "sanitary_dump_station": "no", "shower": "no", "tents": "yes", "toilets": "yes", "tourism": "camp_site", "type": "multipolygon", "website": "https://www.grantpud.org/visit-us", "wheelchair": "yes", "osm_id": 19291940}}, {"type": "Feature", "geometry": {"type": "Point", "coordinates": [-119.3118702, 47.1378035]}, "properties": {"caravans": "yes", "name": "Cascade Park Campground", "tents": "yes", "tourism": "camp_site", "type": "multipolygon", "website": "http://www.cityofml.com/541/Cascade-Park", "osm_id": 19292019}}, {"type": "Feature", "geometry": {"type": "Point", "coordinates": [-120.6425506, 48.0211599]}, "properties": {"access": "yes", "backcountry": "no", "camp_site": "standard", "caravans": "yes", "dog": "leashed", "drinking_water": "no", "group_only": "no", "name": "Cottonwood Campground", "openfire": "yes", "operator": "USFS", "picnic_table": "yes", "power_supply": "no", "reservation": "no", "sanitary_dump_station": "no", "shower": "no", "tents": "yes", "toilets": "yes", "tourism": "camp_site", "type": "multipolygon", "website": "https://www.fs.usda.gov/r06/okanogan-wenatchee/recreation/cottonwood-campground-entiat-ranger-district", "osm_id": 19292103}}, {"type": "Feature", "geometry": {"type": "Point", "coordinates": [-119.9388388, 48.027224]}, "properties": {"access": "yes", "addr:city": "Pateros", "addr:housenumber": "1", "addr:postcode": "98846", "addr:state": "WA", "addr:street": "Otto Road", "capacity:caravans": "123", "caravans": "yes", "fee": "yes", "name": "Alta Lake Campground", "operator": "Alta Lake State Park", "tents": "yes", "tourism": "camp_site", "type": "multipolygon", "website": "https://parks.wa.gov/find-parks/state-parks/alta-lake-state-park", "osm_id": 19292782}}, {"type": "Feature", "geometry": {"type": "Point", "coordinates": [-122.4950215, 45.8049151]}, "properties": {"name": "Battle Ground Lake State Park Campground", "tourism": "camp_site", "type": "multipolygon", "osm_id": 19292835}}, {"type": "Feature", "geometry": {"type": "Point", "coordinates": [-122.4788528, 48.4889596]}, "properties": {"capacity": "70 sites", "name": "Bay View State Park Campground", "tourism": "camp_site", "type": "multipolygon", "website": "https://parks.wa.gov/find-parks/state-parks/bay-view-state-park", "osm_id": 19292844}}, {"type": "Feature", "geometry": {"type": "Point", "coordinates": [-119.6086045, 48.0162757]}, "properties": {"name": "Bridgeport State Park Campground", "tourism": "camp_site", "type": "multipolygon", "website": "https://parks.wa.gov/find-parks/state-parks/bridgeport-state-park", "osm_id": 19292886}}, {"type": "Feature", "geometry": {"type": "Point", "coordinates": [-122.7901044, 48.0746195]}, "properties": {"fee": "yes", "name": "Fort Townsend Historical State Park Campground", "tourism": "camp_site", "type": "multipolygon", "website": "https://parks.wa.gov/find-parks/state-parks/fort-townsend-historical-state-park", "osm_id": 19298988}}, {"type": "Feature", "geometry": {"type": "Point", "coordinates": [-124.0945611, 46.7893172]}, "properties": {"access": "yes", "camp_site": "serviced", "caravans": "yes", "check_date": "2025-08-29", "email": "Grayland.Beach@parks.wa.gov", "fee": "yes", "internet_access": "no", "name": "Grayland Beach State Park Campground", "phone": "+1-360-267-4301", "static_caravans": "no", "tents": "yes", "tourism": "camp_site", "type": "multipolygon", "website": "https://parks.wa.gov/find-parks/state-parks/grayland-beach-state-park", "wheelchair": "yes", "osm_id": 19299044}}, {"type": "Feature", "geometry": {"type": "Point", "coordinates": [-122.5275543, 46.5501975]}, "properties": {"fee": "yes", "name": "Ike Kinswa State Park Campground", "operator": "Washington State Parks and Recreation Commission", "shower": "yes", "tents": "yes", "toilets": "yes", "tourism": "camp_site", "type": "multipolygon", "osm_id": 19299071}}, {"type": "Feature", "geometry": {"type": "Point", "coordinates": [-122.7744421, 48.5123136]}, "properties": {"backcountry": "yes", "name": "James Island", "operator": "Washington State Parks", "tents": "yes", "tourism": "camp_site", "type": "multipolygon", "website": "https://parks.wa.gov/find-parks/state-parks/james-island-marine-state-park", "osm_id": 19299109}}, {"type": "Feature", "geometry": {"type": "Point", "coordinates": [-119.3845575, 47.5912318]}, "properties": {"caravans": "yes", "drinking_water": "yes", "name": "Sun Lakes - Dry Falls State Park Campground", "operator": "Washington State Parks and Recreation Commission", "power_supply": "yes", "sanitary_dump_station": "yes", "shower": "yes", "tents": "yes", "toilets": "yes", "tourism": "camp_site", "type": "multipolygon", "osm_id": 19322917}}, {"type": "Feature", "geometry": {"type": "Point", "coordinates": [-118.054891, 46.5060479]}, "properties": {"name": "Tucannon River RV Park", "tourism": "caravan_site", "type": "multipolygon", "osm_id": 19736836}}, {"type": "Feature", "geometry": {"type": "Point", "coordinates": [-119.8957233, 48.0558104]}, "properties": {"capacity": "10", "fee": "yes", "name": "Ives Landing Park Campground", "shower": "yes", "toilets": "yes", "tourism": "camp_site", "type": "multipolygon", "osm_id": 19961004}}, {"type": "Feature", "geometry": {"type": "Point", "coordinates": [-120.1510053, 48.4895813]}, "properties": {"name": "Pearrygin Lake State Park Campground", "tourism": "camp_site", "type": "multipolygon", "osm_id": 20080352}}]}