{
  "type": "FeatureCollection",
  "features": [
    {
      "type": "Feature",
      "geometry": {
        "type": "Point",
        "coordinates": [
          -87.1570348,
          34.697472
        ]
      },
      "properties": {
        "addr:city": "Hillsboro",
        "addr:housenumber": "44",
        "addr:state": "AL",
        "addr:street": "County Road 443",
        "caravans": "yes",
        "fee": "yes",
        "name": "Wheeler Lake Campground at Mallard Creek KOA",
        "old_name": "Mallard Creek Campground",
        "opening_hours": "Mar-Nov unknown; Dec-Feb closed",
        "phone": "+1-256-280-4390",
        "tents": "yes",
        "tourism": "camp_site",
        "type": "multipolygon",
        "website": "https://www.wheelerlakecampground.com/",
        "osm_id": 7656986,
        "sources": [
          "unknown"
        ]
      }
    },
    {
      "type": "Feature",
      "geometry": {
        "type": "Point",
        "coordinates": [
          -87.2678524,
          34.0202444
        ]
      },
      "properties": {
        "bbq": "yes",
        "boundary": "camp_site",
        "capacity": "102",
        "drinking_water": "yes",
        "fee": "yes",
        "name": "Clear Creek Campground",
        "power_supply": "yes",
        "tents": "yes",
        "tourism": "camp_site",
        "type": "multipolygon",
        "website": "https://www.fs.usda.gov/recarea/alabama/recarea/?recid=30085",
        "osm_id": 7674251,
        "sources": [
          "unknown"
        ]
      }
    },
    {
      "type": "Feature",
      "geometry": {
        "type": "Point",
        "coordinates": [
          -85.9281163,
          32.8543329
        ]
      },
      "properties": {
        "boundary": "camp_site",
        "capacity": "586",
        "caravans": "yes",
        "dog": "leashed",
        "fee": "yes",
        "name": "Wind Creek State Park Campground",
        "power_supply": "yes",
        "tourism": "camp_site",
        "type": "multipolygon",
        "website": "https://www.alapark.com/wind-creek-state-park-campground",
        "osm_id": 7674282,
        "sources": [
          "unknown"
        ]
      }
    },
    {
      "type": "Feature",
      "geometry": {
        "type": "Point",
        "coordinates": [
          -87.6394169,
          30.2641791
        ]
      },
      "properties": {
        "boundary": "camp_site",
        "capacity": "507",
        "caravans": "yes",
        "contact:email": "gulfstatepark@dcnr.alabama.gov",
        "contact:phone": "+1-251-948-7275",
        "dog": "leashed",
        "drinking_water": "yes",
        "fee": "yes",
        "internet_access": "wlan",
        "name": "Gulf State Park Campground",
        "power_supply": "yes",
        "tents": "yes",
        "tourism": "camp_site",
        "type": "multipolygon",
        "website": "https://www.alapark.com/parks/gulf-state-park/rv-and-primitive-campground",
        "osm_id": 7674299,
        "sources": [
          "unknown"
        ]
      }
    },
    {
      "type": "Feature",
      "geometry": {
        "type": "Point",
        "coordinates": [
          -87.239624,
          34.7765018
        ]
      },
      "properties": {
        "capacity": "48",
        "name": "Riverview RV Park",
        "phone": "+1-256-729-6329",
        "power_supply": "yes",
        "tourism": "caravan_site",
        "type": "multipolygon",
        "osm_id": 7675156,
        "sources": [
          "unknown"
        ]
      }
    },
    {
      "type": "Feature",
      "geometry": {
        "type": "Point",
        "coordinates": [
          -86.2769905,
          31.2985182
        ]
      },
      "properties": {
        "boundary": "camp_site",
        "capacity": "40",
        "caravans": "yes",
        "disabled": "yes",
        "fee": "yes",
        "internet_access": "wlan",
        "name": "Frank Jackson State Park Campground",
        "operator": "Alabama State Park",
        "power_supply": "yes",
        "tents": "yes",
        "tourism": "camp_site",
        "type": "multipolygon",
        "website": "https://www.alapark.com/frank-jackson-state-park",
        "osm_id": 7687149,
        "sources": [
          "unknown"
        ]
      }
    },
    {
      "type": "Feature",
      "geometry": {
        "type": "Point",
        "coordinates": [
          -88.1962506,
          34.6183274
        ]
      },
      "properties": {
        "capacity:caravans": "62",
        "caravans": "yes",
        "charge": "22 USD",
        "drinking_water": "yes",
        "fee": "yes",
        "name": "Tishamingo State Park Campground",
        "power_supply": "yes",
        "shower": "yes",
        "tents": "yes",
        "tourism": "camp_site",
        "type": "multipolygon",
        "website": "https://www.mdwfp.com/parks-destinations/state-parks/tishomingo/camping/",
        "osm_id": 9485657,
        "sources": [
          "unknown"
        ]
      }
    },
    {
      "type": "Feature",
      "geometry": {
        "type": "Point",
        "coordinates": [
          -87.979036,
          30.906187
        ]
      },
      "properties": {
        "addr:city": "Creola",
        "addr:housenumber": "2350",
        "addr:postcode": "36525",
        "addr:state": "AL",
        "addr:street": "Dead Lake Marina Road",
        "capacity": "60",
        "fee": "yes",
        "leisure": "park",
        "name": "River Delta Marina and Campground",
        "operator": "Mobile County",
        "tourism": "caravan_site",
        "type": "multipolygon",
        "website": "https://www.mobilecountyal.gov/living/parks_river_delta.html",
        "osm_id": 9685116,
        "sources": [
          "unknown"
        ]
      }
    },
    {
      "type": "Feature",
      "geometry": {
        "type": "Point",
        "coordinates": [
          -86.4988979,
          30.4111653
        ]
      },
      "properties": {
        "cabins": "yes",
        "leisure": "beach_resort",
        "name": "Destin Army Recreation Area",
        "tourism": "camp_site",
        "type": "multipolygon",
        "osm_id": 9963414,
        "sources": [
          "unknown"
        ]
      }
    },
    {
      "type": "Feature",
      "geometry": {
        "type": "Point",
        "coordinates": [
          -87.0086128,
          34.6241825
        ]
      },
      "properties": {
        "addr:city": "Decatur",
        "addr:housenumber": "1600",
        "addr:postcode": "35601",
        "addr:state": "AL",
        "addr:street": "AL Highway 20",
        "capacity": "33",
        "contact:email": "jlmarina@aol.com",
        "contact:phone": "+1-256-350-4722",
        "fee": "yes",
        "internet_access": "wlan",
        "internet_access:fee": "no",
        "name": "Jay Landings RV Park",
        "power_supply": "yes",
        "tourism": "caravan_site",
        "type": "multipolygon",
        "website": "https://www.jaylandingsrvpark.com/",
        "osm_id": 11646639,
        "sources": [
          "unknown"
        ]
      }
    },
    {
      "type": "Feature",
      "geometry": {
        "type": "Point",
        "coordinates": [
          -87.4367776,
          33.2573114
        ]
      },
      "properties": {
        "addr:city": "Tuscaloosa",
        "addr:state": "AL",
        "capacity": "46",
        "capacity:caravans": "40",
        "capacity:tents": "46",
        "caravans": "yes",
        "charge": "30 USD",
        "fee": "yes",
        "name": "Deerlick Creek Campground",
        "opening_hours": "Mar-Nov",
        "operator": "Corp of Engineers",
        "phone": "+1-205-759-1591",
        "power_supply": "yes",
        "reservation": "yes",
        "tents": "yes",
        "toilets": "flush",
        "tourism": "camp_site",
        "type": "multipolygon",
        "website": "https://www.recreation.gov/camping/campgrounds/232571",
        "osm_id": 12491123,
        "sources": [
          "unknown"
        ]
      }
    },
    {
      "type": "Feature",
      "geometry": {
        "type": "Point",
        "coordinates": [
          -86.1092532,
          34.5155656
        ]
      },
      "properties": {
        "name": "South Sauty Creek Resort",
        "tourism": "camp_site",
        "type": "multipolygon",
        "osm_id": 14523252,
        "sources": [
          "unknown"
        ]
      }
    },
    {
      "type": "Feature",
      "geometry": {
        "type": "Point",
        "coordinates": [
          -86.0960304,
          34.5235795
        ]
      },
      "properties": {
        "name": "Northshore Campground",
        "tourism": "camp_site",
        "type": "multipolygon",
        "osm_id": 14523256,
        "sources": [
          "unknown"
        ]
      }
    },
    {
      "type": "Feature",
      "geometry": {
        "type": "Point",
        "coordinates": [
          -85.1821468,
          33.0199547
        ]
      },
      "properties": {
        "name": "Whitetail Ridge Campground",
        "tourism": "camp_site",
        "type": "multipolygon",
        "osm_id": 17737648,
        "sources": [
          "unknown"
        ]
      }
    },
    {
      "type": "Feature",
      "geometry": {
        "type": "Point",
        "coordinates": [
          -88.0546147,
          30.8721655
        ]
      },
      "properties": {
        "name": "I-65 RV Campground",
        "tourism": "caravan_site",
        "type": "multipolygon",
        "osm_id": 17777757,
        "sources": [
          "unknown"
        ]
      }
    },
    {
      "type": "Feature",
      "geometry": {
        "type": "Point",
        "coordinates": [
          -88.2583377,
          30.3828773
        ]
      },
      "properties": {
        "alt_name": "Dockside RV Resort & Alabama Gulf Coast Campground",
        "name": "Dockside RV Resort",
        "tourism": "camp_site",
        "type": "multipolygon",
        "osm_id": 17874039,
        "sources": [
          "unknown"
        ]
      }
    },
    {
      "type": "Feature",
      "geometry": {
        "type": "Point",
        "coordinates": [
          -88.0807219,
          30.2498672
        ]
      },
      "properties": {
        "addr:city": "Dauphin Island",
        "addr:housenumber": "109",
        "addr:postcode": "36528",
        "addr:state": "AL",
        "addr:street": "Bienville Boulevard",
        "capacity": "151",
        "caravans": "yes",
        "fee": "yes",
        "internet_access": "wlan",
        "internet_access:fee": "no",
        "name": "Dauphin Island Campground",
        "sanitary_dump_station": "yes",
        "tents": "yes",
        "tourism": "camp_site",
        "type": "multipolygon",
        "website": "https://dauphinisland.org/",
        "osm_id": 17920102,
        "sources": [
          "unknown"
        ]
      }
    },
    {
      "type": "Feature",
      "geometry": {
        "type": "Point",
        "coordinates": [
          -87.637096,
          30.2826736
        ]
      },
      "properties": {
        "name": "Pandion Ridge",
        "tourism": "caravan_site",
        "type": "multipolygon",
        "osm_id": 18418861,
        "sources": [
          "unknown"
        ]
      }
    },
    {
      "type": "Feature",
      "geometry": {
        "type": "Point",
        "coordinates": [
          -86.18961,
          34.4574196
        ]
      },
      "properties": {
        "addr:city": "Langston",
        "addr:housenumber": "1001",
        "addr:postcode": "35755",
        "addr:state": "AL",
        "addr:street": "Murphy Hill Road",
        "name": "Little Mountain Marina Resort",
        "tourism": "caravan_site",
        "type": "multipolygon",
        "osm_id": 19235718,
        "sources": [
          "unknown"
        ]
      }
    },
    {
      "type": "Feature",
      "geometry": {
        "type": "Point",
        "coordinates": [
          -86.1845553,
          34.465275
        ]
      },
      "properties": {
        "addr:city": "Langston",
        "addr:housenumber": "1345",
        "addr:postcode": "35755",
        "addr:state": "AL",
        "addr:street": "Murphy Hill Road",
        "internet_access": "wlan",
        "name": "Mountain Lake Resort",
        "power_supply": "yes",
        "tourism": "caravan_site",
        "type": "multipolygon",
        "website": "https://www.mountainlakesrvpark.com/",
        "osm_id": 19235719,
        "sources": [
          "unknown"
        ]
      }
    },
    {
      "type": "Feature",
      "geometry": {
        "type": "Point",
        "coordinates": [
          -86.2014446,
          34.4046054
        ]
      },
      "properties": {
        "capacity": "295",
        "capacity:note": "295 is the number of improved camp sites",
        "caravans": "yes",
        "dog": "leashed",
        "fee": "yes",
        "internet_access": "wlan",
        "name": "Lake Guntersville State Park RV Campground",
        "note": "can draw details from http://www.alapark.com/parks/pdfs/lakeguntersville/lakeguntersvillestateparkcampground.pdf",
        "tents": "yes",
        "tourism": "caravan_site",
        "type": "multipolygon",
        "website": "https://www.alapark.com/lake-guntersville-state-park-rv-camping",
        "osm_id": 19244163,
        "sources": [
          "unknown"
        ]
      }
    },
    {
      "type": "Feature",
      "geometry": {
        "type": "Point",
        "coordinates": [
          -87.8300009,
          30.5473884
        ]
      },
      "properties": {
        "name": "Fairhope Motorcoach Resort",
        "tourism": "caravan_site",
        "type": "multipolygon",
        "osm_id": 19291483,
        "sources": [
          "unknown"
        ]
      }
    },
    {
      "type": "Feature",
      "geometry": {
        "type": "Point",
        "coordinates": [
          -86.3305906,
          32.32399
        ]
      },
      "properties": {
        "internet_access": "wlan",
        "internet_access:fee": "no",
        "name": "The Wood RV Park",
        "sanitary_dump_station": "customers",
        "tourism": "camp_site",
        "type": "multipolygon",
        "osm_id": 19742611,
        "sources": [
          "unknown"
        ]
      }
    }
  ]
}