{
  "type": "FeatureCollection",
  "features": [
    {
      "type": "Feature",
      "geometry": {
        "type": "Point",
        "coordinates": [
          -92.6416459,
          45.9237698
        ]
      },
      "properties": {
        "backcountry": "no",
        "cabins": "no",
        "camp_site": "standard",
        "capacity:tents": "4",
        "caravans": "no",
        "drinking_water": "no",
        "group_only": "no",
        "internet_access": "no",
        "name": "Norway Point Landing Campsites",
        "nudism": "no",
        "openfire": "yes",
        "operator": "National Park Service",
        "operator:wikidata": "Q308439",
        "phone": "+1 715 483 2274",
        "power_supply": "no",
        "ref": "S104.0",
        "reservation": "no",
        "sanitary_dump_station": "no",
        "shower": "no",
        "tents": "yes",
        "toilets": "yes",
        "tourism": "camp_site",
        "type": "site",
        "website": "https://www.nps.gov/sacn/planyourvisit/middlestcroix.htm",
        "osm_id": 1396718240,
        "sources": [
          "unknown"
        ]
      }
    },
    {
      "type": "Feature",
      "geometry": {
        "type": "Point",
        "coordinates": [
          -92.640836,
          45.126462
        ]
      },
      "properties": {
        "name": "River's Edge Apple River Tubing & Camping",
        "tourism": "camp_site",
        "type": "multipolygon",
        "osm_id": 7595231,
        "sources": [
          "unknown"
        ]
      }
    },
    {
      "type": "Feature",
      "geometry": {
        "type": "Point",
        "coordinates": [
          -89.5797989,
          44.9264276
        ]
      },
      "properties": {
        "addr:city": "Weston",
        "addr:housenumber": "3607",
        "addr:postcode": "54476",
        "addr:state": "WI",
        "addr:street": "Northwestern Avenue",
        "name": "Camp Del O'Claire",
        "operator": "Girl Scouts of the Northwestern Lakes",
        "tourism": "camp_site",
        "type": "multipolygon",
        "osm_id": 8731124,
        "sources": [
          "unknown"
        ]
      }
    },
    {
      "type": "Feature",
      "geometry": {
        "type": "Point",
        "coordinates": [
          -89.5842881,
          44.9260418
        ]
      },
      "properties": {
        "name": "Camp Sturtevant",
        "operator": "Woodson YMCA",
        "tourism": "camp_site",
        "type": "multipolygon",
        "osm_id": 8731125,
        "sources": [
          "unknown"
        ]
      }
    },
    {
      "type": "Feature",
      "geometry": {
        "type": "Point",
        "coordinates": [
          -89.566529,
          44.9254586
        ]
      },
      "properties": {
        "addr:city": "Weston",
        "addr:housenumber": "3511",
        "addr:postcode": "54476",
        "addr:state": "WI",
        "addr:street": "Camp Phillips Road",
        "name": "Phillips Scout Camp",
        "operator": "Boy Scouts of America Samoset Council",
        "tourism": "camp_site",
        "type": "multipolygon",
        "osm_id": 8731194,
        "sources": [
          "unknown"
        ]
      }
    },
    {
      "type": "Feature",
      "geometry": {
        "type": "Point",
        "coordinates": [
          -91.3656389,
          44.9988561
        ]
      },
      "properties": {
        "addr:city": "Chippewa Falls",
        "addr:housenumber": "14912",
        "addr:postcode": "54729",
        "addr:state": "WI",
        "addr:street": "105th Avenue",
        "name": "O'Neil Creek Campground",
        "tourism": "camp_site",
        "type": "multipolygon",
        "osm_id": 8753799,
        "sources": [
          "unknown"
        ]
      }
    },
    {
      "type": "Feature",
      "geometry": {
        "type": "Point",
        "coordinates": [
          -89.5089152,
          45.6520454
        ]
      },
      "properties": {
        "addr:city": "Rhinelander",
        "addr:housenumber": "6648",
        "addr:postcode": "54501",
        "addr:state": "WI",
        "addr:street": "County Highway K",
        "name": "Camp Birchrock",
        "tourism": "camp_site",
        "type": "multipolygon",
        "website": "http://campfireoneida.org/",
        "osm_id": 9470200,
        "sources": [
          "unknown"
        ]
      }
    },
    {
      "type": "Feature",
      "geometry": {
        "type": "Point",
        "coordinates": [
          -92.2298993,
          46.0087261
        ]
      },
      "properties": {
        "addr:city": "Danbury",
        "addr:housenumber": "30376",
        "addr:postcode": "54830",
        "addr:state": "WI",
        "addr:street": "Lakes Drive",
        "name": "Luther Park Camping and Retreat Center",
        "tourism": "camp_site",
        "type": "multipolygon",
        "osm_id": 9512182,
        "sources": [
          "unknown"
        ]
      }
    },
    {
      "type": "Feature",
      "geometry": {
        "type": "Point",
        "coordinates": [
          -91.6631614,
          45.3465522
        ]
      },
      "properties": {
        "addr:city": "Chetek",
        "addr:housenumber": "944",
        "addr:postcode": "54728",
        "addr:state": "WI",
        "addr:street": "24 1/4 Street",
        "name": "Luther Park Bible Camp",
        "religion": "christian",
        "tourism": "camp_site",
        "type": "multipolygon",
        "osm_id": 9512233,
        "sources": [
          "unknown"
        ]
      }
    },
    {
      "type": "Feature",
      "geometry": {
        "type": "Point",
        "coordinates": [
          -92.3587266,
          45.9086889
        ]
      },
      "properties": {
        "name": "Herzl Camp",
        "tourism": "camp_site",
        "type": "multipolygon",
        "osm_id": 9517498,
        "sources": [
          "unknown"
        ]
      }
    },
    {
      "type": "Feature",
      "geometry": {
        "type": "Point",
        "coordinates": [
          -89.8017028,
          43.6811407
        ]
      },
      "properties": {
        "fee": "yes",
        "name": "Holiday Shores Campground & Resort",
        "tourism": "camp_site",
        "type": "multipolygon",
        "osm_id": 9762568,
        "sources": [
          "unknown"
        ]
      }
    },
    {
      "type": "Feature",
      "geometry": {
        "type": "Point",
        "coordinates": [
          -92.5331057,
          44.5722492
        ]
      },
      "properties": {
        "name": "Island Camping",
        "tourism": "camp_site",
        "type": "multipolygon",
        "osm_id": 9947699,
        "sources": [
          "unknown"
        ]
      }
    },
    {
      "type": "Feature",
      "geometry": {
        "type": "Point",
        "coordinates": [
          -91.2840992,
          44.9577162
        ]
      },
      "properties": {
        "addr:city": "Chippewa Falls",
        "addr:housenumber": "19161",
        "addr:postcode": "54729",
        "addr:state": "WI",
        "addr:street": "79th Avenue",
        "name": "Wisconsin Farmers Union Kamp Kenwood",
        "operator": "Wisconsin Farmers Union",
        "tourism": "camp_site",
        "type": "multipolygon",
        "website": "http://kampkenwood.com/",
        "osm_id": 10104207,
        "sources": [
          "unknown"
        ]
      }
    },
    {
      "type": "Feature",
      "geometry": {
        "type": "Point",
        "coordinates": [
          -91.1922022,
          45.9379526
        ]
      },
      "properties": {
        "access": "customers",
        "email": "info@lakechip.com",
        "fee": "yes",
        "name": "Lake Chippewa Campground",
        "tourism": "camp_site",
        "type": "multipolygon",
        "website": "https://www.lakechip.com",
        "osm_id": 10117538,
        "sources": [
          "unknown"
        ]
      }
    },
    {
      "type": "Feature",
      "geometry": {
        "type": "Point",
        "coordinates": [
          -91.9995018,
          46.0166562
        ]
      },
      "properties": {
        "addr:city": "Trego",
        "addr:housenumber": "N10884",
        "addr:state": "WI",
        "addr:street": "Hoinville Road",
        "name": "Heartwood Conference Center and Retreat",
        "tourism": "camp_site",
        "type": "multipolygon",
        "osm_id": 10142909,
        "sources": [
          "unknown"
        ]
      }
    },
    {
      "type": "Feature",
      "geometry": {
        "type": "Point",
        "coordinates": [
          -90.2189061,
          45.3596995
        ]
      },
      "properties": {
        "addr:city": "Westboro",
        "addr:housenumber": "N8890",
        "addr:postcode": "54490",
        "addr:state": "WI",
        "addr:street": "Forest Lane",
        "name": "Forest Springs Camp & Conference Center",
        "tourism": "camp_site",
        "type": "multipolygon",
        "website": "https://forestsprings.us",
        "osm_id": 10153085,
        "sources": [
          "unknown"
        ]
      }
    },
    {
      "type": "Feature",
      "geometry": {
        "type": "Point",
        "coordinates": [
          -91.8861069,
          45.9361866
        ]
      },
      "properties": {
        "addr:city": "Trego",
        "addr:housenumber": "N8347",
        "addr:postcode": "54888",
        "addr:state": "WI",
        "addr:street": "Bay Park Road",
        "email": "baypark@bayparkresort.com",
        "fee": "yes",
        "name": "Bay Park Resort & Campground",
        "phone": "+1-715-635-2840",
        "tourism": "camp_site",
        "type": "multipolygon",
        "website": "https://www.bayparkresort.com/",
        "osm_id": 10162375,
        "sources": [
          "unknown"
        ]
      }
    },
    {
      "type": "Feature",
      "geometry": {
        "type": "Point",
        "coordinates": [
          -92.7469485,
          45.2395506
        ]
      },
      "properties": {
        "name": "Beaver Valley Camp",
        "tourism": "camp_site",
        "type": "multipolygon",
        "website": "https://beavervalleycamp.org/",
        "osm_id": 10323430,
        "sources": [
          "unknown"
        ]
      }
    },
    {
      "type": "Feature",
      "geometry": {
        "type": "Point",
        "coordinates": [
          -90.6479357,
          45.8128829
        ]
      },
      "properties": {
        "name": "Boyd's Mason Lake Resort",
        "tourism": "camp_site",
        "type": "multipolygon",
        "osm_id": 10478351,
        "sources": [
          "unknown"
        ]
      }
    },
    {
      "type": "Feature",
      "geometry": {
        "type": "Point",
        "coordinates": [
          -89.5201326,
          45.5928289
        ]
      },
      "properties": {
        "addr:city": "Rhinelander",
        "addr:housenumber": "2750",
        "addr:postcode": "54501",
        "addr:state": "WI",
        "addr:street": "Bible Camp Road",
        "name": "Crescent Lake Bible Camp",
        "religion": "christian",
        "tourism": "camp_site",
        "type": "multipolygon",
        "website": "http://crescentlake.camp/",
        "osm_id": 10571810,
        "sources": [
          "unknown"
        ]
      }
    },
    {
      "type": "Feature",
      "geometry": {
        "type": "Point",
        "coordinates": [
          -89.8485754,
          43.7456181
        ]
      },
      "properties": {
        "addr:city": "Lyndon Station",
        "addr:housenumber": "N2884",
        "addr:postcode": "53944",
        "addr:state": "WI",
        "addr:street": "North 28th Avenue",
        "name": "Crockett's Resort",
        "operator": "Ho Chunk Nation",
        "tourism": "camp_site",
        "type": "multipolygon",
        "osm_id": 10664784,
        "sources": [
          "unknown"
        ]
      }
    },
    {
      "type": "Feature",
      "geometry": {
        "type": "Point",
        "coordinates": [
          -89.8236412,
          44.3381033
        ]
      },
      "properties": {
        "addr:city": "Wisconsin Rapids",
        "addr:housenumber": "1053",
        "addr:postcode": "54494",
        "addr:state": "WI",
        "addr:street": "Camp Road",
        "name": "YMCA Camp Alexander",
        "operator": "South Wood County YMCA",
        "tourism": "camp_site",
        "type": "multipolygon",
        "osm_id": 10831070,
        "sources": [
          "unknown"
        ]
      }
    },
    {
      "type": "Feature",
      "geometry": {
        "type": "Point",
        "coordinates": [
          -91.1441481,
          45.2513516
        ]
      },
      "properties": {
        "access": "private",
        "addr:city": "Holcombe",
        "addr:housenumber": "27886",
        "addr:postcode": "54745",
        "addr:state": "WI",
        "addr:street": "295th Avenue",
        "fee": "yes",
        "name": "White Birch Campground",
        "operator": "Xcel Energy",
        "tourism": "camp_site",
        "type": "multipolygon",
        "osm_id": 10952523,
        "sources": [
          "unknown"
        ]
      }
    },
    {
      "type": "Feature",
      "geometry": {
        "type": "Point",
        "coordinates": [
          -91.6785778,
          46.4816118
        ]
      },
      "properties": {
        "name": "YMCA Camp at Lake Nebagamon",
        "operator": "Superior Douglas County Family YMCA",
        "tourism": "camp_site",
        "type": "multipolygon",
        "osm_id": 10989983,
        "sources": [
          "unknown"
        ]
      }
    },
    {
      "type": "Feature",
      "geometry": {
        "type": "Point",
        "coordinates": [
          -91.710617,
          46.5123296
        ]
      },
      "properties": {
        "addr:city": "Lake Nebagamon",
        "addr:housenumber": "11454",
        "addr:postcode": "54849",
        "addr:state": "WI",
        "addr:street": "Camp Nebagamon Drive",
        "name": "Camp Nebagamon",
        "tourism": "camp_site",
        "type": "multipolygon",
        "osm_id": 10992766,
        "sources": [
          "unknown"
        ]
      }
    },
    {
      "type": "Feature",
      "geometry": {
        "type": "Point",
        "coordinates": [
          -91.7517547,
          46.4753419
        ]
      },
      "properties": {
        "addr:city": "Lake Nebagamon",
        "addr:housenumber": "8084",
        "addr:postcode": "54849",
        "addr:state": "WI",
        "addr:street": "Minnesuing Acres Drive",
        "description": "Private retreat center",
        "fee": "yes",
        "name": "Minnesuing Acres",
        "tourism": "camp_site",
        "type": "multipolygon",
        "website": "https://www.minnesuingacres.com/",
        "osm_id": 10994087,
        "sources": [
          "unknown"
        ]
      }
    },
    {
      "type": "Feature",
      "geometry": {
        "type": "Point",
        "coordinates": [
          -91.8276211,
          46.6839946
        ]
      },
      "properties": {
        "addr:city": "South Range",
        "addr:housenumber": "8450",
        "addr:postcode": "54874",
        "addr:state": "WI",
        "addr:street": "East Camp Amnicon Road",
        "name": "Camp Amnicon",
        "tourism": "camp_site",
        "type": "multipolygon",
        "website": "https://amnicon.org/",
        "osm_id": 10995747,
        "sources": [
          "unknown"
        ]
      }
    },
    {
      "type": "Feature",
      "geometry": {
        "type": "Point",
        "coordinates": [
          -91.832182,
          45.6229855
        ]
      },
      "properties": {
        "addr:city": "Rice Lake",
        "addr:housenumber": "2900",
        "addr:postcode": "54868",
        "addr:state": "WI",
        "addr:street": "16th Street",
        "name": "L.E. Phillips Scout Reservation",
        "operator": "Chippewa Valley Council of Boy Scouts of America",
        "tourism": "camp_site",
        "type": "multipolygon",
        "website": "https://campphillips.org/",
        "osm_id": 11030401,
        "sources": [
          "unknown"
        ]
      }
    },
    {
      "type": "Feature",
      "geometry": {
        "type": "Point",
        "coordinates": [
          -91.6842515,
          45.7116244
        ]
      },
      "properties": {
        "access": "private",
        "addr:city": "Birchwood",
        "addr:housenumber": "N1910",
        "addr:postcode": "54817",
        "addr:state": "WI",
        "addr:street": "Scout Road",
        "contact:facebook": "https://www.facebook.com/camptomahawk/",
        "name": "Tomahawk Scout Reservation",
        "operator": "Northern Star Scouting",
        "scout": "yes",
        "tourism": "camp_site",
        "type": "multipolygon",
        "website": "https://www.camptomahawk.org/",
        "osm_id": 11030455,
        "sources": [
          "unknown"
        ]
      }
    },
    {
      "type": "Feature",
      "geometry": {
        "type": "Point",
        "coordinates": [
          -92.4538901,
          45.3746206
        ]
      },
      "properties": {
        "addr:city": "Amery",
        "addr:housenumber": "1442",
        "addr:postcode": "54001",
        "addr:state": "WI",
        "addr:street": "120th Avenue",
        "denomination": "lutheran",
        "name": "Ox Lake Bible Camp",
        "operator": "Lake Wapogasset Lutheran Bible Camp",
        "religion": "christian",
        "tourism": "camp_site",
        "type": "multipolygon",
        "osm_id": 11048923,
        "sources": [
          "unknown"
        ]
      }
    },
    {
      "type": "Feature",
      "geometry": {
        "type": "Point",
        "coordinates": [
          -92.4158345,
          45.3196746
        ]
      },
      "properties": {
        "addr:city": "Amery",
        "addr:housenumber": "738",
        "addr:postcode": "54001",
        "addr:state": "WI",
        "addr:street": "Hickory Point Lane",
        "denomination": "lutheran",
        "name": "Wapo Bible Camp",
        "operator": "Lake Wapogasset Bible Camp",
        "religion": "christian",
        "tourism": "camp_site",
        "type": "multipolygon",
        "osm_id": 11048977,
        "sources": [
          "unknown"
        ]
      }
    },
    {
      "type": "Feature",
      "geometry": {
        "type": "Point",
        "coordinates": [
          -90.6862463,
          44.4547501
        ]
      },
      "properties": {
        "access": "yes",
        "addr:city": "Neillsville",
        "addr:housenumber": "n1035",
        "addr:postcode": "54456",
        "addr:state": "WI",
        "addr:street": "Riviera Avenue",
        "name": "Riviera Resort & Campgrounds",
        "phone": "+1 715 743 4553",
        "tourism": "camp_site",
        "type": "multipolygon",
        "website": "https://rivieraresortandcampground.com/",
        "osm_id": 11107111,
        "sources": [
          "unknown"
        ]
      }
    },
    {
      "type": "Feature",
      "geometry": {
        "type": "Point",
        "coordinates": [
          -89.6506855,
          45.8917505
        ]
      },
      "properties": {
        "name": "Madeline Lake Resort",
        "tourism": "caravan_site",
        "type": "multipolygon",
        "osm_id": 11168665,
        "sources": [
          "unknown"
        ]
      }
    },
    {
      "type": "Feature",
      "geometry": {
        "type": "Point",
        "coordinates": [
          -90.0575317,
          46.167284
        ]
      },
      "properties": {
        "access": "customers",
        "addr:city": "Mercer",
        "addr:housenumber": "2580",
        "addr:postcode": "54547",
        "addr:state": "WI",
        "addr:street": "Margaret Street",
        "charge": "24 USD",
        "contact:website": "http://loonlagoon.org/",
        "fee": "yes",
        "name": "Loon Lagoon Campground and R.V. Park",
        "power_supply": "yes",
        "sanitary_dump_station": "yes",
        "tents": "yes",
        "tourism": "caravan_site",
        "type": "multipolygon",
        "osm_id": 11176542,
        "sources": [
          "unknown"
        ]
      }
    },
    {
      "type": "Feature",
      "geometry": {
        "type": "Point",
        "coordinates": [
          -91.4453223,
          45.2884782
        ]
      },
      "properties": {
        "addr:city": "New Auburn",
        "addr:housenumber": "30765",
        "addr:postcode": "54757",
        "addr:state": "WI",
        "addr:street": "117th Street",
        "name": "Arrowhead Bible Camp",
        "religion": "christian",
        "tourism": "camp_site",
        "type": "multipolygon",
        "website": "https://www.abcamp.org/",
        "osm_id": 11533026,
        "sources": [
          "unknown"
        ]
      }
    },
    {
      "type": "Feature",
      "geometry": {
        "type": "Point",
        "coordinates": [
          -91.4031313,
          45.2451545
        ]
      },
      "properties": {
        "addr:city": "New Auburn",
        "addr:housenumber": "27960",
        "addr:postcode": "54757",
        "addr:state": "WI",
        "addr:street": "137th Street",
        "fee": "yes",
        "name": "Camp Manitou",
        "operator": "YMCA of the Chippewa Valley",
        "owner": "YMCA of the Chippewa Valley",
        "tourism": "camp_site",
        "type": "multipolygon",
        "website": "https://www.ycampmanitou.org/",
        "osm_id": 11533212,
        "sources": [
          "unknown"
        ]
      }
    },
    {
      "type": "Feature",
      "geometry": {
        "type": "Point",
        "coordinates": [
          -91.2354002,
          46.090873
        ]
      },
      "properties": {
        "addr:city": "Hayward",
        "addr:housenumber": "10970",
        "addr:postcode": "54843",
        "addr:state": "WI",
        "addr:street": "West Boys Camp Road",
        "fee": "yes",
        "name": "North Star Camp",
        "tourism": "camp_site",
        "type": "multipolygon",
        "website": "https://northstarcamp.com/",
        "osm_id": 11599577,
        "sources": [
          "unknown"
        ]
      }
    },
    {
      "type": "Feature",
      "geometry": {
        "type": "Point",
        "coordinates": [
          -89.5199336,
          45.9256212
        ]
      },
      "properties": {
        "fee": "yes",
        "internet_access": "yes",
        "internet_access:fee": "yes",
        "name": "Lynn Anne's Campground",
        "tourism": "camp_site",
        "type": "multipolygon",
        "osm_id": 11695479,
        "sources": [
          "unknown"
        ]
      }
    },
    {
      "type": "Feature",
      "geometry": {
        "type": "Point",
        "coordinates": [
          -95.4341345,
          46.1913628
        ]
      },
      "properties": {
        "access": "customers",
        "group_only": "yes",
        "name": "Inspiration Point at Twin Oaks",
        "operator": "Lutheran Brethren Bible Camp",
        "tourism": "camp_site",
        "type": "multipolygon",
        "website": "https://ipoint.org/",
        "osm_id": 11696948,
        "sources": [
          "unknown"
        ]
      }
    },
    {
      "type": "Feature",
      "geometry": {
        "type": "Point",
        "coordinates": [
          -94.9394587,
          47.0977524
        ]
      },
      "properties": {
        "access": "customers",
        "group_only": "yes",
        "name": "Camp Wilderness",
        "operator": "Northern Lights Council - Boy Scouts of America",
        "tourism": "camp_site",
        "type": "multipolygon",
        "osm_id": 11750717,
        "sources": [
          "unknown"
        ]
      }
    },
    {
      "type": "Feature",
      "geometry": {
        "type": "Point",
        "coordinates": [
          -91.2640449,
          46.4969671
        ]
      },
      "properties": {
        "name": "Camp Northwoods",
        "operator": "Girl Scouts of Minnesota and Wisconsin River Valleys",
        "tourism": "camp_site",
        "type": "multipolygon",
        "osm_id": 11851617,
        "sources": [
          "unknown"
        ]
      }
    },
    {
      "type": "Feature",
      "geometry": {
        "type": "Point",
        "coordinates": [
          -91.8242976,
          45.9095255
        ]
      },
      "properties": {
        "addr:city": "Trego",
        "addr:housenumber": "W5665",
        "addr:postcode": "54888",
        "addr:state": "WI",
        "addr:street": "Trego Park Road",
        "charge": "26 USD",
        "drinking_water": "yes",
        "fee": "yes",
        "name": "Trego Town Park",
        "phone": "+1-715-635-6075",
        "power_supply": "yes",
        "toilets": "yes",
        "tourism": "caravan_site",
        "tourism_1": "camp_site",
        "type": "multipolygon",
        "website": "http://www.washburncounty.org/service/392#",
        "osm_id": 11924905,
        "sources": [
          "unknown"
        ]
      }
    },
    {
      "type": "Feature",
      "geometry": {
        "type": "Point",
        "coordinates": [
          -89.6426624,
          45.8420108
        ]
      },
      "properties": {
        "access": "customers",
        "name": "Indian Shores Camping and Cottage Resort",
        "tourism": "camp_site",
        "type": "multipolygon",
        "website": "https://www.indian-shores.com/",
        "osm_id": 11959441,
        "sources": [
          "unknown"
        ]
      }
    },
    {
      "type": "Feature",
      "geometry": {
        "type": "Point",
        "coordinates": [
          -92.7608388,
          45.0952616
        ]
      },
      "properties": {
        "addr:city": "Houlton",
        "addr:housenumber": "168",
        "addr:postcode": "54082",
        "addr:state": "WI",
        "addr:street": "Andersen Scout Camp Trail",
        "leisure": "summer_camp",
        "name": "Fred C. Andersen Scout Camp",
        "tourism": "camp_site",
        "type": "multipolygon",
        "osm_id": 12201883,
        "sources": [
          "unknown"
        ]
      }
    },
    {
      "type": "Feature",
      "geometry": {
        "type": "Point",
        "coordinates": [
          -89.8088448,
          43.580779
        ]
      },
      "properties": {
        "name": "Camp Delton Club",
        "tourism": "camp_site",
        "type": "multipolygon",
        "osm_id": 12322385,
        "sources": [
          "unknown"
        ]
      }
    },
    {
      "type": "Feature",
      "geometry": {
        "type": "Point",
        "coordinates": [
          -89.8000709,
          43.5766598
        ]
      },
      "properties": {
        "addr:city": "Baraboo",
        "addr:housenumber": "S1915",
        "addr:postcode": "53913",
        "addr:state": "WI",
        "addr:street": "Ishnala Road",
        "brand": "Yogi Bear's Jellystone Park",
        "brand:wikidata": "Q8054389",
        "name": "Yogi Bear's Jellystone Park",
        "official_name": "Yogi Bear's Jellystone Park Camp-Resorts",
        "phone": "+1-800-462-9644",
        "source": "Yogi Bear's Jellystone Campground",
        "tourism": "caravan_site",
        "type": "multipolygon",
        "website": "https://dellsjellystone.com/",
        "wikipedia": "en:Yogi Bear's Jellystone Park Camp-Resorts",
        "osm_id": 12332012,
        "sources": [
          "Yogi Bear's Jellystone Campground"
        ]
      }
    },
    {
      "type": "Feature",
      "geometry": {
        "type": "Point",
        "coordinates": [
          -92.2023053,
          44.4532844
        ]
      },
      "properties": {
        "name": "Camp Pepin",
        "operator": "Red Wing Family YMCA",
        "tourism": "camp_site",
        "type": "multipolygon",
        "osm_id": 12426764,
        "sources": [
          "unknown"
        ]
      }
    },
    {
      "type": "Feature",
      "geometry": {
        "type": "Point",
        "coordinates": [
          -90.8883759,
          46.945741
        ]
      },
      "properties": {
        "addr:city": "Bayfield",
        "addr:housenumber": "32665",
        "addr:postcode": "54814",
        "addr:state": "WI",
        "addr:street": "Little Sand Bay Road",
        "capacity:caravans": "32",
        "capacity:tents": "14",
        "caravans": "yes",
        "dog": "leashed",
        "fee": "yes",
        "name": "Little Sand Bay Campground",
        "operator": "Town of Russell",
        "operator:type": "government",
        "power_supply": "yes",
        "shower": "yes",
        "tents": "yes",
        "tourism": "camp_site",
        "type": "multipolygon",
        "website": "https://townofrussellwi.gov/little-sand-bay-recreation-area/",
        "osm_id": 12652977,
        "sources": [
          "unknown"
        ]
      }
    },
    {
      "type": "Feature",
      "geometry": {
        "type": "Point",
        "coordinates": [
          -91.3014968,
          46.4751869
        ]
      },
      "properties": {
        "addr:city": "Iron River",
        "addr:housenumber": "62020",
        "addr:postcode": "54847",
        "addr:state": "WI",
        "addr:street": "County Highway H",
        "fee": "yes",
        "name": "Delta Lake Campground",
        "operator": "Bayfield County",
        "owner": "Bayfield County",
        "tourism": "camp_site",
        "type": "multipolygon",
        "osm_id": 12659573,
        "sources": [
          "unknown"
        ]
      }
    },
    {
      "type": "Feature",
      "geometry": {
        "type": "Point",
        "coordinates": [
          -91.3584016,
          46.5078077
        ]
      },
      "properties": {
        "addr:city": "Iron River",
        "addr:housenumber": "10370",
        "addr:postcode": "54847",
        "addr:state": "WI",
        "addr:street": "County Highway H",
        "fee": "yes",
        "name": "Twin Lakes Campground",
        "operator": "Bayfield County",
        "owner": "Bayfield County",
        "tourism": "camp_site",
        "type": "multipolygon",
        "osm_id": 12659576,
        "sources": [
          "unknown"
        ]
      }
    },
    {
      "type": "Feature",
      "geometry": {
        "type": "Point",
        "coordinates": [
          -91.1292681,
          46.7986523
        ]
      },
      "properties": {
        "access": "yes",
        "addr:city": "Cornucopia",
        "addr:housenumber": "21255",
        "addr:postcode": "54827",
        "addr:state": "WI",
        "addr:street": "Siskiwit Lake Drive",
        "alt_name": "Town of Bell Campground",
        "alt_name_2": "Siskiwit Campground",
        "fee": "yes",
        "name": "Siskiwit Lake Campground",
        "operator": "Town of Bell",
        "operator:type": "government",
        "owner": "Town of Bell",
        "tourism": "camp_site",
        "type": "multipolygon",
        "osm_id": 12661502,
        "sources": [
          "unknown"
        ]
      }
    },
    {
      "type": "Feature",
      "geometry": {
        "type": "Point",
        "coordinates": [
          -92.0331612,
          43.712889
        ]
      },
      "properties": {
        "name": "The Old Barn Resort",
        "tourism": "camp_site",
        "type": "multipolygon",
        "osm_id": 13231946,
        "sources": [
          "unknown"
        ]
      }
    },
    {
      "type": "Feature",
      "geometry": {
        "type": "Point",
        "coordinates": [
          -90.8271972,
          46.9310389
        ]
      },
      "properties": {
        "access": "permit",
        "alt_name": "Raspberry Bay Campground",
        "name": "Raspberry Tribal Campground",
        "operator": "Red Cliff Band of Lake Superior Chippewa",
        "tourism": "camp_site",
        "type": "multipolygon",
        "osm_id": 13552194,
        "sources": [
          "unknown"
        ]
      }
    },
    {
      "type": "Feature",
      "geometry": {
        "type": "Point",
        "coordinates": [
          -89.8580373,
          46.0311784
        ]
      },
      "properties": {
        "access": "private",
        "addr:city": "Lac du Flambeau",
        "addr:housenumber": "13400",
        "addr:postcode": "54538",
        "addr:state": "WI",
        "addr:street": "Camp Nawakwa Lane",
        "fee": "yes",
        "name": "YMCA Family Camp Nawakwa",
        "operator": "YMCA of Metro Chicago",
        "tourism": "camp_site",
        "type": "multipolygon",
        "website": "https://www.ymcachicago.org/nawakwa/",
        "osm_id": 13592936,
        "sources": [
          "unknown"
        ]
      }
    },
    {
      "type": "Feature",
      "geometry": {
        "type": "Point",
        "coordinates": [
          -91.8248997,
          45.9066041
        ]
      },
      "properties": {
        "addr:city": "Trego",
        "addr:housenumber": "N7470",
        "addr:postcode": "54888",
        "addr:state": "WI",
        "addr:street": "Log Cabin Drive",
        "fee": "yes",
        "name": "Log Cabin Resort",
        "phone": "+1-715-635-2959",
        "tourism": "caravan_site",
        "tourism_1": "camp_site",
        "type": "multipolygon",
        "website": "https://www.logcabin-resort.com/",
        "osm_id": 13632003,
        "sources": [
          "unknown"
        ]
      }
    },
    {
      "type": "Feature",
      "geometry": {
        "type": "Point",
        "coordinates": [
          -91.9208237,
          46.1539912
        ]
      },
      "properties": {
        "access": "private",
        "addr:city": "Minong",
        "addr:housenumber": "W7471",
        "addr:postcode": "54859",
        "addr:state": "WI",
        "addr:street": "Ernie Swift Road",
        "fee": "yes",
        "name": "Swift Nature Camp",
        "tourism": "camp_site",
        "type": "multipolygon",
        "website": "https://swiftnaturecamp.com/",
        "osm_id": 13671383,
        "sources": [
          "unknown"
        ]
      }
    },
    {
      "type": "Feature",
      "geometry": {
        "type": "Point",
        "coordinates": [
          -89.9131369,
          45.9699859
        ]
      },
      "properties": {
        "caravans": "yes",
        "drinking_water": "yes",
        "fee": "yes",
        "name": "Lac du Flambeau Tribal Campground",
        "operator": "Lac du Flambeau Band of Lake Superior Chippewa Indians",
        "reservation": "yes",
        "shower": "yes",
        "source": "Local knowledge",
        "tents": "yes",
        "toilets": "yes",
        "tourism": "camp_site",
        "type": "multipolygon",
        "osm_id": 14033249,
        "sources": [
          "Local knowledge"
        ]
      }
    },
    {
      "type": "Feature",
      "geometry": {
        "type": "Point",
        "coordinates": [
          -90.8809761,
          46.9420071
        ]
      },
      "properties": {
        "access": "private",
        "addr:city": "Bayfield",
        "addr:housenumber": "33095",
        "addr:postcode": "54814",
        "addr:state": "WI",
        "addr:street": "Little Sand Bay Road",
        "fee": "yes",
        "name": "Wilderness Inquiry Little Sand Bay Base Camp",
        "tourism": "camp_site",
        "type": "multipolygon",
        "osm_id": 14226426,
        "sources": [
          "unknown"
        ]
      }
    },
    {
      "type": "Feature",
      "geometry": {
        "type": "Point",
        "coordinates": [
          -90.8748208,
          46.9591274
        ]
      },
      "properties": {
        "addr:city": "Red Cliff",
        "addr:housenumber": "95995",
        "addr:postcode": "54814",
        "addr:state": "WI",
        "addr:street": "Point Detour Road",
        "capacity": "25",
        "charge": "25 USD",
        "fee": "yes",
        "name": "Point Detour “Wilderness” Campground",
        "operator": "Legendary Waters Casino",
        "reservation": "no",
        "toilets": "yes",
        "tourism": "camp_site",
        "type": "multipolygon",
        "website": "http://legendarywaters.com/campground-marina/",
        "osm_id": 14237222,
        "sources": [
          "unknown"
        ]
      }
    },
    {
      "type": "Feature",
      "geometry": {
        "type": "Point",
        "coordinates": [
          -96.7075113,
          43.8195963
        ]
      },
      "properties": {
        "access": "yes",
        "addr:city": "Dell Rapids",
        "addr:housenumber": "600",
        "addr:postcode": "57022",
        "addr:state": "SD",
        "addr:street": "Zero Street",
        "name": "Dell Rapids Campground",
        "tourism": "camp_site",
        "type": "multipolygon",
        "osm_id": 15842692,
        "sources": [
          "unknown"
        ]
      }
    },
    {
      "type": "Feature",
      "geometry": {
        "type": "Point",
        "coordinates": [
          -90.6736422,
          46.796556
        ]
      },
      "properties": {
        "access": "yes",
        "area": "yes",
        "drinking_water": "yes",
        "fee": "yes",
        "name": "Big Bay State Park Campground",
        "operator": "Wisconsin Department of Natural Resources",
        "operator:short": "Wisconsin DNR",
        "operator:type": "government",
        "operator:website": "https://dnr.wisconsin.gov/topic/Parks",
        "operator:wikidata": "Q1467508",
        "operator:wikipedia": "en:Wisconsin Department of Natural Resources",
        "power_supply": "yes",
        "reservation": "required",
        "shower": "yes",
        "toilets": "yes",
        "tourism": "camp_site",
        "type": "multipolygon",
        "osm_id": 16650858,
        "sources": [
          "unknown"
        ]
      }
    },
    {
      "type": "Feature",
      "geometry": {
        "type": "Point",
        "coordinates": [
          -96.7383747,
          43.7652861
        ]
      },
      "properties": {
        "name": "River Park Campground",
        "tourism": "camp_site",
        "type": "multipolygon",
        "osm_id": 17153210,
        "sources": [
          "unknown"
        ]
      }
    },
    {
      "type": "Feature",
      "geometry": {
        "type": "Point",
        "coordinates": [
          -93.0655534,
          48.4818502
        ]
      },
      "properties": {
        "name": "Woodenfrog Campground",
        "phone": "+12182352520",
        "tourism": "camp_site",
        "type": "multipolygon",
        "website": "https://www.dnr.state.mn.us/state_forests/forest.html?id=sft00027#cmp00032",
        "osm_id": 17763013,
        "sources": [
          "unknown"
        ]
      }
    },
    {
      "type": "Feature",
      "geometry": {
        "type": "Point",
        "coordinates": [
          -90.9353846,
          46.9801698
        ]
      },
      "properties": {
        "access": "yes",
        "caravans": "no",
        "fee": "yes",
        "name": "Sand Island East Dock Campsites",
        "operator": "National Park Service",
        "operator:short": "NPS",
        "operator:type": "public",
        "operator:wikidata": "Q308439",
        "operator:wikipedia": "en:National Park Service",
        "picnic_table": "yes",
        "static_caravans": "no",
        "tents": "yes",
        "toilets": "yes",
        "tourism": "camp_site",
        "type": "multipolygon",
        "osm_id": 17918377,
        "sources": [
          "unknown"
        ]
      }
    },
    {
      "type": "Feature",
      "geometry": {
        "type": "Point",
        "coordinates": [
          -90.4329307,
          48.0664445
        ]
      },
      "properties": {
        "access": "customers",
        "addr:city": "Grand Marais",
        "addr:housenumber": "55",
        "addr:postcode": "55604",
        "addr:state": "MN",
        "addr:street": "Menogyn Trail",
        "caravans": "no",
        "description": "\"My Menogyn friends are my best friends.\"\n\nThis campground is a year long overnight camp owned by the YMCA of the North.",
        "fee": "yes",
        "impromptu": "no",
        "leisure": "summer_camp",
        "name": "Camp Menogyn",
        "operator": "YMCA of the North",
        "static_caravans": "no",
        "tents": "no",
        "tourism": "camp_site",
        "type": "multipolygon",
        "website": "https://www.ymcanorth.org/camps/camp_menogyn",
        "osm_id": 18003541,
        "sources": [
          "unknown"
        ]
      }
    },
    {
      "type": "Feature",
      "geometry": {
        "type": "Point",
        "coordinates": [
          -90.8800941,
          46.6766126
        ]
      },
      "properties": {
        "caravans": "yes",
        "drinking_water": "yes",
        "fee": "yes",
        "group_only": "no",
        "name": "Memorial Park Campground",
        "operator": "City of Washburn",
        "operator:type": "government",
        "picnic_table": "yes",
        "reservation": "no",
        "sanitary_dump_station": "yes",
        "shower": "yes",
        "tents": "yes",
        "toilets": "yes",
        "tourism": "camp_site",
        "type": "multipolygon",
        "osm_id": 18075259,
        "sources": [
          "unknown"
        ]
      }
    },
    {
      "type": "Feature",
      "geometry": {
        "type": "Point",
        "coordinates": [
          -95.530084,
          47.0747826
        ]
      },
      "properties": {
        "access": "customers",
        "group_only": "yes",
        "name": "Many Point Scout Camp",
        "operator": "Northern Star Council, Boy Scouts of America",
        "tourism": "camp_site",
        "type": "multipolygon",
        "osm_id": 18363717,
        "sources": [
          "unknown"
        ]
      }
    },
    {
      "type": "Feature",
      "geometry": {
        "type": "Point",
        "coordinates": [
          -90.8366846,
          46.804578
        ]
      },
      "properties": {
        "addr:city": "Bayfield",
        "addr:housenumber": "85150",
        "addr:postcode": "54814",
        "addr:state": "WI",
        "addr:street": "Trailer Court Rd.",
        "backcountry": "no",
        "capacity": "63",
        "caravans": "yes",
        "drinking_water": "yes",
        "group_only": "no",
        "internet_access": "wlan",
        "name": "Apostle Islands Area Campground",
        "power_supply": "yes",
        "reservation": "required",
        "tents": "yes",
        "toilets": "yes",
        "tourism": "camp_site",
        "type": "multipolygon",
        "website": "https://www.aiacamping.com/",
        "osm_id": 19260433,
        "sources": [
          "unknown"
        ]
      }
    },
    {
      "type": "Feature",
      "geometry": {
        "type": "Point",
        "coordinates": [
          -96.4347849,
          44.5064682
        ]
      },
      "properties": {
        "addr:city": "Hendricks",
        "addr:postcode": "56136",
        "addr:state": "MN",
        "capacity": "27",
        "charge": "25 USD",
        "description": "$18-$25",
        "fee": "yes",
        "motor_vehicle": "yes",
        "name": "Lake Hendricks Campground",
        "note": "Currently undergoing construction to campground; area should likely encompass expansion.",
        "tents": "yes",
        "tourism": "camp_site",
        "type": "multipolygon",
        "website": "http://www.hendricksmn.com/HendricksCampGrounds.asp",
        "osm_id": 19672607,
        "sources": [
          "unknown"
        ]
      }
    }
  ]
}