{
  "type": "FeatureCollection",
  "features": [
    {
      "type": "Feature",
      "geometry": {
        "type": "Point",
        "coordinates": [
          -90.4157207,
          34.8180399
        ]
      },
      "properties": {
        "created_by": "Potlatch 0.10",
        "name": "Sam's Town RV Park",
        "tourism": "caravan_site",
        "osm_id": 280815404,
        "sources": [
          "unknown"
        ]
      }
    },
    {
      "type": "Feature",
      "geometry": {
        "type": "Point",
        "coordinates": [
          -89.7075049,
          30.3021307
        ]
      },
      "properties": {
        "name": "WMA camp site (free)",
        "tourism": "camp_site",
        "osm_id": 2853059361,
        "sources": [
          "unknown"
        ]
      }
    },
    {
      "type": "Feature",
      "geometry": {
        "type": "Point",
        "coordinates": [
          -89.1473987,
          33.2751188
        ]
      },
      "properties": {
        "name": "Tombigbee National Forest - Choctaw Lake Campground",
        "rating": null,
        "reviews_count": 0,
        "cost": 0,
        "amenities": [],
        "rig_friendly": [],
        "type": "established",
        "sources": [
          "unknown"
        ],
        "tourism": "camp_site",
        "osm_id": 1161947157
      }
    },
    {
      "type": "Feature",
      "geometry": {
        "type": "Point",
        "coordinates": [
          -88.8205393,
          32.2288186
        ]
      },
      "properties": {
        "addr:city": "Enterprise",
        "addr:housenumber": "6890",
        "addr:postcode": "39930",
        "addr:state": "MS",
        "addr:street": "Dunns Falls Road",
        "contact:website": "http://www.phwd.net/dunns/dunns.html",
        "name": "Dunn's Falls Water Park",
        "operator": "Pat Harrison Waterway District",
        "phone": "+1 601-655-8550",
        "tourism": "camp_site",
        "website": "http://www.phwd.net/dunns/dunns.html",
        "osm_id": 3216120803,
        "sources": [
          "unknown"
        ]
      }
    },
    {
      "type": "Feature",
      "geometry": {
        "type": "Point",
        "coordinates": [
          -89.3521217,
          34.4368766
        ]
      },
      "properties": {
        "addr:state": "MS",
        "charge": "7 USD",
        "fee": "yes",
        "payment:cash": "yes",
        "tourism": "camp_site",
        "osm_id": 3253581410,
        "sources": [
          "unknown"
        ]
      }
    },
    {
      "type": "Feature",
      "geometry": {
        "type": "Point",
        "coordinates": [
          -88.1495459,
          31.755621
        ]
      },
      "properties": {
        "tourism": "camp_site",
        "osm_id": 3264344560,
        "sources": [
          "unknown"
        ]
      }
    },
    {
      "type": "Feature",
      "geometry": {
        "type": "Point",
        "coordinates": [
          -91.4155884,
          30.6898616
        ]
      },
      "properties": {
        "name": "Jim's Place",
        "tourism": "camp_site",
        "osm_id": 3489274159,
        "sources": [
          "unknown"
        ]
      }
    },
    {
      "type": "Feature",
      "geometry": {
        "type": "Point",
        "coordinates": [
          -89.4048928,
          30.269938
        ]
      },
      "properties": {
        "tourism": "camp_site",
        "osm_id": 3489274160,
        "sources": [
          "unknown"
        ]
      }
    },
    {
      "type": "Feature",
      "geometry": {
        "type": "Point",
        "coordinates": [
          -88.7421727,
          30.843389
        ]
      },
      "properties": {
        "backcountry": "yes",
        "tents": "yes",
        "tourism": "camp_site",
        "osm_id": 3627627245,
        "sources": [
          "unknown"
        ]
      }
    },
    {
      "type": "Feature",
      "geometry": {
        "type": "Point",
        "coordinates": [
          -88.7614032,
          30.8726912
        ]
      },
      "properties": {
        "backcountry": "yes",
        "tents": "yes",
        "tourism": "camp_site",
        "osm_id": 3627629203,
        "sources": [
          "unknown"
        ]
      }
    },
    {
      "type": "Feature",
      "geometry": {
        "type": "Point",
        "coordinates": [
          -89.7576006,
          30.2418866
        ]
      },
      "properties": {
        "name": "Pine Crest RV Park",
        "tourism": "caravan_site",
        "osm_id": 4134190737,
        "sources": [
          "unknown"
        ]
      }
    },
    {
      "type": "Feature",
      "geometry": {
        "type": "Point",
        "coordinates": [
          -90.3741876,
          30.5627083
        ]
      },
      "properties": {
        "name:en": "Camp living water",
        "tourism": "camp_site",
        "osm_id": 4382331490,
        "sources": [
          "unknown"
        ]
      }
    },
    {
      "type": "Feature",
      "geometry": {
        "type": "Point",
        "coordinates": [
          -89.4596812,
          34.5280424
        ]
      },
      "properties": {
        "addr:street": "County Road 297",
        "name": "Graham Lake",
        "tourism": "camp_site",
        "osm_id": 4413926198,
        "sources": [
          "unknown"
        ]
      }
    },
    {
      "type": "Feature",
      "geometry": {
        "type": "Point",
        "coordinates": [
          -89.0220447,
          31.7937303
        ]
      },
      "properties": {
        "addr:city": "Sandersville",
        "addr:housenumber": "925",
        "addr:postcode": "39477",
        "addr:state": "MS",
        "addr:street": "North Front Street",
        "contact:website": "http://www.gofishrvpark.com/",
        "internet_access": "wlan",
        "name": "Go Fish R. V. Park",
        "pets": "yes",
        "phone": "+1 601-470-4443",
        "power_supply": "yes",
        "source": "survey 2015-11-28;Mapillary",
        "tourism": "caravan_site",
        "website": "http://www.gofishrvpark.com/",
        "osm_id": 4635066386,
        "sources": [
          "survey 2015-11-28;Mapillary"
        ]
      }
    },
    {
      "type": "Feature",
      "geometry": {
        "type": "Point",
        "coordinates": [
          -88.7959077,
          30.397347
        ]
      },
      "properties": {
        "name": "RV Campground",
        "tourism": "caravan_site",
        "osm_id": 4831269970,
        "sources": [
          "unknown"
        ]
      }
    },
    {
      "type": "Feature",
      "geometry": {
        "type": "Point",
        "coordinates": [
          -88.4366919,
          30.6347566
        ]
      },
      "properties": {
        "name": "Camp ground",
        "name:en": "Camp ground",
        "tourism": "camp_site",
        "osm_id": 4880354423,
        "sources": [
          "unknown"
        ]
      }
    },
    {
      "type": "Feature",
      "geometry": {
        "type": "Point",
        "coordinates": [
          -89.7901954,
          34.1267993
        ]
      },
      "properties": {
        "tourism": "camp_site",
        "osm_id": 5235293392,
        "sources": [
          "unknown"
        ]
      }
    },
    {
      "type": "Feature",
      "geometry": {
        "type": "Point",
        "coordinates": [
          -90.1142584,
          34.7745283
        ]
      },
      "properties": {
        "caravans": "yes",
        "fee": "yes",
        "internet_access": "no",
        "motor_vehicle": "yes",
        "name": "Dub Patton Campground",
        "openfire": "yes",
        "operator": "US Army Corps of Engineers",
        "tents": "yes",
        "tourism": "camp_site",
        "osm_id": 5645872378,
        "sources": [
          "unknown"
        ]
      }
    },
    {
      "type": "Feature",
      "geometry": {
        "type": "Point",
        "coordinates": [
          -89.6948216,
          34.4288976
        ]
      },
      "properties": {
        "addr:state": "MS",
        "fee": "yes",
        "name": "Clear Creek Campground",
        "tourism": "camp_site",
        "osm_id": 5700308238,
        "sources": [
          "unknown"
        ]
      }
    },
    {
      "type": "Feature",
      "geometry": {
        "type": "Point",
        "coordinates": [
          -89.6954275,
          34.4257271
        ]
      },
      "properties": {
        "name": "Toby Tubby BSA Camp",
        "tourism": "camp_site",
        "osm_id": 5700329421,
        "sources": [
          "unknown"
        ]
      }
    },
    {
      "type": "Feature",
      "geometry": {
        "type": "Point",
        "coordinates": [
          -89.6947852,
          34.4243656
        ]
      },
      "properties": {
        "addr:state": "MS",
        "tourism": "camp_site",
        "osm_id": 5700329422,
        "sources": [
          "unknown"
        ]
      }
    },
    {
      "type": "Feature",
      "geometry": {
        "type": "Point",
        "coordinates": [
          -89.7392208,
          34.3389993
        ]
      },
      "properties": {
        "addr:state": "MS",
        "name": "Rebel Campground",
        "tourism": "camp_site",
        "osm_id": 5706500592,
        "sources": [
          "unknown"
        ]
      }
    },
    {
      "type": "Feature",
      "geometry": {
        "type": "Point",
        "coordinates": [
          -89.9868186,
          30.6946845
        ]
      },
      "properties": {
        "addr:city": "Bogalusa",
        "addr:housenumber": "12101",
        "addr:postcode": "70427",
        "addr:state": "LA",
        "addr:street": "George Jenkins Rd E",
        "name": "Berry Creek Cabins",
        "phone": "+1-985-730-4395",
        "tourism": "camp_site",
        "website": "http://www.berrycreekcabins.com",
        "osm_id": 5722850050,
        "sources": [
          "unknown"
        ]
      }
    },
    {
      "type": "Feature",
      "geometry": {
        "type": "Point",
        "coordinates": [
          -89.5843391,
          34.4935266
        ]
      },
      "properties": {
        "tourism": "camp_site",
        "osm_id": 5743723771,
        "sources": [
          "unknown"
        ]
      }
    },
    {
      "type": "Feature",
      "geometry": {
        "type": "Point",
        "coordinates": [
          -89.5790678,
          33.037809
        ]
      },
      "properties": {
        "caravans": "no",
        "motor_vehicle": "no",
        "name": "Kosciusko Bicycle-only Campground, milepost 160",
        "tents": "yes",
        "tourism": "camp_site",
        "website": "https://www.nps.gov/natr/kosciusko-bicycle-only-campground.htm",
        "osm_id": 6264759345,
        "sources": [
          "unknown"
        ]
      }
    },
    {
      "type": "Feature",
      "geometry": {
        "type": "Point",
        "coordinates": [
          -88.9402596,
          33.9114635
        ]
      },
      "properties": {
        "caravans": "no",
        "motor_vehicle": "no",
        "name": "Witch Dance Bicycle-only Campground, at milepost 234",
        "operator": "National Park Service",
        "tents": "yes",
        "tourism": "camp_site",
        "website": "https://www.nps.gov/natr/witch-dance-bicycle-only-campground.htm",
        "osm_id": 6264777129,
        "sources": [
          "unknown"
        ]
      }
    },
    {
      "type": "Feature",
      "geometry": {
        "type": "Point",
        "coordinates": [
          -91.1688572,
          34.8874046
        ]
      },
      "properties": {
        "tourism": "camp_site",
        "osm_id": 6278707040,
        "sources": [
          "unknown"
        ]
      }
    },
    {
      "type": "Feature",
      "geometry": {
        "type": "Point",
        "coordinates": [
          -88.3278563,
          34.5680375
        ]
      },
      "properties": {
        "capacity": "141",
        "caravans": "yes",
        "drinking_water": "yes",
        "fee": "yes",
        "name": "Piney Grove Campground",
        "opening_hours": "Mar 01-Nov 14 unknown; Nov 15-Feb 29 closed",
        "operator": "U.S. Army Corps of Engineers",
        "phone": "+1-662-728-1134",
        "power_supply": "yes",
        "shower": "yes",
        "tourism": "camp_site",
        "website": "https://www.recreation.gov/camping/campgrounds/232673",
        "osm_id": 6405590678,
        "sources": [
          "unknown"
        ]
      }
    },
    {
      "type": "Feature",
      "geometry": {
        "type": "Point",
        "coordinates": [
          -89.8106332,
          32.3310095
        ]
      },
      "properties": {
        "addr:city": "Pelahatchie",
        "addr:housenumber": "143",
        "addr:postcode": "39145",
        "addr:street": "Campground Road",
        "internet_access": "wlan",
        "name": "Yogi On The Lake Jellystone Park",
        "note": "Recreational activities include swimming pools, water slides, outdoor theater, seasonal haunted trail and mini golf.",
        "phone": "+1 601 854 6859",
        "toilets": "yes",
        "tourism": "caravan_site",
        "website": "https://www.jellystonems.com",
        "wheelchair": "limited",
        "osm_id": 7636810285,
        "sources": [
          "unknown"
        ]
      }
    },
    {
      "type": "Feature",
      "geometry": {
        "type": "Point",
        "coordinates": [
          -90.6968569,
          34.711289
        ]
      },
      "properties": {
        "addr:city": "Marianna",
        "addr:housenumber": "2955",
        "addr:postcode": "72360",
        "addr:state": "AR",
        "addr:street": "State Hwy 44",
        "capacity": "17",
        "charge": "34 USD",
        "fee": "yes",
        "name": "Mississippi River SP - Beech Point",
        "phone": "+1-870-295-4040",
        "shower": "yes",
        "tents": "yes",
        "tourism": "camp_site",
        "osm_id": 7874303647,
        "sources": [
          "unknown"
        ]
      }
    },
    {
      "type": "Feature",
      "geometry": {
        "type": "Point",
        "coordinates": [
          -90.323275,
          32.5142636
        ]
      },
      "properties": {
        "addr:city": "Flora",
        "addr:state": "MS",
        "capacity": "15",
        "charge": "22 USD",
        "fee": "yes",
        "name": "Mississippi Petrified Forest",
        "phone": "+1-601-879-8189",
        "power_supply": "yes",
        "tourism": "camp_site",
        "osm_id": 7874303648,
        "sources": [
          "unknown"
        ]
      }
    },
    {
      "type": "Feature",
      "geometry": {
        "type": "Point",
        "coordinates": [
          -89.3386965,
          34.7310256
        ]
      },
      "properties": {
        "addr:city": "Holly Springs",
        "addr:state": "MS",
        "capacity": "36",
        "charge": "20 USD",
        "fee": "yes",
        "name": "Chewalla Lake Campground",
        "phone": "+1-662-236-6550",
        "power_supply": "yes",
        "shower": "yes",
        "tourism": "camp_site",
        "osm_id": 7885560368,
        "sources": [
          "unknown"
        ]
      }
    },
    {
      "type": "Feature",
      "geometry": {
        "type": "Point",
        "coordinates": [
          -88.9544349,
          34.7951499
        ]
      },
      "properties": {
        "addr:city": "Raipley",
        "addr:state": "MS",
        "capacity": "22",
        "charge": "18 USD",
        "fee": "yes",
        "name": "Tippah County Lake - MDWFP",
        "phone": "+1 662-837-9850",
        "power_supply": "yes",
        "toilets": "yes",
        "tourism": "camp_site",
        "osm_id": 7885560369,
        "sources": [
          "unknown"
        ]
      }
    },
    {
      "type": "Feature",
      "geometry": {
        "type": "Point",
        "coordinates": [
          -88.7115724,
          34.3318422
        ]
      },
      "properties": {
        "addr:city": "Tupeol",
        "addr:state": "MS",
        "backcountry": "yes",
        "drinking_water": "yes",
        "fee": "free for cyclitst",
        "name": "Natchez Trace NP - Tupelo Bicycle CG",
        "phone": "+1-800-305-7417",
        "reservation": "no",
        "tents": "only",
        "toilets": "yes",
        "tourism": "camp_site",
        "osm_id": 7885560370,
        "sources": [
          "unknown"
        ]
      }
    },
    {
      "type": "Feature",
      "geometry": {
        "type": "Point",
        "coordinates": [
          -88.9363654,
          33.9846463
        ]
      },
      "properties": {
        "addr:city": "Okolona",
        "addr:state": "MS",
        "backcountry": "yes",
        "drinking_water": "no",
        "fee": "no",
        "name": "Paynatha Trail Head - USFS",
        "toilets": "vault",
        "tourism": "camp_site",
        "osm_id": 7885560371,
        "sources": [
          "unknown"
        ]
      }
    },
    {
      "type": "Feature",
      "geometry": {
        "type": "Point",
        "coordinates": [
          -90.1445662,
          32.3283308
        ]
      },
      "properties": {
        "name": "Lefleur's Bluff State Park",
        "rating": null,
        "reviews_count": 0,
        "cost": 0,
        "amenities": [],
        "rig_friendly": [],
        "type": "established",
        "sources": [
          "unknown"
        ],
        "tourism": "camp_site",
        "osm_id": 13048554805
      }
    },
    {
      "type": "Feature",
      "geometry": {
        "type": "Point",
        "coordinates": [
          -90.7987222,
          32.089135
        ]
      },
      "properties": {
        "name": "Rocky Springs",
        "rating": null,
        "reviews_count": 0,
        "cost": 0,
        "amenities": [],
        "rig_friendly": [],
        "type": "established",
        "sources": [
          "unknown"
        ],
        "tourism": "camp_site",
        "osm_id": 683746121
      }
    },
    {
      "type": "Feature",
      "geometry": {
        "type": "Point",
        "coordinates": [
          -90.1475876,
          30.773275
        ]
      },
      "properties": {
        "addr:city": "Franklinton",
        "addr:state": "LA",
        "capacity": "100",
        "fee": "yes",
        "name": "Bogue Chitto SP - Bottomland",
        "phone": "+1-985-839-5707",
        "power_supply": "yes",
        "reservation": "yes",
        "tourism": "camp_site",
        "osm_id": 7933397220,
        "sources": [
          "unknown"
        ]
      }
    },
    {
      "type": "Feature",
      "geometry": {
        "type": "Point",
        "coordinates": [
          -89.1165649,
          31.051202
        ]
      },
      "properties": {
        "capacity": "4",
        "name": "Moody's Landing - USFS",
        "tourism": "camp_site",
        "osm_id": 7933397221,
        "sources": [
          "unknown"
        ]
      }
    },
    {
      "type": "Feature",
      "geometry": {
        "type": "Point",
        "coordinates": [
          -89.4594141,
          30.9173625
        ]
      },
      "properties": {
        "access": "private",
        "name": "King's Arrow Ranch",
        "tourism": "camp_site",
        "osm_id": 7948462909,
        "sources": [
          "unknown"
        ]
      }
    },
    {
      "type": "Feature",
      "geometry": {
        "type": "Point",
        "coordinates": [
          -89.4549376,
          30.9124465
        ]
      },
      "properties": {
        "access": "private",
        "name": "King's Arrow Ranch",
        "tourism": "camp_site",
        "osm_id": 7948462914,
        "sources": [
          "unknown"
        ]
      }
    },
    {
      "type": "Feature",
      "geometry": {
        "type": "Point",
        "coordinates": [
          -88.3015801,
          33.235567
        ]
      },
      "properties": {
        "addr:city": "Pickensville",
        "addr:housenumber": "61",
        "addr:postcode": "35447",
        "addr:state": "AL",
        "addr:street": "Camping Road",
        "capacity": "176",
        "charge": "24 USD",
        "fee": "yes",
        "laundry_service": "coin",
        "name": "Pickensville Corp of Engineers",
        "operator": "Corp of Engineers",
        "phone": "+1-205-373-6328",
        "power_supply": "yes",
        "reservation": "yes",
        "sanitary_dump_station": "yes",
        "shower": "yes",
        "toilets": "no",
        "tourism": "camp_site",
        "osm_id": 8611118516,
        "sources": [
          "unknown"
        ]
      }
    },
    {
      "type": "Feature",
      "geometry": {
        "type": "Point",
        "coordinates": [
          -88.2655752,
          33.0832708
        ]
      },
      "properties": {
        "addr:city": "Aliceville",
        "addr:postcode": "35442",
        "addr:state": "AL",
        "capacity": "60",
        "charge": "18 USD",
        "fee": "yes",
        "name": "Cochrane Corp of Engineers",
        "operator": "Corp of Engineers",
        "phone": "+1-205-373-8806",
        "reservation": "no",
        "toilets": "flush",
        "tourism": "camp_site",
        "osm_id": 8611188617,
        "sources": [
          "unknown"
        ]
      }
    },
    {
      "type": "Feature",
      "geometry": {
        "type": "Point",
        "coordinates": [
          -91.5126798,
          34.8082716
        ]
      },
      "properties": {
        "backcountry": "yes",
        "name": "Wattensaw WMA",
        "tourism": "camp_site",
        "osm_id": 9376430603,
        "sources": [
          "unknown"
        ]
      }
    },
    {
      "type": "Feature",
      "geometry": {
        "type": "Point",
        "coordinates": [
          -88.7224101,
          31.6545427
        ]
      },
      "properties": {
        "tourism": "camp_site",
        "osm_id": 9895511505,
        "sources": [
          "unknown"
        ]
      }
    },
    {
      "type": "Feature",
      "geometry": {
        "type": "Point",
        "coordinates": [
          -89.902144,
          34.1367525
        ]
      },
      "properties": {
        "tourism": "camp_site",
        "osm_id": 9906496749,
        "sources": [
          "unknown"
        ]
      }
    },
    {
      "type": "Feature",
      "geometry": {
        "type": "Point",
        "coordinates": [
          -89.8925056,
          34.1637047
        ]
      },
      "properties": {
        "tourism": "camp_site",
        "osm_id": 9906497583,
        "sources": [
          "unknown"
        ]
      }
    },
    {
      "type": "Feature",
      "geometry": {
        "type": "Point",
        "coordinates": [
          -89.8849995,
          34.1352337
        ]
      },
      "properties": {
        "tourism": "camp_site",
        "osm_id": 9906514387,
        "sources": [
          "unknown"
        ]
      }
    },
    {
      "type": "Feature",
      "geometry": {
        "type": "Point",
        "coordinates": [
          -88.6070269,
          32.3090445
        ]
      },
      "properties": {
        "name": "Camp Meridale",
        "tourism": "camp_site",
        "osm_id": 9979009114,
        "sources": [
          "unknown"
        ]
      }
    },
    {
      "type": "Feature",
      "geometry": {
        "type": "Point",
        "coordinates": [
          -88.5273705,
          32.3198946
        ]
      },
      "properties": {
        "leisure": "summer_camp",
        "name": "Camp Binachi",
        "tourism": "camp_site",
        "website": "http://www.cacbsa.org/cacbsa/index.cfm/camp-information1/",
        "osm_id": 9979026565,
        "sources": [
          "unknown"
        ]
      }
    },
    {
      "type": "Feature",
      "geometry": {
        "type": "Point",
        "coordinates": [
          -91.5891648,
          30.7340261
        ]
      },
      "properties": {
        "addr:street": "641 LA-1, Morganza, LA 70759",
        "name": "Maxey Care RV Park",
        "phone": "+1-225-694-3929",
        "tourism": "caravan_site",
        "website": "https://maxeycarervpark.yolasite.com/",
        "osm_id": 10826904247,
        "sources": [
          "unknown"
        ]
      }
    },
    {
      "type": "Feature",
      "geometry": {
        "type": "Point",
        "coordinates": [
          -88.2060739,
          34.4931211
        ]
      },
      "properties": {
        "addr:city": "Belmont",
        "addr:housenumber": "10",
        "addr:postcode": "38827",
        "addr:state": "MS",
        "addr:street": "Airpark Rd",
        "name": "Belmont RV park",
        "tourism": "caravan_site",
        "osm_id": 12420621520,
        "sources": [
          "unknown"
        ]
      }
    },
    {
      "type": "Feature",
      "geometry": {
        "type": "Point",
        "coordinates": [
          -88.6434684,
          32.4272958
        ]
      },
      "properties": {
        "tourism": "caravan_site",
        "osm_id": 12551636730,
        "sources": [
          "unknown"
        ]
      }
    },
    {
      "type": "Feature",
      "geometry": {
        "type": "Point",
        "coordinates": [
          -91.4345385,
          31.5561902
        ]
      },
      "properties": {
        "tourism": "caravan_site",
        "osm_id": 12556771789,
        "sources": [
          "unknown"
        ]
      }
    },
    {
      "type": "Feature",
      "geometry": {
        "type": "Point",
        "coordinates": [
          -89.1587072,
          32.7294577
        ]
      },
      "properties": {
        "tourism": "caravan_site",
        "osm_id": 12596131102,
        "sources": [
          "unknown"
        ]
      }
    },
    {
      "type": "Feature",
      "geometry": {
        "type": "Point",
        "coordinates": [
          -88.3301354,
          34.8227092
        ]
      },
      "properties": {
        "addr:city": "Burnsville",
        "addr:housenumber": "507",
        "addr:postcode": "38833",
        "addr:state": "MS",
        "addr:street": "Highway 365",
        "name": "The Hydeaway",
        "tourism": "camp_site",
        "osm_id": 12600983332,
        "sources": [
          "unknown"
        ]
      }
    },
    {
      "type": "Feature",
      "geometry": {
        "type": "Point",
        "coordinates": [
          -88.2974166,
          34.9047143
        ]
      },
      "properties": {
        "addr:city": "Iuka",
        "addr:housenumber": "1170",
        "addr:postcode": "38852",
        "addr:state": "MS",
        "addr:street": "Highway 365",
        "name": "CASTON",
        "tourism": "camp_site",
        "osm_id": 12604311280,
        "sources": [
          "unknown"
        ]
      }
    },
    {
      "type": "Feature",
      "geometry": {
        "type": "Point",
        "coordinates": [
          -90.8490064,
          30.8881595
        ]
      },
      "properties": {
        "access": "yes",
        "addr:city": "Clinton",
        "addr:housenumber": "19099",
        "addr:postcode": "70722",
        "addr:state": "LA",
        "addr:street": "Hwy 10",
        "camp_site": "cabins",
        "name": "The Point Bar, LLC",
        "operator": "Richard Davis",
        "tourism": "camp_site",
        "osm_id": 12758377710,
        "sources": [
          "unknown"
        ]
      }
    },
    {
      "type": "Feature",
      "geometry": {
        "type": "Point",
        "coordinates": [
          -88.8523352,
          30.4639984
        ]
      },
      "properties": {
        "tourism": "caravan_site",
        "osm_id": 12845059854,
        "sources": [
          "unknown"
        ]
      }
    },
    {
      "type": "Feature",
      "geometry": {
        "type": "Point",
        "coordinates": [
          -91.4222735,
          31.3500545
        ]
      },
      "properties": {
        "addr:city": "Sibley",
        "addr:country": "US",
        "addr:state": "MS",
        "name": "St Catherine Creek National Wildlife Refuge Campground",
        "operator": "St Catherine Creek National Wildlife Refuge",
        "source": "https://catalog.data.gov/dataset/national-wildlife-refuge-campgrounds",
        "tourism": "camp_site",
        "website": "https://www.fws.gov/refuge/St_Catherine_Creek/",
        "osm_id": 12926110908,
        "sources": [
          "https://catalog.data.gov/dataset/national-wildlife-refuge-campgrounds"
        ]
      }
    },
    {
      "type": "Feature",
      "geometry": {
        "type": "Point",
        "coordinates": [
          -90.9361698,
          33.1635999
        ]
      },
      "properties": {
        "rating": null,
        "reviews_count": 0,
        "cost": 0,
        "amenities": [],
        "rig_friendly": [],
        "type": "established",
        "sources": [
          "unknown"
        ],
        "tourism": "camp_site",
        "osm_id": 13048347931
      }
    },
    {
      "type": "Feature",
      "geometry": {
        "type": "Point",
        "coordinates": [
          -90.9363433,
          33.1647779
        ]
      },
      "properties": {
        "rating": null,
        "reviews_count": 0,
        "cost": 0,
        "amenities": [],
        "rig_friendly": [],
        "type": "established",
        "sources": [
          "unknown"
        ],
        "tourism": "camp_site",
        "osm_id": 13048347933
      }
    },
    {
      "type": "Feature",
      "geometry": {
        "type": "Point",
        "coordinates": [
          -90.1458347,
          32.3289935
        ]
      },
      "properties": {
        "rating": null,
        "reviews_count": 0,
        "cost": 0,
        "amenities": [],
        "rig_friendly": [],
        "type": "established",
        "sources": [
          "unknown"
        ],
        "tourism": "camp_site",
        "osm_id": 13048554806
      }
    },
    {
      "type": "Feature",
      "geometry": {
        "type": "Point",
        "coordinates": [
          -90.1443036,
          32.329239
        ]
      },
      "properties": {
        "rating": null,
        "reviews_count": 0,
        "cost": 0,
        "amenities": [],
        "rig_friendly": [],
        "type": "established",
        "sources": [
          "unknown"
        ],
        "tourism": "camp_site",
        "osm_id": 13048554807
      }
    },
    {
      "type": "Feature",
      "geometry": {
        "type": "Point",
        "coordinates": [
          -89.2475414,
          31.1469414
        ]
      },
      "properties": {
        "rating": null,
        "reviews_count": 0,
        "cost": 0,
        "amenities": [],
        "rig_friendly": [],
        "type": "established",
        "sources": [
          "unknown"
        ],
        "tourism": "camp_site",
        "osm_id": 13048653708
      }
    },
    {
      "type": "Feature",
      "geometry": {
        "type": "Point",
        "coordinates": [
          -89.2460906,
          31.1431789
        ]
      },
      "properties": {
        "rating": null,
        "reviews_count": 0,
        "cost": 0,
        "amenities": [],
        "rig_friendly": [],
        "type": "established",
        "sources": [
          "unknown"
        ],
        "tourism": "camp_site",
        "osm_id": 13048653759
      }
    },
    {
      "type": "Feature",
      "geometry": {
        "type": "Point",
        "coordinates": [
          -89.2438909,
          31.1408257
        ]
      },
      "properties": {
        "rating": null,
        "reviews_count": 0,
        "cost": 0,
        "amenities": [],
        "rig_friendly": [],
        "type": "established",
        "sources": [
          "unknown"
        ],
        "tourism": "camp_site",
        "osm_id": 13048644358
      }
    },
    {
      "type": "Feature",
      "geometry": {
        "type": "Point",
        "coordinates": [
          -89.2455153,
          31.1439966
        ]
      },
      "properties": {
        "rating": null,
        "reviews_count": 0,
        "cost": 0,
        "amenities": [],
        "rig_friendly": [],
        "type": "established",
        "sources": [
          "unknown"
        ],
        "tourism": "camp_site",
        "osm_id": 13048653752
      }
    },
    {
      "type": "Feature",
      "geometry": {
        "type": "Point",
        "coordinates": [
          -89.2440053,
          31.1417217
        ]
      },
      "properties": {
        "rating": null,
        "reviews_count": 0,
        "cost": 0,
        "amenities": [],
        "rig_friendly": [],
        "type": "established",
        "sources": [
          "unknown"
        ],
        "tourism": "camp_site",
        "osm_id": 13048644361
      }
    },
    {
      "type": "Feature",
      "geometry": {
        "type": "Point",
        "coordinates": [
          -89.2452636,
          31.1497914
        ]
      },
      "properties": {
        "rating": null,
        "reviews_count": 0,
        "cost": 0,
        "amenities": [],
        "rig_friendly": [],
        "type": "established",
        "sources": [
          "unknown"
        ],
        "tourism": "camp_site",
        "osm_id": 13048662327
      }
    },
    {
      "type": "Feature",
      "geometry": {
        "type": "Point",
        "coordinates": [
          -89.2441203,
          31.1485333
        ]
      },
      "properties": {
        "rating": null,
        "reviews_count": 0,
        "cost": 0,
        "amenities": [],
        "rig_friendly": [],
        "type": "established",
        "sources": [
          "unknown"
        ],
        "tourism": "camp_site",
        "osm_id": 13048644386
      }
    },
    {
      "type": "Feature",
      "geometry": {
        "type": "Point",
        "coordinates": [
          -89.2452148,
          31.1479437
        ]
      },
      "properties": {
        "rating": null,
        "reviews_count": 0,
        "cost": 0,
        "amenities": [],
        "rig_friendly": [],
        "type": "established",
        "sources": [
          "unknown"
        ],
        "tourism": "camp_site",
        "osm_id": 13048644393
      }
    },
    {
      "type": "Feature",
      "geometry": {
        "type": "Point",
        "coordinates": [
          -89.2459416,
          31.1471416
        ]
      },
      "properties": {
        "rating": null,
        "reviews_count": 0,
        "cost": 0,
        "amenities": [],
        "rig_friendly": [],
        "type": "established",
        "sources": [
          "unknown"
        ],
        "tourism": "camp_site",
        "osm_id": 13048644400
      }
    },
    {
      "type": "Feature",
      "geometry": {
        "type": "Point",
        "coordinates": [
          -89.2474032,
          31.1454564
        ]
      },
      "properties": {
        "rating": null,
        "reviews_count": 0,
        "cost": 0,
        "amenities": [],
        "rig_friendly": [],
        "type": "established",
        "sources": [
          "unknown"
        ],
        "tourism": "camp_site",
        "osm_id": 13048653731
      }
    },
    {
      "type": "Feature",
      "geometry": {
        "type": "Point",
        "coordinates": [
          -89.2461633,
          31.1447147
        ]
      },
      "properties": {
        "rating": null,
        "reviews_count": 0,
        "cost": 0,
        "amenities": [],
        "rig_friendly": [],
        "type": "established",
        "sources": [
          "unknown"
        ],
        "tourism": "camp_site",
        "osm_id": 13048653750
      }
    },
    {
      "type": "Feature",
      "geometry": {
        "type": "Point",
        "coordinates": [
          -89.2470148,
          31.1441364
        ]
      },
      "properties": {
        "rating": null,
        "reviews_count": 0,
        "cost": 0,
        "amenities": [],
        "rig_friendly": [],
        "type": "established",
        "sources": [
          "unknown"
        ],
        "tourism": "camp_site",
        "osm_id": 13048653749
      }
    },
    {
      "type": "Feature",
      "geometry": {
        "type": "Point",
        "coordinates": [
          -89.2464027,
          31.148988
        ]
      },
      "properties": {
        "rating": null,
        "reviews_count": 0,
        "cost": 0,
        "amenities": [],
        "rig_friendly": [],
        "type": "established",
        "sources": [
          "unknown"
        ],
        "tourism": "camp_site",
        "osm_id": 13048662325
      }
    },
    {
      "type": "Feature",
      "geometry": {
        "type": "Point",
        "coordinates": [
          -89.9995518,
          34.9427072
        ]
      },
      "properties": {
        "tourism": "caravan_site",
        "osm_id": 13119698877,
        "sources": [
          "unknown"
        ]
      }
    },
    {
      "type": "Feature",
      "geometry": {
        "type": "Point",
        "coordinates": [
          -88.9230751,
          30.5379765
        ]
      },
      "properties": {
        "tourism": "caravan_site",
        "osm_id": 13156775343,
        "sources": [
          "unknown"
        ]
      }
    },
    {
      "type": "Feature",
      "geometry": {
        "type": "Point",
        "coordinates": [
          -89.1256718,
          30.5819327
        ]
      },
      "properties": {
        "tourism": "caravan_site",
        "osm_id": 13156775391,
        "sources": [
          "unknown"
        ]
      }
    },
    {
      "type": "Feature",
      "geometry": {
        "type": "Point",
        "coordinates": [
          -89.0248027,
          30.4018717
        ]
      },
      "properties": {
        "tourism": "caravan_site",
        "osm_id": 13156936424,
        "sources": [
          "unknown"
        ]
      }
    },
    {
      "type": "Feature",
      "geometry": {
        "type": "Point",
        "coordinates": [
          -88.9422026,
          30.4049012
        ]
      },
      "properties": {
        "tourism": "caravan_site",
        "osm_id": 13156936453,
        "sources": [
          "unknown"
        ]
      }
    },
    {
      "type": "Feature",
      "geometry": {
        "type": "Point",
        "coordinates": [
          -89.1041894,
          30.3833256
        ]
      },
      "properties": {
        "tourism": "caravan_site",
        "osm_id": 13156936588,
        "sources": [
          "unknown"
        ]
      }
    },
    {
      "type": "Feature",
      "geometry": {
        "type": "Point",
        "coordinates": [
          -88.973081,
          30.4582017
        ]
      },
      "properties": {
        "tourism": "caravan_site",
        "osm_id": 13174570155,
        "sources": [
          "unknown"
        ]
      }
    },
    {
      "type": "Feature",
      "geometry": {
        "type": "Point",
        "coordinates": [
          -88.9774019,
          30.4583731
        ]
      },
      "properties": {
        "tourism": "caravan_site",
        "osm_id": 13174570157,
        "sources": [
          "unknown"
        ]
      }
    },
    {
      "type": "Feature",
      "geometry": {
        "type": "Point",
        "coordinates": [
          -91.2669833,
          34.0303171
        ]
      },
      "properties": {
        "tourism": "camp_site",
        "osm_id": 13272027027,
        "sources": [
          "unknown"
        ]
      }
    },
    {
      "type": "Feature",
      "geometry": {
        "type": "Point",
        "coordinates": [
          -91.2636372,
          34.0318991
        ]
      },
      "properties": {
        "tourism": "camp_site",
        "osm_id": 13272027070,
        "sources": [
          "unknown"
        ]
      }
    },
    {
      "type": "Feature",
      "geometry": {
        "type": "Point",
        "coordinates": [
          -91.2675318,
          34.0332594
        ]
      },
      "properties": {
        "tourism": "camp_site",
        "osm_id": 13272027071,
        "sources": [
          "unknown"
        ]
      }
    },
    {
      "type": "Feature",
      "geometry": {
        "type": "Point",
        "coordinates": [
          -91.2478347,
          34.0318339
        ]
      },
      "properties": {
        "tourism": "camp_site",
        "osm_id": 13272027102,
        "sources": [
          "unknown"
        ]
      }
    },
    {
      "type": "Feature",
      "geometry": {
        "type": "Point",
        "coordinates": [
          -90.7579207,
          34.5538198
        ]
      },
      "properties": {
        "access": "yes",
        "camp_site": "basic",
        "caravans": "no",
        "drinking_water": "yes",
        "fee": "yes",
        "name": "Delta Heritage Trail State Park Campground",
        "operator": "Arkansas State Parks",
        "operator:wikidata": "Q109319503",
        "phone": "+1-870-572-2352",
        "reservation": "yes",
        "static_caravans": "no",
        "tents": "yes",
        "toilets": "yes",
        "tourism": "camp_site",
        "website": "https://reserve.arkansasstateparks.com/delta-heritage/camping",
        "osm_id": 13280137866,
        "sources": [
          "unknown"
        ]
      }
    },
    {
      "type": "Feature",
      "geometry": {
        "type": "Point",
        "coordinates": [
          -91.2843721,
          30.3205732
        ]
      },
      "properties": {
        "tourism": "caravan_site",
        "osm_id": 13343341774,
        "sources": [
          "unknown"
        ]
      }
    },
    {
      "type": "Feature",
      "geometry": {
        "type": "Point",
        "coordinates": [
          -89.9946738,
          34.9932348
        ]
      },
      "properties": {
        "tourism": "caravan_site",
        "osm_id": 13363727893,
        "sources": [
          "unknown"
        ]
      }
    },
    {
      "type": "Feature",
      "geometry": {
        "type": "Point",
        "coordinates": [
          -89.9675321,
          34.6953669
        ]
      },
      "properties": {
        "tourism": "caravan_site",
        "osm_id": 13446615727,
        "sources": [
          "unknown"
        ]
      }
    },
    {
      "type": "Feature",
      "geometry": {
        "type": "Point",
        "coordinates": [
          -88.4355329,
          33.5039807
        ]
      },
      "properties": {
        "tourism": "caravan_site",
        "osm_id": 13446850409,
        "sources": [
          "unknown"
        ]
      }
    },
    {
      "type": "Feature",
      "geometry": {
        "type": "Point",
        "coordinates": [
          -88.7186061,
          33.4615036
        ]
      },
      "properties": {
        "tourism": "caravan_site",
        "osm_id": 13446850532,
        "sources": [
          "unknown"
        ]
      }
    },
    {
      "type": "Feature",
      "geometry": {
        "type": "Point",
        "coordinates": [
          -88.7330516,
          33.4667397
        ]
      },
      "properties": {
        "tourism": "caravan_site",
        "osm_id": 13446850602,
        "sources": [
          "unknown"
        ]
      }
    },
    {
      "type": "Feature",
      "geometry": {
        "type": "Point",
        "coordinates": [
          -88.1574389,
          30.4277923
        ]
      },
      "properties": {
        "tourism": "caravan_site",
        "osm_id": 13462594293,
        "sources": [
          "unknown"
        ]
      }
    },
    {
      "type": "Feature",
      "geometry": {
        "type": "Point",
        "coordinates": [
          -88.1252895,
          30.4710742
        ]
      },
      "properties": {
        "tourism": "caravan_site",
        "osm_id": 13462621441,
        "sources": [
          "unknown"
        ]
      }
    },
    {
      "type": "Feature",
      "geometry": {
        "type": "Point",
        "coordinates": [
          -88.5101898,
          30.3943326
        ]
      },
      "properties": {
        "tourism": "caravan_site",
        "osm_id": 13462718986,
        "sources": [
          "unknown"
        ]
      }
    },
    {
      "type": "Feature",
      "geometry": {
        "type": "Point",
        "coordinates": [
          -90.2125663,
          33.5317883
        ]
      },
      "properties": {
        "tourism": "caravan_site",
        "osm_id": 233676009,
        "sources": [
          "unknown"
        ]
      }
    },
    {
      "type": "Feature",
      "geometry": {
        "type": "Point",
        "coordinates": [
          -90.7595381,
          33.7375508
        ]
      },
      "properties": {
        "tourism": "camp_site",
        "osm_id": 321050983,
        "sources": [
          "unknown"
        ]
      }
    },
    {
      "type": "Feature",
      "geometry": {
        "type": "Point",
        "coordinates": [
          -89.7273963,
          32.6310304
        ]
      },
      "properties": {
        "source": "bing;USGS",
        "tourism": "caravan_site",
        "osm_id": 442398226,
        "sources": [
          "bing;USGS"
        ]
      }
    },
    {
      "type": "Feature",
      "geometry": {
        "type": "Point",
        "coordinates": [
          -89.0208014,
          34.2346885
        ]
      },
      "properties": {
        "tourism": "caravan_site",
        "osm_id": 479978539,
        "sources": [
          "unknown"
        ]
      }
    },
    {
      "type": "Feature",
      "geometry": {
        "type": "Point",
        "coordinates": [
          -90.0388806,
          30.3404628
        ]
      },
      "properties": {
        "internet_access": "yes",
        "internet_access:fee": "no",
        "name": "Fontainebleau Campground",
        "operator": "Fontainebleau State Park",
        "sanitary_dump_station": "customers",
        "stars": "4",
        "tourism": "camp_site",
        "wheelchair": "yes",
        "osm_id": 482565876,
        "sources": [
          "unknown"
        ]
      }
    },
    {
      "type": "Feature",
      "geometry": {
        "type": "Point",
        "coordinates": [
          -91.4913196,
          32.4823332
        ]
      },
      "properties": {
        "name": "Poverty Point Reservoir State Park Campground",
        "tourism": "camp_site",
        "osm_id": 489054238,
        "sources": [
          "unknown"
        ]
      }
    },
    {
      "type": "Feature",
      "geometry": {
        "type": "Point",
        "coordinates": [
          -88.8865165,
          30.4096691
        ]
      },
      "properties": {
        "fee": "yes",
        "internet_access": "yes",
        "internet_access:fee": "no",
        "level": "0",
        "name": "Boomtown RV Park",
        "operator": "Boomtown Casino",
        "phone": "+1 800-946-2442",
        "power_supply": "yes",
        "sanitary_dump_station": "customers",
        "smoking": "outside",
        "tourism": "caravan_site",
        "website": "https://www.boomtownbiloxi.com/",
        "osm_id": 547479947,
        "sources": [
          "unknown"
        ]
      }
    },
    {
      "type": "Feature",
      "geometry": {
        "type": "Point",
        "coordinates": [
          -88.9559783,
          30.4078315
        ]
      },
      "properties": {
        "tourism": "caravan_site",
        "osm_id": 548932579,
        "sources": [
          "unknown"
        ]
      }
    },
    {
      "type": "Feature",
      "geometry": {
        "type": "Point",
        "coordinates": [
          -89.146492,
          31.3607334
        ]
      },
      "properties": {
        "addr:city": "Petal",
        "addr:housenumber": "1870",
        "addr:postcode": "39465",
        "addr:state": "MS",
        "addr:street": "MS 42",
        "contact:website": "https://www.wagonwheelms.com/",
        "landuse": "commercial",
        "name": "Wagon Wheel Motel & RV Park",
        "opening_hours": "24/7",
        "payment:american_express": "yes",
        "payment:cash": "yes",
        "payment:discover_card": "yes",
        "payment:mastercard": "yes",
        "payment:visa": "yes",
        "phone": "+1-601-582-8477",
        "tourism": "motel;caravan_site",
        "website": "https://www.wagonwheelms.com/",
        "osm_id": 621310697,
        "sources": [
          "unknown"
        ]
      }
    },
    {
      "type": "Feature",
      "geometry": {
        "type": "Point",
        "coordinates": [
          -90.3492059,
          30.5212915
        ]
      },
      "properties": {
        "leisure": "park",
        "name": "Yogi bear Jellystone Park Campground",
        "tourism": "camp_site",
        "osm_id": 627645500,
        "sources": [
          "unknown"
        ]
      }
    },
    {
      "type": "Feature",
      "geometry": {
        "type": "Point",
        "coordinates": [
          -91.5187885,
          34.6837191
        ]
      },
      "properties": {
        "tourism": "caravan_site",
        "osm_id": 654134263,
        "sources": [
          "unknown"
        ]
      }
    },
    {
      "type": "Feature",
      "geometry": {
        "type": "Point",
        "coordinates": [
          -88.970196,
          30.3961515
        ]
      },
      "properties": {
        "name": "Fox's RV Park",
        "tourism": "caravan_site",
        "osm_id": 666406281,
        "sources": [
          "unknown"
        ]
      }
    },
    {
      "type": "Feature",
      "geometry": {
        "type": "Point",
        "coordinates": [
          -88.4175529,
          34.2922208
        ]
      },
      "properties": {
        "capacity": "60",
        "drinking_water": "yes",
        "fee": "yes",
        "name": "Whitten Park Campground",
        "operator": "U.S. Army Corps of Engineers",
        "power_supply": "yes",
        "tourism": "camp_site",
        "website": "https://www.recreation.gov/camping/campgrounds/232743",
        "osm_id": 669383309,
        "sources": [
          "unknown"
        ]
      }
    },
    {
      "type": "Feature",
      "geometry": {
        "type": "Point",
        "coordinates": [
          -88.4765047,
          33.5955202
        ]
      },
      "properties": {
        "capacity": "110",
        "caravans": "yes",
        "fee": "yes",
        "name": "Dewayne Hayes Campground",
        "phone": "+1-662-434-6939",
        "tents": "yes",
        "tourism": "camp_site",
        "website": "https://www.recreation.gov/camping/campgrounds/232574",
        "osm_id": 670042765,
        "sources": [
          "unknown"
        ]
      }
    },
    {
      "type": "Feature",
      "geometry": {
        "type": "Point",
        "coordinates": [
          -91.216144,
          31.5968909
        ]
      },
      "properties": {
        "caravans": "yes",
        "charge": "24 USD",
        "drinking_water": "yes",
        "fee": "yes",
        "name": "Natchez State Park Campground",
        "phone": "+1-601-442-2658",
        "power_supply": "yes",
        "shower": "yes",
        "tents": "yes",
        "tourism": "camp_site",
        "osm_id": 683740031,
        "sources": [
          "unknown"
        ]
      }
    },
    {
      "type": "Feature",
      "geometry": {
        "type": "Point",
        "coordinates": [
          -89.2672281,
          33.4172298
        ]
      },
      "properties": {
        "capacity": "18",
        "caravans": "yes",
        "drinking_water": "yes",
        "name": "Jeff Busby Campground, milepost 193.1",
        "opening_hours:covid19": "self-contained camping only",
        "operator": "U.S. National Park Park Service",
        "phone": "+1-800-305-7417",
        "power_supply": "no",
        "tents": "yes",
        "toilets": "yes",
        "tourism": "camp_site",
        "osm_id": 683748204,
        "sources": [
          "unknown"
        ]
      }
    },
    {
      "type": "Feature",
      "geometry": {
        "type": "Point",
        "coordinates": [
          -88.5305095,
          31.1336713
        ]
      },
      "properties": {
        "access": "customers",
        "addr:city": "Leakesville",
        "addr:housenumber": "17421",
        "addr:postcode": "39451",
        "addr:state": "MS",
        "addr:street": "MS 63",
        "area": "yes",
        "contact:facebook": "https://www.facebook.com/WildCountryMS/",
        "fee": "yes",
        "name": "Wild Country Off-road",
        "phone": "+1-601-689-4200",
        "tourism": "camp_site",
        "osm_id": 709025943,
        "sources": [
          "unknown"
        ]
      }
    },
    {
      "type": "Feature",
      "geometry": {
        "type": "Point",
        "coordinates": [
          -91.5654502,
          34.8212523
        ]
      },
      "properties": {
        "check_date": "2024-09-09",
        "tourism": "caravan_site",
        "osm_id": 759718635,
        "sources": [
          "unknown"
        ]
      }
    },
    {
      "type": "Feature",
      "geometry": {
        "type": "Point",
        "coordinates": [
          -90.9900548,
          30.3374288
        ]
      },
      "properties": {
        "addr:city": "Prairieville",
        "addr:housenumber": "17867",
        "addr:postcode": "70769",
        "addr:state": "LA",
        "addr:street": "Airline Highway",
        "tourism": "caravan_site",
        "osm_id": 830542747,
        "sources": [
          "unknown"
        ]
      }
    },
    {
      "type": "Feature",
      "geometry": {
        "type": "Point",
        "coordinates": [
          -90.9622527,
          30.4474395
        ]
      },
      "properties": {
        "addr:city": "Denham Springs",
        "addr:housenumber": "7628",
        "addr:postcode": "70726",
        "addr:state": "LA",
        "addr:street": "Vincent Road",
        "brand": "KOA",
        "brand:wikidata": "Q16988635",
        "internet_access": "wlan",
        "name": "Baton Rouge KOA Holiday",
        "phone": "+1 225 664 7281",
        "short_name": "KOA",
        "tourism": "caravan_site",
        "osm_id": 864835014,
        "sources": [
          "unknown"
        ]
      }
    },
    {
      "type": "Feature",
      "geometry": {
        "type": "Point",
        "coordinates": [
          -91.1366306,
          30.4165048
        ]
      },
      "properties": {
        "addr:housenumber": "3145",
        "addr:street": "Old Forge Drive",
        "operator": "College Drive Mini Storage",
        "phone": "+1-225-927-6111",
        "tourism": "caravan_site",
        "osm_id": 881006552,
        "sources": [
          "unknown"
        ]
      }
    },
    {
      "type": "Feature",
      "geometry": {
        "type": "Point",
        "coordinates": [
          -89.3698698,
          31.4104734
        ]
      },
      "properties": {
        "operator": "Pep's Point Water Park",
        "tourism": "caravan_site",
        "osm_id": 888511183,
        "sources": [
          "unknown"
        ]
      }
    },
    {
      "type": "Feature",
      "geometry": {
        "type": "Point",
        "coordinates": [
          -89.407433,
          31.4197224
        ]
      },
      "properties": {
        "addr:housenumber": "7836",
        "addr:street": "US 49",
        "name": "Shady Cove RV Park",
        "phone": "+1-601-268-1077",
        "tourism": "caravan_site",
        "osm_id": 900479173,
        "sources": [
          "unknown"
        ]
      }
    },
    {
      "type": "Feature",
      "geometry": {
        "type": "Point",
        "coordinates": [
          -90.9634359,
          32.0142507
        ]
      },
      "properties": {
        "addr:city": "Port Gibson",
        "addr:housenumber": "1125",
        "addr:postcode": "39150",
        "addr:state": "MS",
        "addr:street": "Grand-Gulf Road",
        "tourism": "caravan_site",
        "osm_id": 900764908,
        "sources": [
          "unknown"
        ]
      }
    },
    {
      "type": "Feature",
      "geometry": {
        "type": "Point",
        "coordinates": [
          -90.1387118,
          30.5763963
        ]
      },
      "properties": {
        "name": "Land-O-Pines Family Campground",
        "tourism": "camp_site",
        "osm_id": 923176354,
        "sources": [
          "unknown"
        ]
      }
    },
    {
      "type": "Feature",
      "geometry": {
        "type": "Point",
        "coordinates": [
          -89.7587868,
          30.2393642
        ]
      },
      "properties": {
        "name": "Pine Crest RV Park and Campground",
        "tourism": "caravan_site",
        "osm_id": 923181487,
        "sources": [
          "unknown"
        ]
      }
    },
    {
      "type": "Feature",
      "geometry": {
        "type": "Point",
        "coordinates": [
          -89.3404451,
          31.6877893
        ]
      },
      "properties": {
        "addr:city": "Soso",
        "addr:housenumber": "2",
        "addr:postcode": "39480",
        "addr:state": "MS",
        "addr:street": "Big Creek Water Park",
        "alt_name": "Big Creek Water Park",
        "amenity": "camping",
        "contact:website": "http://www.phwd.net/big/big.html",
        "fee": "yes",
        "name": "Big Creek",
        "opening_hours": "closed",
        "operator": "Pat Harrison Waterway District",
        "phone": "+1 601-763-8555",
        "tourism": "camp_site",
        "website": "http://www.phwd.net/big/big.html",
        "osm_id": 927267658,
        "sources": [
          "unknown"
        ]
      }
    },
    {
      "type": "Feature",
      "geometry": {
        "type": "Point",
        "coordinates": [
          -89.9260443,
          32.5030944
        ]
      },
      "properties": {
        "addr:city": "Brandon",
        "addr:housenumber": "4248",
        "addr:postcode": "39047",
        "addr:state": "MS",
        "addr:street": "Hwy 43 North",
        "charge": "28 USD",
        "fee": "yes",
        "laundry_service": "coin",
        "name": "Goshen Springs Campground",
        "phone": "+1-877-829-2751",
        "reservation": "yes",
        "tourism": "camp_site",
        "osm_id": 928978551,
        "sources": [
          "unknown"
        ]
      }
    },
    {
      "type": "Feature",
      "geometry": {
        "type": "Point",
        "coordinates": [
          -91.3033676,
          30.8034321
        ]
      },
      "properties": {
        "addr:city": "St Francisville",
        "addr:housenumber": "11907",
        "addr:state": "LA",
        "addr:street": "LA 965",
        "amenity": "public_bath",
        "amenity_1": "laundry",
        "capacity": "42",
        "internet_access": "wlan",
        "internet_access:fee": "customers",
        "name": "Peaceful Pines RV Park",
        "phone": "+1 225-635-4903",
        "power_supply": "yes",
        "reservation": "required",
        "sanitary_dump_station": "yes",
        "tourism": "caravan_site",
        "website": "https://www.peacefulpinesrvpark.com/",
        "osm_id": 991053122,
        "sources": [
          "unknown"
        ]
      }
    },
    {
      "type": "Feature",
      "geometry": {
        "type": "Point",
        "coordinates": [
          -89.1338289,
          30.7935909
        ]
      },
      "properties": {
        "name": "Perk Beach RV Park",
        "tourism": "caravan_site",
        "osm_id": 997253354,
        "sources": [
          "unknown"
        ]
      }
    },
    {
      "type": "Feature",
      "geometry": {
        "type": "Point",
        "coordinates": [
          -90.5356458,
          30.4804041
        ]
      },
      "properties": {
        "addr:city": "Hammond",
        "addr:housenumber": "43037",
        "addr:postcode": "70403",
        "addr:state": "LA",
        "addr:street": "N Billville Rd",
        "name": "Punkin Lakeside RV park",
        "tourism": "caravan_site",
        "osm_id": 1032771718,
        "sources": [
          "unknown"
        ]
      }
    },
    {
      "type": "Feature",
      "geometry": {
        "type": "Point",
        "coordinates": [
          -90.0138803,
          34.9452354
        ]
      },
      "properties": {
        "tourism": "camp_site",
        "osm_id": 1049493234,
        "sources": [
          "unknown"
        ]
      }
    },
    {
      "type": "Feature",
      "geometry": {
        "type": "Point",
        "coordinates": [
          -88.6494358,
          32.3690359
        ]
      },
      "properties": {
        "name": "Bonita Lakes RV Park",
        "tourism": "caravan_site",
        "osm_id": 1066898395,
        "sources": [
          "unknown"
        ]
      }
    },
    {
      "type": "Feature",
      "geometry": {
        "type": "Point",
        "coordinates": [
          -88.6511119,
          32.4185659
        ]
      },
      "properties": {
        "tourism": "caravan_site",
        "osm_id": 1068356754,
        "sources": [
          "unknown"
        ]
      }
    },
    {
      "type": "Feature",
      "geometry": {
        "type": "Point",
        "coordinates": [
          -89.1502194,
          32.7600634
        ]
      },
      "properties": {
        "tourism": "caravan_site",
        "osm_id": 1076332941,
        "sources": [
          "unknown"
        ]
      }
    },
    {
      "type": "Feature",
      "geometry": {
        "type": "Point",
        "coordinates": [
          -88.4789067,
          32.0230756
        ]
      },
      "properties": {
        "tourism": "camp_site",
        "osm_id": 1080634096,
        "sources": [
          "unknown"
        ]
      }
    },
    {
      "type": "Feature",
      "geometry": {
        "type": "Point",
        "coordinates": [
          -89.781092,
          33.8055104
        ]
      },
      "properties": {
        "tourism": "camp_site",
        "osm_id": 1080804031,
        "sources": [
          "unknown"
        ]
      }
    },
    {
      "type": "Feature",
      "geometry": {
        "type": "Point",
        "coordinates": [
          -89.7775864,
          33.8472165
        ]
      },
      "properties": {
        "name": "North Abutment Campground",
        "tourism": "camp_site",
        "osm_id": 1080819411,
        "sources": [
          "unknown"
        ]
      }
    },
    {
      "type": "Feature",
      "geometry": {
        "type": "Point",
        "coordinates": [
          -91.2772169,
          33.2963626
        ]
      },
      "properties": {
        "addr:housenumber": "3768",
        "fee": "yes",
        "name": "Pecan Grove RV Park",
        "phone": "+1-870-265-3005",
        "tourism": "camp_site",
        "website": "http://www.pecangrove.net/",
        "osm_id": 1080835716,
        "sources": [
          "unknown"
        ]
      }
    },
    {
      "type": "Feature",
      "geometry": {
        "type": "Point",
        "coordinates": [
          -91.4947868,
          32.4368732
        ]
      },
      "properties": {
        "tourism": "caravan_site",
        "osm_id": 1087333157,
        "sources": [
          "unknown"
        ]
      }
    },
    {
      "type": "Feature",
      "geometry": {
        "type": "Point",
        "coordinates": [
          -89.1341477,
          30.7904861
        ]
      },
      "properties": {
        "tourism": "caravan_site",
        "osm_id": 1107193378,
        "sources": [
          "unknown"
        ]
      }
    },
    {
      "type": "Feature",
      "geometry": {
        "type": "Point",
        "coordinates": [
          -90.6432666,
          33.4487241
        ]
      },
      "properties": {
        "name": "Willie's Last Resort",
        "tourism": "caravan_site",
        "osm_id": 1111617507,
        "sources": [
          "unknown"
        ]
      }
    },
    {
      "type": "Feature",
      "geometry": {
        "type": "Point",
        "coordinates": [
          -89.9161893,
          32.5072655
        ]
      },
      "properties": {
        "access": "private",
        "club": "outdoor",
        "name": "Cane Creek Outdoor CLub",
        "tourism": "caravan_site",
        "osm_id": 1184085801,
        "sources": [
          "unknown"
        ]
      }
    },
    {
      "type": "Feature",
      "geometry": {
        "type": "Point",
        "coordinates": [
          -89.9337459,
          32.505296
        ]
      },
      "properties": {
        "name": "Sunset RV Park",
        "tourism": "camp_site",
        "osm_id": 1184086303,
        "sources": [
          "unknown"
        ]
      }
    },
    {
      "type": "Feature",
      "geometry": {
        "type": "Point",
        "coordinates": [
          -90.9212917,
          32.2382687
        ]
      },
      "properties": {
        "name": "Rivertown Rose Campground",
        "tourism": "camp_site",
        "osm_id": 1184372114,
        "sources": [
          "unknown"
        ]
      }
    },
    {
      "type": "Feature",
      "geometry": {
        "type": "Point",
        "coordinates": [
          -90.8958602,
          32.2998638
        ]
      },
      "properties": {
        "name": "Quilly's Magnolia RV Park",
        "tourism": "caravan_site",
        "osm_id": 1184372758,
        "sources": [
          "unknown"
        ]
      }
    },
    {
      "type": "Feature",
      "geometry": {
        "type": "Point",
        "coordinates": [
          -90.8957074,
          32.3153837
        ]
      },
      "properties": {
        "addr:city": "Vicksburg",
        "addr:housenumber": "725",
        "addr:postcode": "39183",
        "addr:state": "MS",
        "addr:street": "Lucy Bryson Street",
        "name": "Ameristar RV Park",
        "tourism": "caravan_site",
        "osm_id": 1184374213,
        "sources": [
          "unknown"
        ]
      }
    },
    {
      "type": "Feature",
      "geometry": {
        "type": "Point",
        "coordinates": [
          -90.6282668,
          32.3685484
        ]
      },
      "properties": {
        "name": "Askew's Landing RV Campground",
        "tourism": "camp_site",
        "osm_id": 1184551546,
        "sources": [
          "unknown"
        ]
      }
    },
    {
      "type": "Feature",
      "geometry": {
        "type": "Point",
        "coordinates": [
          -89.3148206,
          31.1903083
        ]
      },
      "properties": {
        "addr:city": "Hattiesburg",
        "addr:country": "US",
        "addr:housenumber": "67",
        "addr:postcode": "39401",
        "addr:state": "MS",
        "addr:street": "Lomas Road",
        "cabins": "yes",
        "capacity:cabins": "6",
        "contact:website": "https://www.mselks.com/elks-camp",
        "group_only": "yes",
        "name": "Mississippi Elks Camp",
        "operator": "Elks Lodge",
        "tourism": "camp_site",
        "osm_id": 1184855391,
        "sources": [
          "unknown"
        ]
      }
    },
    {
      "type": "Feature",
      "geometry": {
        "type": "Point",
        "coordinates": [
          -88.8180621,
          34.1450997
        ]
      },
      "properties": {
        "name": "Natchez Trace RV Park",
        "tourism": "caravan_site",
        "osm_id": 1185857927,
        "sources": [
          "unknown"
        ]
      }
    },
    {
      "type": "Feature",
      "geometry": {
        "type": "Point",
        "coordinates": [
          -91.2859984,
          31.5733485
        ]
      },
      "properties": {
        "addr:city": "Natchez",
        "addr:housenumber": "91",
        "addr:postcode": "39120",
        "addr:state": "MS",
        "addr:street": "Old U.S. 84",
        "addr:unit": "1",
        "name": "Lee Estates RV Park",
        "opening_hours": "Mo-Su 09:00-17:00",
        "phone": "+1-601-431-4424",
        "tourism": "caravan_site",
        "website": "https://www.leervpark.com/",
        "osm_id": 1186108452,
        "sources": [
          "unknown"
        ]
      }
    },
    {
      "type": "Feature",
      "geometry": {
        "type": "Point",
        "coordinates": [
          -90.0837202,
          32.6090448
        ]
      },
      "properties": {
        "name": "Movietown RV Park",
        "tourism": "caravan_site",
        "osm_id": 1187716215,
        "sources": [
          "unknown"
        ]
      }
    },
    {
      "type": "Feature",
      "geometry": {
        "type": "Point",
        "coordinates": [
          -90.0776578,
          32.5900177
        ]
      },
      "properties": {
        "tourism": "caravan_site",
        "osm_id": 1187716825,
        "sources": [
          "unknown"
        ]
      }
    },
    {
      "type": "Feature",
      "geometry": {
        "type": "Point",
        "coordinates": [
          -88.41701,
          30.8611186
        ]
      },
      "properties": {
        "tourism": "caravan_site",
        "osm_id": 1191281297,
        "sources": [
          "unknown"
        ]
      }
    },
    {
      "type": "Feature",
      "geometry": {
        "type": "Point",
        "coordinates": [
          -89.0502297,
          33.3412553
        ]
      },
      "properties": {
        "fee": "yes",
        "fixme": "needs border verification",
        "internet_access": "no",
        "power_supply": "yes",
        "reservation": "yes",
        "sanitary_dump_station": "yes",
        "tourism": "caravan_site",
        "osm_id": 1220649463,
        "sources": [
          "unknown"
        ]
      }
    },
    {
      "type": "Feature",
      "geometry": {
        "type": "Point",
        "coordinates": [
          -89.8401597,
          33.8623476
        ]
      },
      "properties": {
        "tourism": "caravan_site",
        "osm_id": 1261931022,
        "sources": [
          "unknown"
        ]
      }
    },
    {
      "type": "Feature",
      "geometry": {
        "type": "Point",
        "coordinates": [
          -90.2939855,
          34.8443746
        ]
      },
      "properties": {
        "name": "Mid-South RV Park (Closed)",
        "tourism": "caravan_site",
        "osm_id": 1285721140,
        "sources": [
          "unknown"
        ]
      }
    },
    {
      "type": "Feature",
      "geometry": {
        "type": "Point",
        "coordinates": [
          -88.130731,
          30.710895
        ]
      },
      "properties": {
        "tourism": "caravan_site",
        "osm_id": 1290053285,
        "sources": [
          "unknown"
        ]
      }
    },
    {
      "type": "Feature",
      "geometry": {
        "type": "Point",
        "coordinates": [
          -88.1065813,
          30.6529872
        ]
      },
      "properties": {
        "tourism": "caravan_site",
        "osm_id": 1291163963,
        "sources": [
          "unknown"
        ]
      }
    },
    {
      "type": "Feature",
      "geometry": {
        "type": "Point",
        "coordinates": [
          -88.1556755,
          30.6167621
        ]
      },
      "properties": {
        "tourism": "caravan_site",
        "osm_id": 1291892851,
        "sources": [
          "unknown"
        ]
      }
    },
    {
      "type": "Feature",
      "geometry": {
        "type": "Point",
        "coordinates": [
          -88.1583202,
          30.6081656
        ]
      },
      "properties": {
        "tourism": "caravan_site",
        "osm_id": 1291892859,
        "sources": [
          "unknown"
        ]
      }
    },
    {
      "type": "Feature",
      "geometry": {
        "type": "Point",
        "coordinates": [
          -88.1805907,
          30.5785503
        ]
      },
      "properties": {
        "tourism": "caravan_site",
        "osm_id": 1292153987,
        "sources": [
          "unknown"
        ]
      }
    },
    {
      "type": "Feature",
      "geometry": {
        "type": "Point",
        "coordinates": [
          -88.1984435,
          30.5722465
        ]
      },
      "properties": {
        "tourism": "caravan_site",
        "osm_id": 1292179883,
        "sources": [
          "unknown"
        ]
      }
    },
    {
      "type": "Feature",
      "geometry": {
        "type": "Point",
        "coordinates": [
          -88.2035061,
          30.5707273
        ]
      },
      "properties": {
        "tourism": "caravan_site",
        "osm_id": 1292179884,
        "sources": [
          "unknown"
        ]
      }
    },
    {
      "type": "Feature",
      "geometry": {
        "type": "Point",
        "coordinates": [
          -88.2186696,
          30.5762693
        ]
      },
      "properties": {
        "tourism": "caravan_site",
        "osm_id": 1292188394,
        "sources": [
          "unknown"
        ]
      }
    },
    {
      "type": "Feature",
      "geometry": {
        "type": "Point",
        "coordinates": [
          -88.1798505,
          30.5608088
        ]
      },
      "properties": {
        "tourism": "caravan_site",
        "osm_id": 1292846521,
        "sources": [
          "unknown"
        ]
      }
    },
    {
      "type": "Feature",
      "geometry": {
        "type": "Point",
        "coordinates": [
          -88.1924651,
          30.5592167
        ]
      },
      "properties": {
        "tourism": "caravan_site",
        "osm_id": 1292846526,
        "sources": [
          "unknown"
        ]
      }
    },
    {
      "type": "Feature",
      "geometry": {
        "type": "Point",
        "coordinates": [
          -88.1001292,
          30.5482852
        ]
      },
      "properties": {
        "name": "Riverchase Mobile Home Park",
        "tourism": "caravan_site",
        "osm_id": 1293508996,
        "sources": [
          "unknown"
        ]
      }
    },
    {
      "type": "Feature",
      "geometry": {
        "type": "Point",
        "coordinates": [
          -88.3946506,
          30.6165044
        ]
      },
      "properties": {
        "name": "Camp Huck-a-Berry",
        "tourism": "camp_site",
        "osm_id": 1303935524,
        "sources": [
          "unknown"
        ]
      }
    },
    {
      "type": "Feature",
      "geometry": {
        "type": "Point",
        "coordinates": [
          -88.099374,
          30.7774287
        ]
      },
      "properties": {
        "name": "RV Camping",
        "rating": null,
        "reviews_count": 0,
        "cost": 0,
        "amenities": [],
        "rig_friendly": [],
        "type": "established",
        "sources": [
          "unknown"
        ],
        "tourism": "camp_site",
        "osm_id": 1363866557
      }
    },
    {
      "type": "Feature",
      "geometry": {
        "type": "Point",
        "coordinates": [
          -89.1056549,
          30.4864962
        ]
      },
      "properties": {
        "addr:city": "Gulfport",
        "addr:housenumber": "14031",
        "addr:postcode": "39503",
        "addr:state": "MS",
        "addr:street": "US 49",
        "brand": "KOA",
        "brand:wikidata": "Q16988635",
        "internet_access": "wlan",
        "name": "KOA Holiday",
        "power_supply": "yes",
        "tourism": "caravan_site",
        "website": "https://koa.com/campgrounds/gulfport/",
        "osm_id": 1366705124,
        "sources": [
          "unknown"
        ]
      }
    },
    {
      "type": "Feature",
      "geometry": {
        "type": "Point",
        "coordinates": [
          -91.1367693,
          31.8718312
        ]
      },
      "properties": {
        "tourism": "caravan_site",
        "osm_id": 1374856208,
        "sources": [
          "unknown"
        ]
      }
    },
    {
      "type": "Feature",
      "geometry": {
        "type": "Point",
        "coordinates": [
          -88.1937213,
          32.6218766
        ]
      },
      "properties": {
        "tourism": "caravan_site",
        "osm_id": 1424496572,
        "sources": [
          "unknown"
        ]
      }
    },
    {
      "type": "Feature",
      "geometry": {
        "type": "Point",
        "coordinates": [
          -89.1363733,
          30.8758172
        ]
      },
      "properties": {
        "boundary": "camp_site",
        "fee": "yes",
        "name": "Flint Creek Water Park Campground",
        "power_supply": "yes",
        "tourism": "camp_site",
        "type": "boundary",
        "osm_id": 7681389,
        "sources": [
          "unknown"
        ]
      }
    },
    {
      "type": "Feature",
      "geometry": {
        "type": "Point",
        "coordinates": [
          -88.1962506,
          34.6183274
        ]
      },
      "properties": {
        "capacity:caravans": "62",
        "caravans": "yes",
        "charge": "22 USD",
        "drinking_water": "yes",
        "fee": "yes",
        "name": "Tishamingo State Park Campground",
        "power_supply": "yes",
        "shower": "yes",
        "tents": "yes",
        "tourism": "camp_site",
        "type": "multipolygon",
        "website": "https://www.mdwfp.com/parks-destinations/state-parks/tishomingo/camping/",
        "osm_id": 9485657,
        "sources": [
          "unknown"
        ]
      }
    },
    {
      "type": "Feature",
      "geometry": {
        "type": "Point",
        "coordinates": [
          -88.9405146,
          34.0457048
        ]
      },
      "properties": {
        "capacity": "26",
        "fee": "yes",
        "name": "Davis Lake Campground",
        "operator": "United States Forest Service",
        "operator:short": "USFS",
        "operator:type": "public",
        "operator:wikidata": "Q1891156",
        "ownership": "national",
        "power_supply": "yes",
        "sanitary_dump_station": "yes",
        "shower": "yes",
        "tourism": "camp_site",
        "type": "multipolygon",
        "website": "https://www.fs.usda.gov/recarea/mississippi/recreation/recarea/?recid=28863",
        "osm_id": 12492016,
        "sources": [
          "unknown"
        ]
      }
    },
    {
      "type": "Feature",
      "geometry": {
        "type": "Point",
        "coordinates": [
          -90.0410025,
          32.3878581
        ]
      },
      "properties": {
        "name": "Timberlake Campground",
        "tourism": "camp_site",
        "type": "multipolygon",
        "osm_id": 16059530,
        "sources": [
          "unknown"
        ]
      }
    },
    {
      "type": "Feature",
      "geometry": {
        "type": "Point",
        "coordinates": [
          -88.1378746,
          30.7720463
        ]
      },
      "properties": {
        "tourism": "caravan_site",
        "type": "multipolygon",
        "osm_id": 17748320,
        "sources": [
          "unknown"
        ]
      }
    },
    {
      "type": "Feature",
      "geometry": {
        "type": "Point",
        "coordinates": [
          -88.1590537,
          30.8125951
        ]
      },
      "properties": {
        "tourism": "caravan_site",
        "type": "multipolygon",
        "osm_id": 17766425,
        "sources": [
          "unknown"
        ]
      }
    },
    {
      "type": "Feature",
      "geometry": {
        "type": "Point",
        "coordinates": [
          -88.2318408,
          30.6982128
        ]
      },
      "properties": {
        "tourism": "caravan_site",
        "type": "multipolygon",
        "osm_id": 17796922,
        "sources": [
          "unknown"
        ]
      }
    },
    {
      "type": "Feature",
      "geometry": {
        "type": "Point",
        "coordinates": [
          -88.2037115,
          30.7520097
        ]
      },
      "properties": {
        "tourism": "caravan_site",
        "type": "multipolygon",
        "osm_id": 17807967,
        "sources": [
          "unknown"
        ]
      }
    },
    {
      "type": "Feature",
      "geometry": {
        "type": "Point",
        "coordinates": [
          -88.2548206,
          30.7806002
        ]
      },
      "properties": {
        "tourism": "caravan_site",
        "type": "multipolygon",
        "osm_id": 17808112,
        "sources": [
          "unknown"
        ]
      }
    },
    {
      "type": "Feature",
      "geometry": {
        "type": "Point",
        "coordinates": [
          -88.2229828,
          30.768901
        ]
      },
      "properties": {
        "tourism": "caravan_site",
        "type": "multipolygon",
        "osm_id": 17810774,
        "sources": [
          "unknown"
        ]
      }
    },
    {
      "type": "Feature",
      "geometry": {
        "type": "Point",
        "coordinates": [
          -88.2219928,
          30.7611938
        ]
      },
      "properties": {
        "tourism": "caravan_site",
        "type": "multipolygon",
        "osm_id": 17810778,
        "sources": [
          "unknown"
        ]
      }
    },
    {
      "type": "Feature",
      "geometry": {
        "type": "Point",
        "coordinates": [
          -88.2362519,
          30.6706872
        ]
      },
      "properties": {
        "tourism": "caravan_site",
        "type": "multipolygon",
        "osm_id": 17871400,
        "sources": [
          "unknown"
        ]
      }
    },
    {
      "type": "Feature",
      "geometry": {
        "type": "Point",
        "coordinates": [
          -88.2275471,
          30.6631047
        ]
      },
      "properties": {
        "tourism": "caravan_site",
        "type": "multipolygon",
        "osm_id": 17871404,
        "sources": [
          "unknown"
        ]
      }
    },
    {
      "type": "Feature",
      "geometry": {
        "type": "Point",
        "coordinates": [
          -88.2583377,
          30.3828773
        ]
      },
      "properties": {
        "alt_name": "Dockside RV Resort & Alabama Gulf Coast Campground",
        "name": "Dockside RV Resort",
        "tourism": "camp_site",
        "type": "multipolygon",
        "osm_id": 17874039,
        "sources": [
          "unknown"
        ]
      }
    },
    {
      "type": "Feature",
      "geometry": {
        "type": "Point",
        "coordinates": [
          -88.1141727,
          30.3679462
        ]
      },
      "properties": {
        "tourism": "caravan_site",
        "type": "multipolygon",
        "osm_id": 17874859,
        "sources": [
          "unknown"
        ]
      }
    },
    {
      "type": "Feature",
      "geometry": {
        "type": "Point",
        "coordinates": [
          -88.2285672,
          30.7171519
        ]
      },
      "properties": {
        "tourism": "caravan_site",
        "type": "multipolygon",
        "osm_id": 17889661,
        "sources": [
          "unknown"
        ]
      }
    },
    {
      "type": "Feature",
      "geometry": {
        "type": "Point",
        "coordinates": [
          -88.339695,
          30.4909135
        ]
      },
      "properties": {
        "tourism": "caravan_site",
        "type": "multipolygon",
        "osm_id": 18728263,
        "sources": [
          "unknown"
        ]
      }
    }
  ]
}