{
  "type": "FeatureCollection",
  "features": [
    {
      "type": "Feature",
      "geometry": {
        "type": "Point",
        "coordinates": [
          -103.5835986,
          42.8571365
        ]
      },
      "properties": {
        "name": "Toadstool Geological Park and Campground",
        "source": "Bing",
        "tourism": "camp_site",
        "type": "multipolygon",
        "website": "https://www.fs.usda.gov/recarea/nebraska/recarea/?recid=10616",
        "osm_id": 11241991,
        "sources": [
          "Bing"
        ]
      }
    },
    {
      "type": "Feature",
      "geometry": {
        "type": "Point",
        "coordinates": [
          -96.2336856,
          40.9903798
        ]
      },
      "properties": {
        "name": "Camp Kitaki",
        "tourism": "camp_site",
        "type": "multipolygon",
        "website": "https://www.ymcacampkitaki.org/",
        "osm_id": 11674763,
        "sources": [
          "unknown"
        ]
      }
    },
    {
      "type": "Feature",
      "geometry": {
        "type": "Point",
        "coordinates": [
          -96.554255,
          40.8040373
        ]
      },
      "properties": {
        "access": "customers",
        "addr:city": "Walton",
        "addr:housenumber": "800",
        "addr:postcode": "68520",
        "addr:state": "NE",
        "addr:street": "South 120th Street",
        "caravans": "no",
        "name": "Outdoor Education Center, Cornhusker Council, Scouting America",
        "operator": "Cornhusker Council, Scouting America",
        "scouts": "yes",
        "source": "bing",
        "static_caravans": "no",
        "tents": "yes",
        "tourism": "camp_site",
        "type": "multipolygon",
        "website": "https://www.cornhuskercouncil.org/",
        "osm_id": 13093525,
        "sources": [
          "bing"
        ]
      }
    },
    {
      "type": "Feature",
      "geometry": {
        "type": "Point",
        "coordinates": [
          -96.6854626,
          40.6810571
        ]
      },
      "properties": {
        "addr:city": "Roca",
        "addr:housenumber": "13440",
        "addr:postcode": "68430",
        "addr:state": "NE",
        "addr:street": "South 25th Street",
        "name": "Camp Sonshine â€“ Roca",
        "operator": "Jeff & Trisha Keiser",
        "tourism": "camp_site",
        "type": "multipolygon",
        "osm_id": 14618673,
        "sources": [
          "unknown"
        ]
      }
    },
    {
      "type": "Feature",
      "geometry": {
        "type": "Point",
        "coordinates": [
          -96.7494696,
          40.6712027
        ]
      },
      "properties": {
        "addr:city": "Roca",
        "addr:housenumber": "2260",
        "addr:postcode": "68430",
        "addr:state": "NE",
        "addr:street": "West Wittstruck Road",
        "name": "Camp Sonshine - Shiloh",
        "operator": "Camp Sonshine",
        "tourism": "camp_site",
        "type": "multipolygon",
        "osm_id": 16379088,
        "sources": [
          "unknown"
        ]
      }
    },
    {
      "type": "Feature",
      "geometry": {
        "type": "Point",
        "coordinates": [
          -96.501774,
          42.5359773
        ]
      },
      "properties": {
        "addr:city": "North Sioux City",
        "addr:housenumber": "675",
        "addr:postcode": "57049",
        "addr:state": "SD",
        "addr:street": "Streeter Drive",
        "brand": "KOA",
        "brand:wikidata": "Q16988635",
        "name": "KOA Holiday Sioux City North",
        "short_name": "KOA",
        "tourism": "caravan_site",
        "type": "multipolygon",
        "osm_id": 17294628,
        "sources": [
          "unknown"
        ]
      }
    }
  ]
}