{
  "type": "FeatureCollection",
  "features": [
    {
      "type": "Feature",
      "geometry": {
        "type": "Point",
        "coordinates": [
          -74.308833,
          39.628458
        ]
      },
      "properties": {
        "name": "Sea Pirate Campground",
        "tourism": "camp_site",
        "type": "multipolygon",
        "osm_id": 10907399,
        "sources": [
          "unknown"
        ]
      }
    },
    {
      "type": "Feature",
      "geometry": {
        "type": "Point",
        "coordinates": [
          -74.9058895,
          38.9739711
        ]
      },
      "properties": {
        "name": "Cape Island Resort",
        "static_caravans": "yes",
        "swimming_pool": "yes",
        "tourism": "camp_site",
        "type": "multipolygon",
        "washing_machine": "yes",
        "website": "http://www.capeislandresort.net/",
        "osm_id": 11038164,
        "sources": [
          "unknown"
        ]
      }
    },
    {
      "type": "Feature",
      "geometry": {
        "type": "Point",
        "coordinates": [
          -75.0969338,
          41.0074123
        ]
      },
      "properties": {
        "addr:city": "Columbia",
        "addr:housenumber": "2",
        "addr:postcode": "07832",
        "addr:state": "NJ",
        "addr:street": "Old Mine Road",
        "name": "Worthington State Forest Campground",
        "operator": "NJ Department of Environmental Protection",
        "tourism": "camp_site",
        "type": "multipolygon",
        "website": "https://www.njportal.com/DEP/NJOutdoors/Park/Details?locationId=20",
        "osm_id": 11286999,
        "sources": [
          "unknown"
        ]
      }
    },
    {
      "type": "Feature",
      "geometry": {
        "type": "Point",
        "coordinates": [
          -74.3179432,
          39.634647
        ]
      },
      "properties": {
        "name": "Baker's Acres Campground",
        "source": "NJ2002LULC",
        "tourism": "camp_site",
        "type": "multipolygon",
        "osm_id": 13034332,
        "sources": [
          "NJ2002LULC"
        ]
      }
    },
    {
      "type": "Feature",
      "geometry": {
        "type": "Point",
        "coordinates": [
          -74.9089649,
          41.080595
        ]
      },
      "properties": {
        "cabins": "yes",
        "group_only": "yes",
        "leisure": "summer_camp",
        "name": "Fairview Lake YMCA Camp",
        "operator": "YMCA of the Oranges",
        "tourism": "camp_site",
        "type": "multipolygon",
        "website": "https://www.fairviewlakeymca.org/",
        "osm_id": 16864104,
        "sources": [
          "unknown"
        ]
      }
    },
    {
      "type": "Feature",
      "geometry": {
        "type": "Point",
        "coordinates": [
          -74.7721477,
          40.9263496
        ]
      },
      "properties": {
        "access": "private",
        "name": "Camp Allamuchy",
        "operator": "Scouting America",
        "tourism": "camp_site",
        "type": "multipolygon",
        "osm_id": 19016026,
        "sources": [
          "unknown"
        ]
      }
    }
  ]
}