{
  "type": "FeatureCollection",
  "features": [
    {
      "type": "Feature",
      "geometry": {
        "type": "Point",
        "coordinates": [
          -108.181449,
          36.8061719
        ]
      },
      "properties": {
        "name": "Brown Springs Campground",
        "operator": "BLM",
        "tents": "yes",
        "tourism": "camp_site",
        "type": "multipolygon",
        "osm_id": 10320232,
        "sources": [
          "unknown"
        ]
      }
    },
    {
      "type": "Feature",
      "geometry": {
        "type": "Point",
        "coordinates": [
          -106.8940735,
          34.0424503
        ]
      },
      "properties": {
        "addr:city": "Socorro",
        "addr:housenumber": "1101",
        "addr:postcode": "87801",
        "addr:state": "NM",
        "addr:street": "NM-1",
        "name": "Casey's Socorro RV Park",
        "tourism": "caravan_site",
        "type": "multipolygon",
        "osm_id": 11889124,
        "sources": [
          "unknown"
        ]
      }
    },
    {
      "type": "Feature",
      "geometry": {
        "type": "Point",
        "coordinates": [
          -106.8742382,
          33.873449
        ]
      },
      "properties": {
        "addr:city": "San Antonio",
        "addr:state": "NM",
        "addr:street": "New Mexico 1",
        "name": "Bosque Birder's RV Park",
        "tourism": "caravan_site",
        "type": "multipolygon",
        "osm_id": 12078798,
        "sources": [
          "unknown"
        ]
      }
    },
    {
      "type": "Feature",
      "geometry": {
        "type": "Point",
        "coordinates": [
          -105.8842061,
          35.9034232
        ]
      },
      "properties": {
        "access": "private",
        "name": "Gorham Scout Ranch",
        "operator": "Boy Scouts of America",
        "tourism": "camp_site",
        "type": "multipolygon",
        "osm_id": 13720011,
        "sources": [
          "unknown"
        ]
      }
    },
    {
      "type": "Feature",
      "geometry": {
        "type": "Point",
        "coordinates": [
          -107.2091712,
          33.1891808
        ]
      },
      "properties": {
        "name": "Quail Run Campground",
        "tourism": "caravan_site",
        "type": "multipolygon",
        "osm_id": 14864092,
        "sources": [
          "unknown"
        ]
      }
    },
    {
      "type": "Feature",
      "geometry": {
        "type": "Point",
        "coordinates": [
          -107.207805,
          33.1883132
        ]
      },
      "properties": {
        "name": "Desert Cove Campground",
        "tourism": "caravan_site",
        "type": "multipolygon",
        "osm_id": 14864093,
        "sources": [
          "unknown"
        ]
      }
    },
    {
      "type": "Feature",
      "geometry": {
        "type": "Point",
        "coordinates": [
          -107.2064206,
          33.1935569
        ]
      },
      "properties": {
        "name": "Lion's Beach Campground",
        "tourism": "caravan_site",
        "type": "multipolygon",
        "osm_id": 14864094,
        "sources": [
          "unknown"
        ]
      }
    },
    {
      "type": "Feature",
      "geometry": {
        "type": "Point",
        "coordinates": [
          -107.2032267,
          33.1877444
        ]
      },
      "properties": {
        "name": "Ridge Road Campsite",
        "tourism": "camp_site",
        "type": "multipolygon",
        "osm_id": 14864096,
        "sources": [
          "unknown"
        ]
      }
    },
    {
      "type": "Feature",
      "geometry": {
        "type": "Point",
        "coordinates": [
          -107.2254865,
          33.1943028
        ]
      },
      "properties": {
        "name": "Rio Lago RV Park",
        "tourism": "caravan_site",
        "type": "multipolygon",
        "osm_id": 14868013,
        "sources": [
          "unknown"
        ]
      }
    },
    {
      "type": "Feature",
      "geometry": {
        "type": "Point",
        "coordinates": [
          -107.2180542,
          33.1841925
        ]
      },
      "properties": {
        "name": "Elephant Butte Lake RV Resort",
        "tourism": "caravan_site",
        "type": "multipolygon",
        "osm_id": 14868094,
        "sources": [
          "unknown"
        ]
      }
    },
    {
      "type": "Feature",
      "geometry": {
        "type": "Point",
        "coordinates": [
          -108.1389555,
          34.3007617
        ]
      },
      "properties": {
        "name": "Pie Town RV Park",
        "phone": "+1 575 7722727",
        "source": "Bing",
        "tourism": "caravan_site",
        "type": "multipolygon",
        "website": "http://www.pietownrvpark.com/",
        "osm_id": 15473878,
        "sources": [
          "Bing"
        ]
      }
    },
    {
      "type": "Feature",
      "geometry": {
        "type": "Point",
        "coordinates": [
          -106.726049,
          36.5855924
        ]
      },
      "properties": {
        "addr:city": "Tierra Amarilla",
        "addr:housenumber": "3150",
        "addr:postcode": "87575",
        "addr:state": "NM",
        "addr:street": "NM 112",
        "name": "Cooper's El Vado Ranch",
        "note": "Bounds are based on property lines",
        "reservation": "recommended",
        "short_name": "El Vado Ranch",
        "source:geometry": "Rio Arriba County Parcel Map 2025",
        "tourism": "caravan_site",
        "type": "multipolygon",
        "website": "https://www.elvado.com",
        "osm_id": 19715013,
        "sources": [
          "unknown"
        ]
      }
    }
  ]
}