{
  "type": "FeatureCollection",
  "features": [
    {
      "type": "Feature",
      "geometry": {
        "type": "Point",
        "coordinates": [
          -80.5699243,
          38.7966255
        ]
      },
      "properties": {
        "name": "Bulltown Campground",
        "tourism": "camp_site",
        "type": "multipolygon",
        "osm_id": 6463996,
        "sources": [
          "unknown"
        ]
      }
    },
    {
      "type": "Feature",
      "geometry": {
        "type": "Point",
        "coordinates": [
          -83.0510461,
          38.9222872
        ]
      },
      "properties": {
        "name": "Bear Creek Campground",
        "tourism": "camp_site",
        "type": "multipolygon",
        "osm_id": 8428282,
        "sources": [
          "unknown"
        ]
      }
    },
    {
      "type": "Feature",
      "geometry": {
        "type": "Point",
        "coordinates": [
          -82.633108,
          38.6157109
        ]
      },
      "properties": {
        "addr:state": "OH",
        "fee": "yes",
        "name": "Oak Hill Campground",
        "operator": "USFS",
        "tourism": "camp_site",
        "type": "multipolygon",
        "website": "https://www.fs.usda.gov/r09/wayne/recreation/oak-hill-campground",
        "osm_id": 9921749,
        "sources": [
          "unknown"
        ]
      }
    },
    {
      "type": "Feature",
      "geometry": {
        "type": "Point",
        "coordinates": [
          -82.5811974,
          39.4371637
        ]
      },
      "properties": {
        "access": "private",
        "addr:city": "South Bloomingville",
        "addr:housenumber": "24799",
        "addr:postcode": "43152",
        "addr:state": "OH",
        "addr:street": "Purcell Road",
        "group_only": "yes",
        "name": "Camp Oty'Okwa",
        "operator": "Big Brothers Big Sisters of Central Ohio",
        "tourism": "camp_site",
        "type": "multipolygon",
        "website": "https://campotyokwa.org",
        "osm_id": 14031328,
        "sources": [
          "unknown"
        ]
      }
    },
    {
      "type": "Feature",
      "geometry": {
        "type": "Point",
        "coordinates": [
          -82.6781481,
          41.807738
        ]
      },
      "properties": {
        "addr:housenumber": "11",
        "addr:street": "West Shore Road",
        "caravans": "yes",
        "name": "The Main Station RV Park",
        "tourism": "camp_site",
        "type": "multipolygon",
        "osm_id": 14474956,
        "sources": [
          "unknown"
        ]
      }
    },
    {
      "type": "Feature",
      "geometry": {
        "type": "Point",
        "coordinates": [
          -84.2449049,
          42.2041295
        ]
      },
      "properties": {
        "boundary": "landuse",
        "group_only": "yes",
        "name": "Sassafras",
        "tourism": "camp_site",
        "type": "boundary",
        "osm_id": 14618728,
        "sources": [
          "unknown"
        ]
      }
    },
    {
      "type": "Feature",
      "geometry": {
        "type": "Point",
        "coordinates": [
          -84.0507328,
          39.8354818
        ]
      },
      "properties": {
        "name": "Wright-Patterson Air Force Base Famcamp",
        "tourism": "caravan_site",
        "type": "multipolygon",
        "osm_id": 15084833,
        "sources": [
          "unknown"
        ]
      }
    },
    {
      "type": "Feature",
      "geometry": {
        "type": "Point",
        "coordinates": [
          -82.4448791,
          42.0881708
        ]
      },
      "properties": {
        "name": "Boosey Creek Campground",
        "rating": null,
        "reviews_count": 0,
        "cost": 0,
        "amenities": [],
        "rig_friendly": [],
        "type": "multipolygon",
        "sources": [
          "unknown"
        ],
        "tourism": "camp_site",
        "osm_id": 15259865
      }
    },
    {
      "type": "Feature",
      "geometry": {
        "type": "Point",
        "coordinates": [
          -82.4514392,
          42.0888805
        ]
      },
      "properties": {
        "name": "Highlands Campground",
        "tourism": "camp_site",
        "type": "multipolygon",
        "osm_id": 15259863,
        "sources": [
          "unknown"
        ]
      }
    },
    {
      "type": "Feature",
      "geometry": {
        "type": "Point",
        "coordinates": [
          -84.2169195,
          42.0788216
        ]
      },
      "properties": {
        "addr:city": "Brooklyn",
        "addr:housenumber": "1124",
        "addr:postcode": "49230",
        "addr:street": "Ventura Drive",
        "alt_name": "Camp De Sales",
        "gnis:feature_id": "622562",
        "leisure": "resort",
        "name": "De Sales Center",
        "operator": "Oblate Fathers of St. Francis",
        "operator:type": "religious",
        "resort": "kids_camp",
        "tourism": "camp_site",
        "type": "multipolygon",
        "website": "https://www.desales.org/",
        "osm_id": 16928251,
        "sources": [
          "unknown"
        ]
      }
    },
    {
      "type": "Feature",
      "geometry": {
        "type": "Point",
        "coordinates": [
          -80.5555695,
          41.6361817
        ]
      },
      "properties": {
        "name": "Holiday Camplands",
        "tourism": "camp_site",
        "type": "multipolygon",
        "osm_id": 17037039,
        "sources": [
          "unknown"
        ]
      }
    },
    {
      "type": "Feature",
      "geometry": {
        "type": "Point",
        "coordinates": [
          -83.9801904,
          39.534052
        ]
      },
      "properties": {
        "access": "permit",
        "addr:city": "Wilmington",
        "addr:housenumber": "900",
        "addr:postcode": "45177",
        "addr:state": "OH",
        "addr:street": "Center Road",
        "caravans": "yes",
        "fee": "yes",
        "name": "Caesar Creek State Park Campground",
        "operator": "Ohio Department of Natural Resources",
        "static_caravans": "yes",
        "tents": "yes",
        "tourism": "camp_site",
        "type": "multipolygon",
        "osm_id": 17519157,
        "sources": [
          "unknown"
        ]
      }
    },
    {
      "type": "Feature",
      "geometry": {
        "type": "Point",
        "coordinates": [
          -81.1613361,
          41.7956322
        ]
      },
      "properties": {
        "name": "Perry Township Park",
        "tourism": "caravan_site",
        "type": "multipolygon",
        "osm_id": 17953042,
        "sources": [
          "unknown"
        ]
      }
    },
    {
      "type": "Feature",
      "geometry": {
        "type": "Point",
        "coordinates": [
          -84.1005219,
          38.7805124
        ]
      },
      "properties": {
        "addr:city": "Felicity",
        "addr:housenumber": "3287",
        "addr:postcode": "45120",
        "addr:state": "OH",
        "addr:street": "US 52",
        "name": "Flatboat Landing",
        "tourism": "caravan_site",
        "type": "multipolygon",
        "osm_id": 18570410,
        "sources": [
          "unknown"
        ]
      }
    },
    {
      "type": "Feature",
      "geometry": {
        "type": "Point",
        "coordinates": [
          -84.092134,
          38.7796546
        ]
      },
      "properties": {
        "addr:housenumber": "3333",
        "addr:state": "OH",
        "addr:street": "US 52",
        "name": "Broadwell Camp",
        "tourism": "caravan_site",
        "type": "multipolygon",
        "osm_id": 18570411,
        "sources": [
          "unknown"
        ]
      }
    },
    {
      "type": "Feature",
      "geometry": {
        "type": "Point",
        "coordinates": [
          -84.1101089,
          38.7834455
        ]
      },
      "properties": {
        "addr:city": "Felicity",
        "addr:housenumber": "3211",
        "addr:postcode": "45120",
        "addr:state": "OH",
        "addr:street": "US 52",
        "name": "Ryans Run RV Park",
        "tourism": "caravan_site",
        "type": "multipolygon",
        "osm_id": 18570428,
        "sources": [
          "unknown"
        ]
      }
    },
    {
      "type": "Feature",
      "geometry": {
        "type": "Point",
        "coordinates": [
          -84.0715368,
          38.7731399
        ]
      },
      "properties": {
        "addr:city": "Georgetown",
        "addr:housenumber": "3681",
        "addr:postcode": "45121",
        "addr:state": "OH",
        "addr:street": "US 52",
        "name": "Runabouts",
        "tourism": "caravan_site",
        "type": "multipolygon",
        "osm_id": 18570454,
        "sources": [
          "unknown"
        ]
      }
    },
    {
      "type": "Feature",
      "geometry": {
        "type": "Point",
        "coordinates": [
          -84.0655082,
          38.7730155
        ]
      },
      "properties": {
        "addr:city": "Georgetown",
        "addr:housenumber": "3733",
        "addr:postcode": "45121",
        "addr:state": "OH",
        "addr:street": "US 52",
        "name": "Taylors Shady Rest",
        "tourism": "caravan_site",
        "type": "multipolygon",
        "osm_id": 18570455,
        "sources": [
          "unknown"
        ]
      }
    },
    {
      "type": "Feature",
      "geometry": {
        "type": "Point",
        "coordinates": [
          -84.1826252,
          38.8001169
        ]
      },
      "properties": {
        "addr:city": "Felicity",
        "addr:country": "US",
        "addr:housenumber": "2431",
        "addr:postcode": "45120",
        "addr:state": "OH",
        "addr:street": "US 52",
        "name": "The Landing at Bear Creek RV Park & Campground",
        "tourism": "caravan_site",
        "type": "multipolygon",
        "osm_id": 18626450,
        "sources": [
          "unknown"
        ]
      }
    },
    {
      "type": "Feature",
      "geometry": {
        "type": "Point",
        "coordinates": [
          -84.2296319,
          38.8817743
        ]
      },
      "properties": {
        "addr:city": "New Richmond",
        "addr:country": "US",
        "addr:housenumber": "1685",
        "addr:postcode": "45157",
        "addr:state": "OH",
        "addr:street": "US 52",
        "name": "Cincinnati Outboard Runabout Association",
        "tourism": "caravan_site",
        "type": "multipolygon",
        "osm_id": 18730230,
        "sources": [
          "unknown"
        ]
      }
    },
    {
      "type": "Feature",
      "geometry": {
        "type": "Point",
        "coordinates": [
          -84.1791791,
          38.8148271
        ]
      },
      "properties": {
        "access": "private",
        "addr:city": "Felicty",
        "addr:housenumber": "420",
        "addr:postcode": "45120",
        "addr:state": "OH",
        "addr:street": "Neville-Penn Schoolhouse Road",
        "camp_site": "standard",
        "name": "Camp Crossroads",
        "operator": "Crossroads Community Church",
        "static_caravans": "no",
        "tourism": "camp_site",
        "type": "multipolygon",
        "website": "https://www.camps.us/",
        "osm_id": 18782749,
        "sources": [
          "unknown"
        ]
      }
    },
    {
      "type": "Feature",
      "geometry": {
        "type": "Point",
        "coordinates": [
          -84.0964441,
          39.0367593
        ]
      },
      "properties": {
        "access": "permit",
        "addr:city": "Batavia",
        "addr:housenumber": "2832",
        "addr:postcode": "45103",
        "addr:state": "OH",
        "addr:street": "Old State Route 32",
        "caravans": "yes",
        "dog": "leashed",
        "fee": "yes",
        "internet_access": "wlan",
        "internet_access:fee": "customers",
        "name": "East Fork State Park Campground",
        "operator": "Ohio Department of Natural Resources",
        "power_supply": "yes",
        "sanitary_dump_station": "yes",
        "shower": "yes",
        "static_caravans": "no",
        "tents": "yes",
        "toilets": "yes",
        "tourism": "camp_site",
        "type": "multipolygon",
        "website": "https://ohiodnr.gov/go-and-do/plan-a-visit/find-a-property/east-fork-state-park-campground",
        "osm_id": 18995774,
        "sources": [
          "unknown"
        ]
      }
    },
    {
      "type": "Feature",
      "geometry": {
        "type": "Point",
        "coordinates": [
          -84.2785385,
          39.2536851
        ]
      },
      "properties": {
        "access": "private",
        "addr:city": "Loveland",
        "addr:housenumber": "544",
        "addr:postcode": "45140",
        "addr:state": "OH",
        "addr:street": "Branch Hillâ€“Loveland Road",
        "brand": "Izaak Walton League",
        "brand:wikidata": "Q6101435",
        "name": "The Izaak Walton League Cincinnati Chapter",
        "official_name": "Cincinnati Chapter of the Izaak Walton League of America",
        "operator": "The Izaak Walton League Cincinnati Chapter",
        "operator:type": "private_non_profit",
        "phone": "+1-513-683-7233",
        "short_name": "IWLA",
        "tourism": "camp_site",
        "type": "multipolygon",
        "osm_id": 19008431,
        "sources": [
          "unknown"
        ]
      }
    },
    {
      "type": "Feature",
      "geometry": {
        "type": "Point",
        "coordinates": [
          -84.013052,
          39.56415
        ]
      },
      "properties": {
        "access": "private",
        "camp_site": "serviced",
        "name": "Frontier Campground",
        "tourism": "camp_site",
        "type": "multipolygon",
        "website": "https://frontiercamping.com/",
        "osm_id": 19124379,
        "sources": [
          "unknown"
        ]
      }
    },
    {
      "type": "Feature",
      "geometry": {
        "type": "Point",
        "coordinates": [
          -83.3230752,
          39.0887496
        ]
      },
      "properties": {
        "addr:city": "Latham",
        "addr:housenumber": "50",
        "addr:postcode": "45646",
        "addr:state": "OH",
        "addr:street": "Bell Hollow Road",
        "caravans": "yes",
        "contact:facebook": "https://www.facebook.com/longsretreat",
        "email": "info@longsretreat.com",
        "fee": "no",
        "internet_access": "no",
        "leisure": "resort",
        "name": "Long's Retreat",
        "official_name": "Long's Retreat Family Resort",
        "phone": "+1 937-588-3725",
        "sanitary_dump_station": "yes",
        "tourism": "camp_site",
        "type": "multipolygon",
        "website": "https://www.longsretreat.com/",
        "osm_id": 19233081,
        "sources": [
          "unknown"
        ]
      }
    },
    {
      "type": "Feature",
      "geometry": {
        "type": "Point",
        "coordinates": [
          -82.8123786,
          41.5450338
        ]
      },
      "properties": {
        "backcountry": "no",
        "caravans": "yes",
        "internet_access": "wlan",
        "internet_access:fee": "no",
        "name": "East Harbor State Park Campground",
        "operator": "Ohio Department of Natural Resources",
        "reservation": "required",
        "tents": "yes",
        "tourism": "camp_site",
        "type": "multipolygon",
        "website": "https://ohiodnr.gov/go-and-do/plan-a-visit/find-a-property/east-harbor-state-park-campground",
        "osm_id": 19238037,
        "sources": [
          "unknown"
        ]
      }
    },
    {
      "type": "Feature",
      "geometry": {
        "type": "Point",
        "coordinates": [
          -81.1892598,
          40.4651308
        ]
      },
      "properties": {
        "access": "yes",
        "addr:city": "Bowerston",
        "addr:housenumber": "4131",
        "addr:state": "OH",
        "addr:street": "Deer Road Southwest",
        "camp_site": "serviced",
        "caravans": "yes",
        "fee": "yes",
        "name": "Leesville Lake South Fork Campground",
        "operator": "Muskingum Watershed Conservancy District",
        "tents": "yes",
        "tourism": "camp_site",
        "type": "multipolygon",
        "website": "https://www.mwcd.org/places/leesville-lake/",
        "osm_id": 19483822,
        "sources": [
          "unknown"
        ]
      }
    },
    {
      "type": "Feature",
      "geometry": {
        "type": "Point",
        "coordinates": [
          -80.7714258,
          41.3157041
        ]
      },
      "properties": {
        "access": "customers",
        "addr:city": "Cortland",
        "addr:housenumber": "3620",
        "addr:postcode": "44410",
        "addr:state": "OH",
        "addr:street": "Hoagland Blackstub Road",
        "background": "no",
        "cabins": "no",
        "capacity:caravans": "218",
        "capacity:persons": "6",
        "capacity:pitches": "234",
        "capacity:tents": "2",
        "capacity:yurts": "2",
        "caravans": "yes",
        "dog": "leashed",
        "drinking_water": "yes",
        "fee": "yes",
        "group_only": "no",
        "impromptu": "no",
        "kitchen": "no",
        "motor_vehicle": "yes",
        "motorhome": "yes",
        "name": "Mosquito Lake State Park Campground",
        "name:en": "Mosquito Lake State Park Campground",
        "operator": "Ohio Department of Natural Resources",
        "operator:short": "ODNR",
        "operator:wikidata": "Q7080799",
        "permanent_camping": "no",
        "phone": "+1 330 637 2856",
        "picnic_table": "yes",
        "power_supply": "yes",
        "reservation": "required",
        "sanitary_dump_station": "yes",
        "shower": "yes",
        "static_caravans": "no",
        "tents": "yes",
        "toilets": "yes",
        "tourism": "camp_site",
        "type": "multipolygon",
        "washing_machine": "yes",
        "waste_disposal": "yes",
        "website": "https://ohiodnr.gov/go-and-do/plan-a-visit/find-a-property/mosquito-lake-state-park-campground",
        "yurts": "yes",
        "osm_id": 19527297,
        "sources": [
          "unknown"
        ]
      }
    },
    {
      "type": "Feature",
      "geometry": {
        "type": "Point",
        "coordinates": [
          -84.3548921,
          40.3575874
        ]
      },
      "properties": {
        "access": "yes",
        "addr:city": "Minster",
        "addr:housenumber": "11070",
        "addr:postcode": "45865",
        "addr:state": "OH",
        "addr:street": "State Route 362",
        "camp_site": "serviced",
        "caravans": "yes",
        "fee": "yes",
        "name": "Lake Loramie State Park Campground",
        "phone": "+1 937 295 3900",
        "static_caravans": "no",
        "tents": "yes",
        "tourism": "camp_site",
        "type": "multipolygon",
        "osm_id": 19584038,
        "sources": [
          "unknown"
        ]
      }
    },
    {
      "type": "Feature",
      "geometry": {
        "type": "Point",
        "coordinates": [
          -84.3478042,
          40.3735424
        ]
      },
      "properties": {
        "access": "customers",
        "fee": "yes",
        "name": "Lotus Cove Campground",
        "tourism": "camp_site",
        "type": "multipolygon",
        "website": "http://lotuscovecampground.com/",
        "osm_id": 19584565,
        "sources": [
          "unknown"
        ]
      }
    },
    {
      "type": "Feature",
      "geometry": {
        "type": "Point",
        "coordinates": [
          -81.3976579,
          40.5667452
        ]
      },
      "properties": {
        "access": "permit",
        "addr:city": "Dover",
        "addr:housenumber": "6066",
        "addr:postcode": "44622",
        "addr:state": "OH",
        "addr:street": "Boy Scout Road Northeast",
        "camp_site": "serviced",
        "caravans": "no",
        "fee": "yes",
        "name": "Camp Tuscazoar",
        "operator": "Camp Tuscazoar Foundation",
        "static_caravans": "no",
        "tents": "yes",
        "tourism": "camp_site",
        "type": "multipolygon",
        "website": "https://tuscazoar.org/",
        "osm_id": 19597721,
        "sources": [
          "unknown"
        ]
      }
    },
    {
      "type": "Feature",
      "geometry": {
        "type": "Point",
        "coordinates": [
          -83.1047074,
          38.6835903
        ]
      },
      "properties": {
        "access": "yes",
        "addr:city": "Stout",
        "addr:housenumber": "11152",
        "addr:postcode": "45684",
        "addr:state": "OH",
        "addr:street": "US 52",
        "camp_site": "serviced",
        "caravans": "yes",
        "fee": "yes",
        "name": "Shawnee State Park Ohio River Campground",
        "operator": "ODNR",
        "phone": "+1 740 858-6681 x3",
        "tents": "yes",
        "tourism": "camp_site",
        "type": "multipolygon",
        "website": "https://ohiodnr.gov/go-and-do/plan-a-visit/find-a-property/shawnee-state-park-campground",
        "osm_id": 19613670,
        "sources": [
          "unknown"
        ]
      }
    },
    {
      "type": "Feature",
      "geometry": {
        "type": "Point",
        "coordinates": [
          -83.8992356,
          40.5139888
        ]
      },
      "properties": {
        "access": "yes",
        "addr:city": "Lakeview",
        "addr:housenumber": "13156",
        "addr:postcode": "43331",
        "addr:state": "OH",
        "addr:street": "SR 235",
        "caravans": "yes",
        "fee": "yes",
        "name": "Indian Lake State Park Campground",
        "static_caravans": "no",
        "tents": "yes",
        "tourism": "camp_site",
        "type": "multipolygon",
        "website": "https://ohiodnr.gov/go-and-do/plan-a-visit/find-a-property/indian-lake-state-park-campground",
        "osm_id": 19671376,
        "sources": [
          "unknown"
        ]
      }
    },
    {
      "type": "Feature",
      "geometry": {
        "type": "Point",
        "coordinates": [
          -83.3749327,
          38.9222247
        ]
      },
      "properties": {
        "addr:city": "Peebles",
        "addr:housenumber": "160",
        "addr:postcode": "45660",
        "addr:state": "OH",
        "addr:street": "Blue Gill Road",
        "camp_site": "deluxe",
        "caravans": "yes",
        "contact:facebook": "https://www.facebook.com/MineralSpringsLake",
        "fee": "yes",
        "name": "Mineral Springs Lake Resort",
        "static_caravans": "yes",
        "tents": "no",
        "tourism": "camp_site",
        "type": "multipolygon",
        "website": "https://www.mineralspringslakeresort.com/",
        "osm_id": 19722691,
        "sources": [
          "unknown"
        ]
      }
    },
    {
      "type": "Feature",
      "geometry": {
        "type": "Point",
        "coordinates": [
          -84.4306957,
          39.0894403
        ]
      },
      "properties": {
        "addr:city": "Cincinnati",
        "addr:country": "US",
        "addr:housenumber": "4699",
        "addr:postcode": "45226",
        "addr:state": "OH",
        "addr:street": "Kellogg Avenue",
        "internet_access:fee": "yes",
        "name": "Tucker's Landing",
        "operator": "Morningstar Marinas",
        "tourism": "caravan_site",
        "type": "multipolygon",
        "website": "https://www.morningstarmarinas.com/location/735/oh/cincinnati/rivertowne/",
        "osm_id": 19872438,
        "sources": [
          "unknown"
        ]
      }
    }
  ]
}