{
  "type": "FeatureCollection",
  "features": [
    {
      "type": "Feature",
      "geometry": {
        "type": "Point",
        "coordinates": [
          -95.8666369,
          36.1671387
        ]
      },
      "properties": {
        "email": "mingorv@sbcglobal.net",
        "fax": "+1-918-836-7371",
        "internet_access": "wlan",
        "internet_access:fee": "yes",
        "landuse": "residential",
        "name": "Mingo RV Park",
        "phone": "+1-918-832-8824",
        "smoking": "yes",
        "tourism": "caravan_site",
        "type": "multipolygon",
        "website": "https://www.mingorvpark.com/",
        "wheelchair": "yes",
        "osm_id": 2715197,
        "sources": [
          "unknown"
        ]
      }
    },
    {
      "type": "Feature",
      "geometry": {
        "type": "Point",
        "coordinates": [
          -95.5799937,
          35.2779254
        ]
      },
      "properties": {
        "addr:city": "Eufaula",
        "addr:housenumber": "610",
        "addr:postcode": "74432",
        "addr:state": "OK",
        "addr:street": "Lakeshore Drive",
        "brand": "Yogi Bear's Jellystone Park",
        "brand:wikidata": "Q8054389",
        "leisure": "resort",
        "name": "Yogi Bear's Jellystone Park",
        "official_name": "Yogi Bear's Jellystone Park Camp-Resorts",
        "tourism": "caravan_site",
        "type": "multipolygon",
        "osm_id": 18262439,
        "sources": [
          "unknown"
        ]
      }
    },
    {
      "type": "Feature",
      "geometry": {
        "type": "Point",
        "coordinates": [
          -95.5768925,
          35.2820139
        ]
      },
      "properties": {
        "addr:city": "Eufaula",
        "addr:housenumber": "203",
        "addr:postcode": "74432",
        "addr:state": "OK",
        "addr:street": "Adams Avenue",
        "leisure": "resort",
        "name": "Xtreme RV Resort",
        "tourism": "caravan_site",
        "type": "multipolygon",
        "osm_id": 18269320,
        "sources": [
          "unknown"
        ]
      }
    },
    {
      "type": "Feature",
      "geometry": {
        "type": "Point",
        "coordinates": [
          -95.8868352,
          35.6087202
        ]
      },
      "properties": {
        "addr:city": "Morris",
        "addr:country": "US",
        "addr:street": "US 62",
        "image": "https://static.wixstatic.com/media/ed6116_234c82fc7dcd48fc8b877508b182293e~mv2.jpg",
        "name": "Morris RV Park",
        "phone": "+1 918 641 4504",
        "tourism": "caravan_site",
        "type": "multipolygon",
        "website": "https://www.morrisrvpark.com/",
        "osm_id": 18295518,
        "sources": [
          "unknown"
        ]
      }
    },
    {
      "type": "Feature",
      "geometry": {
        "type": "Point",
        "coordinates": [
          -96.0103637,
          35.817986
        ]
      },
      "properties": {
        "addr:city": "Beggs",
        "addr:country": "US",
        "addr:housenumber": "2538",
        "addr:postcode": "74421",
        "addr:state": "OK",
        "addr:street": "US 75",
        "fee": "yes",
        "name": "Tulsa RV Ranch",
        "phone": "+1 918 267 9000",
        "power_supply": "yes",
        "tourism": "caravan_site",
        "type": "multipolygon",
        "website": "https://tulsarvranch.com/",
        "osm_id": 18491503,
        "sources": [
          "unknown"
        ]
      }
    },
    {
      "type": "Feature",
      "geometry": {
        "type": "Point",
        "coordinates": [
          -96.9386261,
          35.73083
        ]
      },
      "properties": {
        "addr:city": "Chandler",
        "addr:postcode": "74834",
        "addr:state": "OK",
        "addr:street": "CR S3405",
        "name": "Bell Cow Lake Campgorund Area B",
        "tourism": "camp_site",
        "type": "multipolygon",
        "osm_id": 19694242,
        "sources": [
          "unknown"
        ]
      }
    }
  ]
}