{
  "type": "FeatureCollection",
  "features": [
    {
      "type": "Feature",
      "geometry": {
        "type": "Point",
        "coordinates": [
          -103.8576591,
          44.479788
        ]
      },
      "properties": {
        "addr:city": "Spearfish",
        "addr:housenumber": "404",
        "addr:postcode": "57783",
        "addr:state": "SD",
        "addr:street": "South Canyon Street",
        "capacity": "211",
        "capacity:caravans": "62",
        "caravans": "yes",
        "drinking_water": "yes",
        "fee": "yes",
        "fee_zone": "$25-$45",
        "name": "Spearfish City Campground",
        "operator": "City of Spearfish",
        "phone": "+1 605-642-1340",
        "power_supply": "yes",
        "reservation": "yes",
        "shower": "yes",
        "source": "https://www.cityofspearfish.com/Facilities/Facility/Details/Spearfish-City-Campground-1",
        "tents": "yes",
        "toilets": "yes",
        "tourism": "camp_site",
        "type": "multipolygon",
        "osm_id": 3535934,
        "sources": [
          "https://www.cityofspearfish.com/Facilities/Facility/Details/Spearfish-City-Campground-1"
        ]
      }
    },
    {
      "type": "Feature",
      "geometry": {
        "type": "Point",
        "coordinates": [
          -103.735173,
          44.4705384
        ]
      },
      "properties": {
        "addr:city": "Spearfish",
        "addr:housenumber": "20189",
        "addr:postcode": "57783",
        "addr:state": "SD",
        "addr:street": "US Highway 85",
        "name": "Elkhorn Ridge Campground",
        "tourism": "camp_site",
        "type": "multipolygon",
        "osm_id": 3556146,
        "sources": [
          "unknown"
        ]
      }
    },
    {
      "type": "Feature",
      "geometry": {
        "type": "Point",
        "coordinates": [
          -103.8674236,
          44.5169192
        ]
      },
      "properties": {
        "brand": "KOA",
        "brand:wikidata": "Q16988635",
        "name": "KOA",
        "short_name": "KOA",
        "tourism": "caravan_site",
        "type": "multipolygon",
        "osm_id": 3615817,
        "sources": [
          "unknown"
        ]
      }
    },
    {
      "type": "Feature",
      "geometry": {
        "type": "Point",
        "coordinates": [
          -103.4082969,
          44.4166227
        ]
      },
      "properties": {
        "name": "Buffalo Chip",
        "tourism": "camp_site",
        "type": "multipolygon",
        "osm_id": 5768421,
        "sources": [
          "unknown"
        ]
      }
    },
    {
      "type": "Feature",
      "geometry": {
        "type": "Point",
        "coordinates": [
          -103.9308412,
          44.5246563
        ]
      },
      "properties": {
        "name": "Broken Boot Campground",
        "tourism": "camp_site",
        "type": "multipolygon",
        "osm_id": 5943087,
        "sources": [
          "unknown"
        ]
      }
    },
    {
      "type": "Feature",
      "geometry": {
        "type": "Point",
        "coordinates": [
          -103.5835986,
          42.8571365
        ]
      },
      "properties": {
        "name": "Toadstool Geological Park and Campground",
        "source": "Bing",
        "tourism": "camp_site",
        "type": "multipolygon",
        "website": "https://www.fs.usda.gov/recarea/nebraska/recarea/?recid=10616",
        "osm_id": 11241991,
        "sources": [
          "Bing"
        ]
      }
    },
    {
      "type": "Feature",
      "geometry": {
        "type": "Point",
        "coordinates": [
          -100.4837917,
          45.5662564
        ]
      },
      "properties": {
        "name": "Grand River Casino Campground",
        "static_caravans": "yes",
        "tourism": "camp_site",
        "type": "multipolygon",
        "osm_id": 14353978,
        "sources": [
          "unknown"
        ]
      }
    },
    {
      "type": "Feature",
      "geometry": {
        "type": "Point",
        "coordinates": [
          -103.5031451,
          44.0654962
        ]
      },
      "properties": {
        "addr:city": "Rapid City",
        "addr:state": "SD",
        "charge": "26 USD",
        "drinking_water": "seasonal",
        "fee": "yes",
        "name": "Pactola Campground",
        "operator": "USFS",
        "tents": "yes",
        "toilets": "vault",
        "tourism": "camp_site",
        "type": "multipolygon",
        "osm_id": 15360388,
        "sources": [
          "unknown"
        ]
      }
    },
    {
      "type": "Feature",
      "geometry": {
        "type": "Point",
        "coordinates": [
          -103.4734667,
          43.9687713
        ]
      },
      "properties": {
        "addr:city": "Hill City",
        "addr:state": "SD",
        "capacity": "129",
        "charge": "26 USD",
        "drinking_water": "seasonal",
        "fee": "yes",
        "name": "Sheridan Lake South Shore Campground",
        "tents": "yes",
        "toilets": "vault",
        "tourism": "camp_site",
        "type": "multipolygon",
        "osm_id": 15360389,
        "sources": [
          "unknown"
        ]
      }
    },
    {
      "type": "Feature",
      "geometry": {
        "type": "Point",
        "coordinates": [
          -103.5783607,
          43.9244492
        ]
      },
      "properties": {
        "addr:city": "Hill City",
        "addr:housenumber": "24024",
        "addr:state": "SD",
        "addr:street": "Main Street",
        "name": "Black Hills Trailside Park Resort",
        "phone": "+1 605-574-9079",
        "tourism": "caravan_site",
        "type": "multipolygon",
        "osm_id": 15360390,
        "sources": [
          "unknown"
        ]
      }
    },
    {
      "type": "Feature",
      "geometry": {
        "type": "Point",
        "coordinates": [
          -96.7075113,
          43.8195963
        ]
      },
      "properties": {
        "access": "yes",
        "addr:city": "Dell Rapids",
        "addr:housenumber": "600",
        "addr:postcode": "57022",
        "addr:state": "SD",
        "addr:street": "Zero Street",
        "name": "Dell Rapids Campground",
        "tourism": "camp_site",
        "type": "multipolygon",
        "osm_id": 15842692,
        "sources": [
          "unknown"
        ]
      }
    },
    {
      "type": "Feature",
      "geometry": {
        "type": "Point",
        "coordinates": [
          -103.729442,
          43.9015873
        ]
      },
      "properties": {
        "access": "private",
        "addr:city": "Custer",
        "addr:country": "US",
        "addr:housenumber": "24201",
        "addr:postcode": "57730-6503",
        "addr:state": "SD",
        "addr:street": "Bobcat Road",
        "name": "Medicine Mountain Scout Ranch",
        "tourism": "camp_site",
        "type": "multipolygon",
        "osm_id": 16775477,
        "sources": [
          "unknown"
        ]
      }
    },
    {
      "type": "Feature",
      "geometry": {
        "type": "Point",
        "coordinates": [
          -103.5850301,
          43.8711511
        ]
      },
      "properties": {
        "name": "Horse Thief Campground & Resort",
        "tourism": "camp_site",
        "type": "multipolygon",
        "osm_id": 16778881,
        "sources": [
          "unknown"
        ]
      }
    },
    {
      "type": "Feature",
      "geometry": {
        "type": "Point",
        "coordinates": [
          -103.5351609,
          43.9048904
        ]
      },
      "properties": {
        "brand": "KOA",
        "brand:wikidata": "Q16988635",
        "name": "Mount Rushmore KOA Resort at Palmer Gulch Resort",
        "short_name": "KOA",
        "tourism": "caravan_site",
        "type": "multipolygon",
        "osm_id": 16778885,
        "sources": [
          "unknown"
        ]
      }
    },
    {
      "type": "Feature",
      "geometry": {
        "type": "Point",
        "coordinates": [
          -96.7383747,
          43.7652861
        ]
      },
      "properties": {
        "name": "River Park Campground",
        "tourism": "camp_site",
        "type": "multipolygon",
        "osm_id": 17153210,
        "sources": [
          "unknown"
        ]
      }
    },
    {
      "type": "Feature",
      "geometry": {
        "type": "Point",
        "coordinates": [
          -96.501774,
          42.5359773
        ]
      },
      "properties": {
        "addr:city": "North Sioux City",
        "addr:housenumber": "675",
        "addr:postcode": "57049",
        "addr:state": "SD",
        "addr:street": "Streeter Drive",
        "brand": "KOA",
        "brand:wikidata": "Q16988635",
        "name": "KOA Holiday Sioux City North",
        "short_name": "KOA",
        "tourism": "caravan_site",
        "type": "multipolygon",
        "osm_id": 17294628,
        "sources": [
          "unknown"
        ]
      }
    },
    {
      "type": "Feature",
      "geometry": {
        "type": "Point",
        "coordinates": [
          -98.4838158,
          43.7081368
        ]
      },
      "properties": {
        "addr:housenumber": "608",
        "addr:postcode": "57368",
        "addr:street": "South Main Street",
        "contact:phone": "+1 605-770-0300",
        "name": "Hill's RV Park & Campground",
        "source": "Bing",
        "tourism": "caravan_site",
        "type": "multipolygon",
        "osm_id": 17922509,
        "sources": [
          "Bing"
        ]
      }
    },
    {
      "type": "Feature",
      "geometry": {
        "type": "Point",
        "coordinates": [
          -97.4636542,
          44.320402
        ]
      },
      "properties": {
        "name": "Martens Campground",
        "rating": null,
        "reviews_count": 0,
        "cost": 0,
        "amenities": [],
        "rig_friendly": [],
        "type": "multipolygon",
        "sources": [
          "unknown"
        ],
        "tourism": "caravan_site",
        "osm_id": 18374964
      }
    },
    {
      "type": "Feature",
      "geometry": {
        "type": "Point",
        "coordinates": [
          -103.3718566,
          44.2180266
        ]
      },
      "properties": {
        "addr:city": "Piedmont",
        "addr:housenumber": "14240",
        "addr:postcode": "57769",
        "addr:state": "SD",
        "addr:street": "Sturgis Road",
        "caravans": "yes",
        "drinking_water": "yes",
        "email": "info@blackhillsstation.com",
        "fee": "yes",
        "name": "Black Hills Station RV & Campground",
        "phone": "+1-605-787-9797",
        "power_supply": "yes",
        "shower": "yes",
        "static_caravans": "no",
        "tents": "yes",
        "tourism": "camp_site",
        "type": "multipolygon",
        "website": "https://blackhillsstation.com/",
        "osm_id": 18484588,
        "sources": [
          "unknown"
        ]
      }
    },
    {
      "type": "Feature",
      "geometry": {
        "type": "Point",
        "coordinates": [
          -97.3695249,
          44.3595648
        ]
      },
      "properties": {
        "capacity:motorhome": "17",
        "caravans": "only",
        "contact:phone": "+1 605 847-4140",
        "contact:website": "https://lakeprestonsd.com/campground",
        "fee": "yes",
        "name": "City Campground",
        "reservation": "required",
        "tourism": "camp_site",
        "type": "multipolygon",
        "osm_id": 18693075,
        "sources": [
          "unknown"
        ]
      }
    },
    {
      "type": "Feature",
      "geometry": {
        "type": "Point",
        "coordinates": [
          -97.2390635,
          45.7407018
        ]
      },
      "properties": {
        "name": "Sica Hollow State Park Campground",
        "tourism": "camp_site",
        "type": "multipolygon",
        "osm_id": 19236269,
        "sources": [
          "unknown"
        ]
      }
    },
    {
      "type": "Feature",
      "geometry": {
        "type": "Point",
        "coordinates": [
          -96.4347849,
          44.5064682
        ]
      },
      "properties": {
        "addr:city": "Hendricks",
        "addr:postcode": "56136",
        "addr:state": "MN",
        "capacity": "27",
        "charge": "25 USD",
        "description": "$18-$25",
        "fee": "yes",
        "motor_vehicle": "yes",
        "name": "Lake Hendricks Campground",
        "note": "Currently undergoing construction to campground; area should likely encompass expansion.",
        "tents": "yes",
        "tourism": "camp_site",
        "type": "multipolygon",
        "website": "http://www.hendricksmn.com/HendricksCampGrounds.asp",
        "osm_id": 19672607,
        "sources": [
          "unknown"
        ]
      }
    }
  ]
}