{
  "type": "FeatureCollection",
  "features": [
    {
      "type": "Feature",
      "geometry": {
        "type": "Point",
        "coordinates": [
          -98.7093954,
          29.4455509
        ]
      },
      "properties": {
        "addr:city": "San Antonio",
        "addr:country": "US",
        "addr:housenumber": "1120",
        "addr:postcode": "78251",
        "addr:state": "TX",
        "addr:street": "West Loop 1604 North",
        "name": "Blazing Star RV Resort",
        "operator": "Sun RV Resorts",
        "tourism": "caravan_site",
        "type": "multipolygon",
        "osm_id": 1434872385,
        "sources": [
          "unknown"
        ]
      }
    },
    {
      "type": "Feature",
      "geometry": {
        "type": "Point",
        "coordinates": [
          -95.8666369,
          36.1671387
        ]
      },
      "properties": {
        "email": "mingorv@sbcglobal.net",
        "fax": "+1-918-836-7371",
        "internet_access": "wlan",
        "internet_access:fee": "yes",
        "landuse": "residential",
        "name": "Mingo RV Park",
        "phone": "+1-918-832-8824",
        "smoking": "yes",
        "tourism": "caravan_site",
        "type": "multipolygon",
        "website": "https://www.mingorvpark.com/",
        "wheelchair": "yes",
        "osm_id": 2715197,
        "sources": [
          "unknown"
        ]
      }
    },
    {
      "type": "Feature",
      "geometry": {
        "type": "Point",
        "coordinates": [
          -98.6915773,
          29.4460873
        ]
      },
      "properties": {
        "addr:city": "San Antonio",
        "addr:country": "US",
        "addr:housenumber": "1485",
        "addr:postcode": "78251",
        "addr:state": "TX",
        "addr:street": "North Ellison Drive",
        "name": "Admiralty RV Resort",
        "tourism": "caravan_site",
        "type": "multipolygon",
        "osm_id": 6881063,
        "sources": [
          "unknown"
        ]
      }
    },
    {
      "type": "Feature",
      "geometry": {
        "type": "Point",
        "coordinates": [
          -94.2949184,
          35.3436514
        ]
      },
      "properties": {
        "name": "Springhill Park",
        "tourism": "camp_site",
        "type": "multipolygon",
        "osm_id": 13444709,
        "sources": [
          "unknown"
        ]
      }
    },
    {
      "type": "Feature",
      "geometry": {
        "type": "Point",
        "coordinates": [
          -97.5631058,
          31.1428467
        ]
      },
      "properties": {
        "name": "Cottage RV Park",
        "tourism": "caravan_site",
        "type": "multipolygon",
        "osm_id": 13617948,
        "sources": [
          "unknown"
        ]
      }
    },
    {
      "type": "Feature",
      "geometry": {
        "type": "Point",
        "coordinates": [
          -105.8842061,
          35.9034232
        ]
      },
      "properties": {
        "access": "private",
        "name": "Gorham Scout Ranch",
        "operator": "Boy Scouts of America",
        "tourism": "camp_site",
        "type": "multipolygon",
        "osm_id": 13720011,
        "sources": [
          "unknown"
        ]
      }
    },
    {
      "type": "Feature",
      "geometry": {
        "type": "Point",
        "coordinates": [
          -99.1270576,
          29.737924
        ]
      },
      "properties": {
        "addr:city": "Bandera",
        "addr:housenumber": "4300",
        "addr:postcode": "78003",
        "addr:state": "TX",
        "addr:street": "State Highway 16 North",
        "name": "Bandera Crossing Riverfront RV Park",
        "tourism": "caravan_site",
        "type": "multipolygon",
        "osm_id": 14706312,
        "sources": [
          "unknown"
        ]
      }
    },
    {
      "type": "Feature",
      "geometry": {
        "type": "Point",
        "coordinates": [
          -95.2928756,
          32.3929893
        ]
      },
      "properties": {
        "addr:city": "Tyler",
        "addr:housenumber": "240",
        "addr:postcode": "75706",
        "addr:state": "TX",
        "addr:street": "East Northeast Loop 323",
        "name": "Hidden Lake RV Park",
        "tourism": "caravan_site",
        "type": "multipolygon",
        "osm_id": 16778775,
        "sources": [
          "unknown"
        ]
      }
    },
    {
      "type": "Feature",
      "geometry": {
        "type": "Point",
        "coordinates": [
          -97.358858,
          31.8839941
        ]
      },
      "properties": {
        "ele": "170",
        "gnis:feature_id": "1374646",
        "name": "Lofers Bend Park",
        "tourism": "camp_site",
        "type": "multipolygon",
        "osm_id": 17503392,
        "sources": [
          "unknown"
        ]
      }
    },
    {
      "type": "Feature",
      "geometry": {
        "type": "Point",
        "coordinates": [
          -97.4486826,
          31.1693163
        ]
      },
      "properties": {
        "ele": "182",
        "gnis:feature_id": "1354146",
        "name": "Cedar Ridge Park",
        "tourism": "camp_site",
        "type": "multipolygon",
        "osm_id": 17519065,
        "sources": [
          "unknown"
        ]
      }
    },
    {
      "type": "Feature",
      "geometry": {
        "type": "Point",
        "coordinates": [
          -97.6192487,
          31.014563
        ]
      },
      "properties": {
        "comment:website": "https://www.recreation.gov/camping/campgrounds/232728",
        "ele": "195",
        "gnis:feature_id": "1385325",
        "name": "Union Grove Park",
        "tourism": "camp_site",
        "type": "multipolygon",
        "osm_id": 17527677,
        "sources": [
          "unknown"
        ]
      }
    },
    {
      "type": "Feature",
      "geometry": {
        "type": "Point",
        "coordinates": [
          -95.5799937,
          35.2779254
        ]
      },
      "properties": {
        "addr:city": "Eufaula",
        "addr:housenumber": "610",
        "addr:postcode": "74432",
        "addr:state": "OK",
        "addr:street": "Lakeshore Drive",
        "brand": "Yogi Bear's Jellystone Park",
        "brand:wikidata": "Q8054389",
        "leisure": "resort",
        "name": "Yogi Bear's Jellystone Park",
        "official_name": "Yogi Bear's Jellystone Park Camp-Resorts",
        "tourism": "caravan_site",
        "type": "multipolygon",
        "osm_id": 18262439,
        "sources": [
          "unknown"
        ]
      }
    },
    {
      "type": "Feature",
      "geometry": {
        "type": "Point",
        "coordinates": [
          -95.5768925,
          35.2820139
        ]
      },
      "properties": {
        "addr:city": "Eufaula",
        "addr:housenumber": "203",
        "addr:postcode": "74432",
        "addr:state": "OK",
        "addr:street": "Adams Avenue",
        "leisure": "resort",
        "name": "Xtreme RV Resort",
        "tourism": "caravan_site",
        "type": "multipolygon",
        "osm_id": 18269320,
        "sources": [
          "unknown"
        ]
      }
    },
    {
      "type": "Feature",
      "geometry": {
        "type": "Point",
        "coordinates": [
          -95.8868352,
          35.6087202
        ]
      },
      "properties": {
        "addr:city": "Morris",
        "addr:country": "US",
        "addr:street": "US 62",
        "image": "https://static.wixstatic.com/media/ed6116_234c82fc7dcd48fc8b877508b182293e~mv2.jpg",
        "name": "Morris RV Park",
        "phone": "+1 918 641 4504",
        "tourism": "caravan_site",
        "type": "multipolygon",
        "website": "https://www.morrisrvpark.com/",
        "osm_id": 18295518,
        "sources": [
          "unknown"
        ]
      }
    },
    {
      "type": "Feature",
      "geometry": {
        "type": "Point",
        "coordinates": [
          -96.0103637,
          35.817986
        ]
      },
      "properties": {
        "addr:city": "Beggs",
        "addr:country": "US",
        "addr:housenumber": "2538",
        "addr:postcode": "74421",
        "addr:state": "OK",
        "addr:street": "US 75",
        "fee": "yes",
        "name": "Tulsa RV Ranch",
        "phone": "+1 918 267 9000",
        "power_supply": "yes",
        "tourism": "caravan_site",
        "type": "multipolygon",
        "website": "https://tulsarvranch.com/",
        "osm_id": 18491503,
        "sources": [
          "unknown"
        ]
      }
    },
    {
      "type": "Feature",
      "geometry": {
        "type": "Point",
        "coordinates": [
          -96.5304321,
          28.5576792
        ]
      },
      "properties": {
        "backcountry": "no",
        "caravans": "yes",
        "fee": "no",
        "group_only": "no",
        "internet_access": "no",
        "maxstay": "14 days",
        "name": "Magnolia Beach",
        "power_supply": "no",
        "reservation": "no",
        "sanitary_dump_station": "no",
        "shower": "yes",
        "surface": "sand",
        "tents": "yes",
        "toilets": "yes",
        "tourism": "camp_site",
        "type": "multipolygon",
        "osm_id": 19119924,
        "sources": [
          "unknown"
        ]
      }
    },
    {
      "type": "Feature",
      "geometry": {
        "type": "Point",
        "coordinates": [
          -96.9386261,
          35.73083
        ]
      },
      "properties": {
        "addr:city": "Chandler",
        "addr:postcode": "74834",
        "addr:state": "OK",
        "addr:street": "CR S3405",
        "name": "Bell Cow Lake Campgorund Area B",
        "tourism": "camp_site",
        "type": "multipolygon",
        "osm_id": 19694242,
        "sources": [
          "unknown"
        ]
      }
    }
  ]
}