{
  "type": "FeatureCollection",
  "features": [
    {
      "type": "Feature",
      "geometry": {
        "type": "Point",
        "coordinates": [
          -76.5219375,
          39.0897976
        ]
      },
      "properties": {
        "access": "private",
        "addr:city": "Pasadena",
        "addr:housenumber": "524",
        "addr:postcode": "21122",
        "addr:state": "MD",
        "addr:street": "Lake Shore Drive",
        "boundary": "protected_area",
        "leisure": "nature_reserve",
        "name": "Camp Whippoorwill",
        "operator": "Girl Scouts of Central Maryland",
        "protect_class": "1b",
        "tourism": "camp_site",
        "type": "boundary",
        "website": "https://www.gscm.org/",
        "osm_id": 1328455557,
        "sources": [
          "unknown"
        ]
      }
    },
    {
      "type": "Feature",
      "geometry": {
        "type": "Point",
        "coordinates": [
          -80.5699243,
          38.7966255
        ]
      },
      "properties": {
        "name": "Bulltown Campground",
        "tourism": "camp_site",
        "type": "multipolygon",
        "osm_id": 6463996,
        "sources": [
          "unknown"
        ]
      }
    },
    {
      "type": "Feature",
      "geometry": {
        "type": "Point",
        "coordinates": [
          -79.8504765,
          36.6341519
        ]
      },
      "properties": {
        "name": "Champions Overlook Camping Area",
        "tourism": "camp_site",
        "type": "multipolygon",
        "osm_id": 6502092,
        "sources": [
          "unknown"
        ]
      }
    },
    {
      "type": "Feature",
      "geometry": {
        "type": "Point",
        "coordinates": [
          -76.2036609,
          39.2381035
        ]
      },
      "properties": {
        "addr:city": "Chestertown",
        "addr:housenumber": "22242",
        "addr:state": "MD",
        "addr:street": "Bay Shore Road",
        "name": "Camp Fairlee Manor",
        "operator": "Easterseals Delaware & Maryland's Eastern Shore",
        "tourism": "camp_site",
        "type": "multipolygon",
        "website": "https://www.easterseals.com/de/our-programs/camping-recreation/",
        "osm_id": 6835595,
        "sources": [
          "unknown"
        ]
      }
    },
    {
      "type": "Feature",
      "geometry": {
        "type": "Point",
        "coordinates": [
          -76.2940661,
          38.4682714
        ]
      },
      "properties": {
        "name": "Tideland Park Campgrounds",
        "tourism": "camp_site",
        "type": "multipolygon",
        "osm_id": 6846202,
        "sources": [
          "unknown"
        ]
      }
    },
    {
      "type": "Feature",
      "geometry": {
        "type": "Point",
        "coordinates": [
          -76.3306281,
          38.4744754
        ]
      },
      "properties": {
        "name": "Taylor Island Campground",
        "tourism": "camp_site",
        "type": "multipolygon",
        "osm_id": 6846203,
        "sources": [
          "unknown"
        ]
      }
    },
    {
      "type": "Feature",
      "geometry": {
        "type": "Point",
        "coordinates": [
          -75.9670697,
          38.4506909
        ]
      },
      "properties": {
        "name": "Tudor Farms",
        "operator": "Young Life",
        "tourism": "camp_site",
        "type": "multipolygon",
        "osm_id": 6875247,
        "sources": [
          "unknown"
        ]
      }
    },
    {
      "type": "Feature",
      "geometry": {
        "type": "Point",
        "coordinates": [
          -76.7904681,
          37.2286297
        ]
      },
      "properties": {
        "name": "Jamestown 4-H Camp",
        "tourism": "camp_site",
        "type": "multipolygon",
        "osm_id": 8010556,
        "sources": [
          "unknown"
        ]
      }
    },
    {
      "type": "Feature",
      "geometry": {
        "type": "Point",
        "coordinates": [
          -83.0510461,
          38.9222872
        ]
      },
      "properties": {
        "name": "Bear Creek Campground",
        "tourism": "camp_site",
        "type": "multipolygon",
        "osm_id": 8428282,
        "sources": [
          "unknown"
        ]
      }
    },
    {
      "type": "Feature",
      "geometry": {
        "type": "Point",
        "coordinates": [
          -81.6424009,
          36.5507005
        ]
      },
      "properties": {
        "backcountry": "no",
        "caravans": "yes",
        "group_only": "no",
        "name": "Pond Mountain Hunt Camp",
        "operator": "North Carolina Wildlife Resources Commission",
        "tents": "yes",
        "tourism": "camp_site",
        "type": "multipolygon",
        "wheelchair": "no",
        "osm_id": 9457168,
        "sources": [
          "unknown"
        ]
      }
    },
    {
      "type": "Feature",
      "geometry": {
        "type": "Point",
        "coordinates": [
          -81.1354558,
          37.9183263
        ]
      },
      "properties": {
        "name": "Subcamp D2",
        "rating": null,
        "reviews_count": 0,
        "cost": 0,
        "amenities": [],
        "rig_friendly": [],
        "type": "multipolygon",
        "sources": [
          "unknown"
        ],
        "tourism": "camp_site",
        "osm_id": 9877553
      }
    },
    {
      "type": "Feature",
      "geometry": {
        "type": "Point",
        "coordinates": [
          -81.1380657,
          37.9206696
        ]
      },
      "properties": {
        "alt_name": "Basecamp D",
        "name": "Pigott Base Camp Delta",
        "tourism": "camp_site",
        "type": "multipolygon",
        "osm_id": 9877394,
        "sources": [
          "unknown"
        ]
      }
    },
    {
      "type": "Feature",
      "geometry": {
        "type": "Point",
        "coordinates": [
          -81.12217,
          37.9230681
        ]
      },
      "properties": {
        "name": "Subcamp C4",
        "rating": null,
        "reviews_count": 0,
        "cost": 0,
        "amenities": [],
        "rig_friendly": [],
        "type": "multipolygon",
        "sources": [
          "unknown"
        ],
        "tourism": "camp_site",
        "osm_id": 9877551
      }
    },
    {
      "type": "Feature",
      "geometry": {
        "type": "Point",
        "coordinates": [
          -81.1280617,
          37.9192927
        ]
      },
      "properties": {
        "name": "Subcamp C2",
        "tourism": "camp_site",
        "type": "multipolygon",
        "osm_id": 9877552,
        "sources": [
          "unknown"
        ]
      }
    },
    {
      "type": "Feature",
      "geometry": {
        "type": "Point",
        "coordinates": [
          -81.126604,
          37.9207556
        ]
      },
      "properties": {
        "alt_name": "Base Camp C",
        "name": "Charlie Base Camp",
        "tourism": "camp_site",
        "type": "multipolygon",
        "osm_id": 9877554,
        "sources": [
          "unknown"
        ]
      }
    },
    {
      "type": "Feature",
      "geometry": {
        "type": "Point",
        "coordinates": [
          -81.1314107,
          37.9292344
        ]
      },
      "properties": {
        "alt_name": "Base Camp E",
        "name": "Tickle Base Camp Echo",
        "tourism": "camp_site",
        "type": "multipolygon",
        "osm_id": 9877601,
        "sources": [
          "unknown"
        ]
      }
    },
    {
      "type": "Feature",
      "geometry": {
        "type": "Point",
        "coordinates": [
          -82.633108,
          38.6157109
        ]
      },
      "properties": {
        "addr:state": "OH",
        "fee": "yes",
        "name": "Oak Hill Campground",
        "operator": "USFS",
        "tourism": "camp_site",
        "type": "multipolygon",
        "website": "https://www.fs.usda.gov/r09/wayne/recreation/oak-hill-campground",
        "osm_id": 9921749,
        "sources": [
          "unknown"
        ]
      }
    },
    {
      "type": "Feature",
      "geometry": {
        "type": "Point",
        "coordinates": [
          -76.6862742,
          39.3087878
        ]
      },
      "properties": {
        "group_only": "yes",
        "name": "Gwynns Falls/Leakin Park Camp",
        "operator": "Baltimore City Department of Recreation & Parks",
        "tourism": "camp_site",
        "type": "multipolygon",
        "osm_id": 12364428,
        "sources": [
          "unknown"
        ]
      }
    },
    {
      "type": "Feature",
      "geometry": {
        "type": "Point",
        "coordinates": [
          -76.3464348,
          38.9586744
        ]
      },
      "properties": {
        "leisure": "summer_camp",
        "name": "Camp Wright",
        "operator": "Episcopal Church",
        "reservation": "yes",
        "tourism": "camp_site",
        "type": "multipolygon",
        "osm_id": 12696786,
        "sources": [
          "unknown"
        ]
      }
    },
    {
      "type": "Feature",
      "geometry": {
        "type": "Point",
        "coordinates": [
          -82.5811974,
          39.4371637
        ]
      },
      "properties": {
        "access": "private",
        "addr:city": "South Bloomingville",
        "addr:housenumber": "24799",
        "addr:postcode": "43152",
        "addr:state": "OH",
        "addr:street": "Purcell Road",
        "group_only": "yes",
        "name": "Camp Oty'Okwa",
        "operator": "Big Brothers Big Sisters of Central Ohio",
        "tourism": "camp_site",
        "type": "multipolygon",
        "website": "https://campotyokwa.org",
        "osm_id": 14031328,
        "sources": [
          "unknown"
        ]
      }
    },
    {
      "type": "Feature",
      "geometry": {
        "type": "Point",
        "coordinates": [
          -76.1262883,
          39.3539082
        ]
      },
      "properties": {
        "addr:city": "Worton",
        "addr:housenumber": "24370",
        "addr:postcode": "21678",
        "addr:state": "MD",
        "addr:street": "Still Pond Neck Road",
        "cabins": "yes",
        "caravans": "no",
        "name": "YMCA Camp Tockwogh",
        "operator": "YMCA of Delaware",
        "tourism": "camp_site",
        "type": "multipolygon",
        "osm_id": 14411501,
        "sources": [
          "unknown"
        ]
      }
    },
    {
      "type": "Feature",
      "geometry": {
        "type": "Point",
        "coordinates": [
          -76.2748813,
          37.3423231
        ]
      },
      "properties": {
        "access": "customers",
        "addr:city": "New Point",
        "addr:housenumber": "846",
        "addr:postcode": "23125",
        "addr:state": "VA",
        "addr:street": "Sand Bank Road",
        "caravans": "yes",
        "fee": "yes",
        "landuse": "commercial",
        "leisure": "marina",
        "name": "Sun Retreats New Point",
        "operator": "Sun Outdoors",
        "pets": "yes",
        "seamark:harbour:category": "marina",
        "seamark:type": "harbour",
        "static_caravans": "no",
        "tents": "yes",
        "tourism": "camp_site",
        "type": "multipolygon",
        "website": "https://www.sunoutdoors.com/virginia/sun-retreats-new-point",
        "osm_id": 14462970,
        "sources": [
          "unknown"
        ]
      }
    },
    {
      "type": "Feature",
      "geometry": {
        "type": "Point",
        "coordinates": [
          -79.0853759,
          38.3579013
        ]
      },
      "properties": {
        "capacity:caravans": "145",
        "capacity:tents": "20",
        "caravans": "yes",
        "motor_vehicle": "yes",
        "name": "Natural Chimneys Campground",
        "sanitary_dump_station": "yes",
        "tents": "yes",
        "tourism": "caravan_site",
        "type": "multipolygon",
        "osm_id": 14592188,
        "sources": [
          "unknown"
        ]
      }
    },
    {
      "type": "Feature",
      "geometry": {
        "type": "Point",
        "coordinates": [
          -78.2292652,
          38.9597302
        ]
      },
      "properties": {
        "name": "North Fork Resort Associates",
        "tourism": "caravan_site",
        "type": "multipolygon",
        "osm_id": 14721575,
        "sources": [
          "unknown"
        ]
      }
    },
    {
      "type": "Feature",
      "geometry": {
        "type": "Point",
        "coordinates": [
          -78.5951803,
          38.5781878
        ]
      },
      "properties": {
        "name": "Riverside camping",
        "tourism": "caravan_site",
        "type": "multipolygon",
        "osm_id": 14725954,
        "sources": [
          "unknown"
        ]
      }
    },
    {
      "type": "Feature",
      "geometry": {
        "type": "Point",
        "coordinates": [
          -76.9361205,
          37.4083365
        ]
      },
      "properties": {
        "email": "reservations@rockahock.cm",
        "name": "Rockahock Campground",
        "phone": "+1 804 966 8362",
        "tourism": "caravan_site",
        "type": "multipolygon",
        "website": "https://www.rockahockcampground.com/",
        "osm_id": 14980709,
        "sources": [
          "unknown"
        ]
      }
    },
    {
      "type": "Feature",
      "geometry": {
        "type": "Point",
        "coordinates": [
          -77.3968538,
          38.5542246
        ]
      },
      "properties": {
        "access": "permit",
        "backcountry": "yes",
        "capacity:tents": "8",
        "caravans": "yes",
        "charge": "9 USD/day",
        "dog": "no",
        "drinking_water": "no",
        "ele": "63",
        "fee": "yes",
        "gnis:feature_id": "1940319",
        "group_only": "no",
        "name": "Chopawamsic Backcountry Area",
        "openfire": "no",
        "operator": "National Park Service",
        "power_supply": "no",
        "sanitary_dump_station": "no",
        "static_caravans": "no",
        "tents": "yes",
        "tourism": "camp_site",
        "type": "multipolygon",
        "website": "https://www.nps.gov/prwi/planyourvisit/backcountrycamping.htm",
        "osm_id": 15898080,
        "sources": [
          "unknown"
        ]
      }
    },
    {
      "type": "Feature",
      "geometry": {
        "type": "Point",
        "coordinates": [
          -76.4690534,
          39.4357549
        ]
      },
      "properties": {
        "caravans": "no",
        "drinking_water": "yes",
        "fee": "yes",
        "group_only": "yes",
        "name": "Camp Cone",
        "operator": "Maryland Park Service",
        "operator:wikidata": "Q6781308",
        "reservation": "required",
        "shower": "no",
        "static_caravans": "no",
        "tents": "yes",
        "toilets": "yes",
        "tourism": "camp_site",
        "type": "multipolygon",
        "website": "https://dnr.maryland.gov/publiclands/Pages/central/GunpowderFalls/Youth-Groups.aspx",
        "osm_id": 16320817,
        "sources": [
          "unknown"
        ]
      }
    },
    {
      "type": "Feature",
      "geometry": {
        "type": "Point",
        "coordinates": [
          -77.6215617,
          39.497808
        ]
      },
      "properties": {
        "backcountry": "no",
        "caravans": "no",
        "group_only": "yes",
        "name": "Washington Monument State Park Youth Group Camp",
        "operator": "Maryland Park Service",
        "reservation": "required",
        "tents": "yes",
        "tourism": "camp_site",
        "type": "multipolygon",
        "website": "https://dnr.maryland.gov/publiclands/Pages/western/Washington/Camping.aspx",
        "osm_id": 16323207,
        "sources": [
          "unknown"
        ]
      }
    },
    {
      "type": "Feature",
      "geometry": {
        "type": "Point",
        "coordinates": [
          -77.658772,
          38.3055025
        ]
      },
      "properties": {
        "name": "Glen 4",
        "rating": null,
        "reviews_count": 0,
        "cost": 0,
        "amenities": [],
        "rig_friendly": [],
        "type": "multipolygon",
        "sources": [
          "unknown"
        ],
        "tourism": "camp_site",
        "osm_id": 16411781
      }
    },
    {
      "type": "Feature",
      "geometry": {
        "type": "Point",
        "coordinates": [
          -77.6617701,
          38.3011413
        ]
      },
      "properties": {
        "name": "Glen 6",
        "tourism": "camp_site",
        "type": "multipolygon",
        "osm_id": 16411782,
        "sources": [
          "unknown"
        ]
      }
    },
    {
      "type": "Feature",
      "geometry": {
        "type": "Point",
        "coordinates": [
          -77.2920738,
          39.2586946
        ]
      },
      "properties": {
        "group_only": "yes",
        "name": "Little Bennett Campground Group Camping Area",
        "tourism": "camp_site",
        "type": "multipolygon",
        "website": "https://montgomeryparks.org/parks-and-trails/little-bennett-regional-park/little-bennett-campground/",
        "osm_id": 16660342,
        "sources": [
          "unknown"
        ]
      }
    },
    {
      "type": "Feature",
      "geometry": {
        "type": "Point",
        "coordinates": [
          -76.6466164,
          38.2564219
        ]
      },
      "properties": {
        "access": "private",
        "backcountry": "no",
        "caravans": "no",
        "group_only": "no",
        "name": "Camp Maria Retreat Center",
        "operator": "Sisters of Charity of Nazareth",
        "reservation": "required",
        "tents": "no",
        "tourism": "camp_site",
        "type": "multipolygon",
        "website": "https://campmaria.org/",
        "osm_id": 17419577,
        "sources": [
          "unknown"
        ]
      }
    },
    {
      "type": "Feature",
      "geometry": {
        "type": "Point",
        "coordinates": [
          -76.3335896,
          38.0622681
        ]
      },
      "properties": {
        "backcountry": "no",
        "capacity": "143",
        "caravans": "yes",
        "fee": "yes",
        "group_only": "no",
        "name": "Point Lookout State Park Campground",
        "operator": "Maryland Park Service",
        "reservation": "required",
        "sanitary_dump_station": "customers",
        "tents": "yes",
        "tourism": "camp_site",
        "type": "multipolygon",
        "website": "https://dnr.maryland.gov/publiclands/Pages/southern/PtLookout/Camping-and-Cabins.aspx",
        "osm_id": 17419624,
        "sources": [
          "unknown"
        ]
      }
    },
    {
      "type": "Feature",
      "geometry": {
        "type": "Point",
        "coordinates": [
          -76.8815745,
          38.7843159
        ]
      },
      "properties": {
        "access": "private",
        "addr:city": "Joint Base Andrews",
        "addr:country": "US",
        "addr:housenumber": "4520",
        "addr:postcode": "20762",
        "addr:state": "MD",
        "addr:street": "Wheeling Road",
        "backcountry": "no",
        "cabins": "no",
        "caravans": "yes",
        "dog": "yes",
        "email": "316fss.jba.outdoorrecreation@us.af.mil",
        "fee": "yes",
        "internet_access": "yes",
        "motor_vehicle": "yes",
        "name": "Family Campground",
        "opening_hours": "Mo-Fr 10:00-17:00;Sa,Su,PH off",
        "operator": "316th Force Support Squadron",
        "operator:short": "316 FSS",
        "permanent_camping": "no",
        "phone": "+1 301 981 3279;+1 301 981 4109;+1 301 981 5663",
        "power_supply": "yes",
        "reservation": "required",
        "short_name": "FamCamp",
        "shower": "yes",
        "tents": "yes",
        "toilets": "yes",
        "tourism": "camp_site",
        "type": "multipolygon",
        "washing_machine": "yes",
        "website": "https://www.andrewsfss.com/fam-camp",
        "osm_id": 18140960,
        "sources": [
          "unknown"
        ]
      }
    },
    {
      "type": "Feature",
      "geometry": {
        "type": "Point",
        "coordinates": [
          -75.8462858,
          38.0118337
        ]
      },
      "properties": {
        "caravans": "yes",
        "email": "janesisland.statepark@maryland.gov",
        "name": "Janes Island State Park Campground",
        "operator": "Maryland Department of Natural Resources",
        "phone": "+1 410 968 1565",
        "reservation": "required",
        "tents": "yes",
        "tourism": "camp_site",
        "type": "multipolygon",
        "website": "https://dnr.maryland.gov/publiclands/Pages/eastern/janesisland.aspx",
        "osm_id": 19091187,
        "sources": [
          "unknown"
        ]
      }
    },
    {
      "type": "Feature",
      "geometry": {
        "type": "Point",
        "coordinates": [
          -79.4902307,
          39.1162102
        ]
      },
      "properties": {
        "capacity:caravans": "65",
        "capacity:tents": "65",
        "caravans": "yes",
        "drinking_water": "yes",
        "name": "Blackwater Falls State Park Campground",
        "nudism": "no",
        "power_supply": "yes",
        "tents": "yes",
        "tourism": "camp_site",
        "type": "multipolygon",
        "website": "https://wvstateparks.com/places-to-stay/campgrounds/blackwater-falls-camping/",
        "osm_id": 19157619,
        "sources": [
          "unknown"
        ]
      }
    },
    {
      "type": "Feature",
      "geometry": {
        "type": "Point",
        "coordinates": [
          -83.3230752,
          39.0887496
        ]
      },
      "properties": {
        "addr:city": "Latham",
        "addr:housenumber": "50",
        "addr:postcode": "45646",
        "addr:state": "OH",
        "addr:street": "Bell Hollow Road",
        "caravans": "yes",
        "contact:facebook": "https://www.facebook.com/longsretreat",
        "email": "info@longsretreat.com",
        "fee": "no",
        "internet_access": "no",
        "leisure": "resort",
        "name": "Long's Retreat",
        "official_name": "Long's Retreat Family Resort",
        "phone": "+1 937-588-3725",
        "sanitary_dump_station": "yes",
        "tourism": "camp_site",
        "type": "multipolygon",
        "website": "https://www.longsretreat.com/",
        "osm_id": 19233081,
        "sources": [
          "unknown"
        ]
      }
    },
    {
      "type": "Feature",
      "geometry": {
        "type": "Point",
        "coordinates": [
          -83.3948005,
          38.0484503
        ]
      },
      "properties": {
        "name": "Paragon Dispersed Camping Area FREE",
        "tourism": "camp_site",
        "type": "multipolygon",
        "osm_id": 19520963,
        "sources": [
          "unknown"
        ]
      }
    },
    {
      "type": "Feature",
      "geometry": {
        "type": "Point",
        "coordinates": [
          -83.1047074,
          38.6835903
        ]
      },
      "properties": {
        "access": "yes",
        "addr:city": "Stout",
        "addr:housenumber": "11152",
        "addr:postcode": "45684",
        "addr:state": "OH",
        "addr:street": "US 52",
        "camp_site": "serviced",
        "caravans": "yes",
        "fee": "yes",
        "name": "Shawnee State Park Ohio River Campground",
        "operator": "ODNR",
        "phone": "+1 740 858-6681 x3",
        "tents": "yes",
        "tourism": "camp_site",
        "type": "multipolygon",
        "website": "https://ohiodnr.gov/go-and-do/plan-a-visit/find-a-property/shawnee-state-park-campground",
        "osm_id": 19613670,
        "sources": [
          "unknown"
        ]
      }
    },
    {
      "type": "Feature",
      "geometry": {
        "type": "Point",
        "coordinates": [
          -83.3749327,
          38.9222247
        ]
      },
      "properties": {
        "addr:city": "Peebles",
        "addr:housenumber": "160",
        "addr:postcode": "45660",
        "addr:state": "OH",
        "addr:street": "Blue Gill Road",
        "camp_site": "deluxe",
        "caravans": "yes",
        "contact:facebook": "https://www.facebook.com/MineralSpringsLake",
        "fee": "yes",
        "name": "Mineral Springs Lake Resort",
        "static_caravans": "yes",
        "tents": "no",
        "tourism": "camp_site",
        "type": "multipolygon",
        "website": "https://www.mineralspringslakeresort.com/",
        "osm_id": 19722691,
        "sources": [
          "unknown"
        ]
      }
    },
    {
      "type": "Feature",
      "geometry": {
        "type": "Point",
        "coordinates": [
          -76.1550966,
          38.8914954
        ]
      },
      "properties": {
        "backcountry": "yes",
        "capacity:persons": "40",
        "caravans": "no",
        "drinking_water": "no",
        "group_only": "yes",
        "internet_access": "no",
        "name": "Dividing Creek Youth Group Campsite",
        "nudism": "no",
        "opening_hours": "Apr-Oct",
        "operator": "Maryland Department of Natural Resources",
        "reservation": "required",
        "sanitary_dump_station": "no",
        "shower": "no",
        "tents": "yes",
        "toilets": "yes",
        "tourism": "camp_site",
        "type": "multipolygon",
        "website": "https://dnr.maryland.gov/publiclands/Pages/eastern/WyeIsland/Camping.aspx",
        "osm_id": 19729009,
        "sources": [
          "unknown"
        ]
      }
    },
    {
      "type": "Feature",
      "geometry": {
        "type": "Point",
        "coordinates": [
          -76.1510119,
          38.8983877
        ]
      },
      "properties": {
        "backcountry": "yes",
        "capacity:persons": "40",
        "caravans": "no",
        "drinking_water": "no",
        "group_only": "yes",
        "internet_access": "no",
        "name": "Solo Cove Youth Group Campsite",
        "nudism": "no",
        "opening_hours": "Apr-Oct",
        "operator": "Maryland Department of Natural Resources",
        "power_supply": "no",
        "reservation": "required",
        "sanitary_dump_station": "no",
        "shower": "no",
        "tents": "yes",
        "toilets": "yes",
        "toilets:wheelchair": "no",
        "tourism": "camp_site",
        "type": "multipolygon",
        "website": "https://dnr.maryland.gov/publiclands/Pages/eastern/WyeIsland/Camping.aspx",
        "wheelchair": "limited",
        "osm_id": 19729010,
        "sources": [
          "unknown"
        ]
      }
    },
    {
      "type": "Feature",
      "geometry": {
        "type": "Point",
        "coordinates": [
          -76.5132598,
          38.6188709
        ]
      },
      "properties": {
        "access": "yes",
        "addr:city": "Chesapeake Beach",
        "addr:country": "US",
        "addr:housenumber": "5300",
        "addr:postcode": "20732",
        "addr:state": "MD",
        "addr:street": "Breezy Point Road",
        "caravans": "yes",
        "check_date": "2023-05-10",
        "drinking_water": "yes",
        "fee": "yes",
        "group_only": "no",
        "internet_access": "no",
        "name": "Breezy Point Beach and Campground",
        "opening_hours": "May,Sep-Oct Mo,Th,Fr 09:00-18:00; May,Sep-Oct Sa,Su,PH 08:00-18:30; Jun-Aug Mo,Th,Fr 09:00-19:00; Jun-Aug Sa,Su,PH 09:00-19:30; Nov-Apr closed",
        "operator": "Calvert County",
        "payment:mastercard": "yes",
        "payment:visa": "yes",
        "phone": "+1 410 535 0259",
        "reservation": "required",
        "tents": "yes",
        "toilets": "yes",
        "tourism": "camp_site",
        "type": "multipolygon",
        "website": "https://www.calvertcountymd.gov/3039/Breezy-Point-Beach-Campground",
        "osm_id": 20085573,
        "sources": [
          "unknown"
        ]
      }
    }
  ]
}