{
  "type": "FeatureCollection",
  "features": [
    {
      "type": "Feature",
      "geometry": {
        "type": "Point",
        "coordinates": [
          -89.1389531,
          45.8763916
        ]
      },
      "properties": {
        "addr:city": "Three Lakes",
        "addr:housenumber": "8660",
        "addr:postcode": "54562",
        "addr:state": "WI",
        "addr:street": "Honey Rock Road",
        "alt_name": "Outdoor Center for Leadership Development of Wheaton College",
        "name": "HoneyRock",
        "operator": "Wheaton College",
        "owner": "Wheaton College",
        "tourism": "camp_site",
        "type": "multipolygon",
        "website": "https://www.wheaton.edu/honeyrock/",
        "osm_id": 1213811145,
        "sources": [
          "unknown"
        ]
      }
    },
    {
      "type": "Feature",
      "geometry": {
        "type": "Point",
        "coordinates": [
          -89.4226222,
          45.6785685
        ]
      },
      "properties": {
        "addr:city": "Rhinelander",
        "addr:housenumber": "4270",
        "addr:postcode": "54501",
        "addr:state": "WI",
        "addr:street": "River Road",
        "name": "Hodag Country Festival",
        "tourism": "camp_site",
        "type": "multipolygon",
        "website": "https://www.hodag.com/",
        "osm_id": 1214747017,
        "sources": [
          "unknown"
        ]
      }
    },
    {
      "type": "Feature",
      "geometry": {
        "type": "Point",
        "coordinates": [
          -92.6416459,
          45.9237698
        ]
      },
      "properties": {
        "backcountry": "no",
        "cabins": "no",
        "camp_site": "standard",
        "capacity:tents": "4",
        "caravans": "no",
        "drinking_water": "no",
        "group_only": "no",
        "internet_access": "no",
        "name": "Norway Point Landing Campsites",
        "nudism": "no",
        "openfire": "yes",
        "operator": "National Park Service",
        "operator:wikidata": "Q308439",
        "phone": "+1 715 483 2274",
        "power_supply": "no",
        "ref": "S104.0",
        "reservation": "no",
        "sanitary_dump_station": "no",
        "shower": "no",
        "tents": "yes",
        "toilets": "yes",
        "tourism": "camp_site",
        "type": "site",
        "website": "https://www.nps.gov/sacn/planyourvisit/middlestcroix.htm",
        "osm_id": 1396718240,
        "sources": [
          "unknown"
        ]
      }
    },
    {
      "type": "Feature",
      "geometry": {
        "type": "Point",
        "coordinates": [
          -88.0087225,
          43.025543
        ]
      },
      "properties": {
        "name": "Wisconsin State Fair Park RV Park",
        "parking": "surface",
        "tourism": "caravan_site",
        "type": "multipolygon",
        "osm_id": 2449826,
        "sources": [
          "unknown"
        ]
      }
    },
    {
      "type": "Feature",
      "geometry": {
        "type": "Point",
        "coordinates": [
          -92.640836,
          45.126462
        ]
      },
      "properties": {
        "name": "River's Edge Apple River Tubing & Camping",
        "tourism": "camp_site",
        "type": "multipolygon",
        "osm_id": 7595231,
        "sources": [
          "unknown"
        ]
      }
    },
    {
      "type": "Feature",
      "geometry": {
        "type": "Point",
        "coordinates": [
          -87.4119936,
          46.5689874
        ]
      },
      "properties": {
        "ele": "198",
        "fee": "yes",
        "gnis:feature_id": "2336343",
        "is_in:city": "Marquette",
        "is_in:state": "MI",
        "layer": "-1",
        "location": "surface",
        "name": "Tourist Park Campground",
        "tourism": "camp_site",
        "type": "multipolygon",
        "website": "https://www.marquettemi.gov/departments/community-services/parks-and-recreation/tourist-park/",
        "osm_id": 8265714,
        "sources": [
          "unknown"
        ]
      }
    },
    {
      "type": "Feature",
      "geometry": {
        "type": "Point",
        "coordinates": [
          -89.1770908,
          43.4688177
        ]
      },
      "properties": {
        "addr:city": "Rio",
        "addr:housenumber": "N5048",
        "addr:postcode": "53960",
        "addr:state": "WI",
        "addr:street": "Ludwig Road",
        "name": "Silver Springs Campsites",
        "tourism": "camp_site",
        "type": "multipolygon",
        "website": "https://silverspringscamp.com/",
        "osm_id": 8341987,
        "sources": [
          "unknown"
        ]
      }
    },
    {
      "type": "Feature",
      "geometry": {
        "type": "Point",
        "coordinates": [
          -89.5797989,
          44.9264276
        ]
      },
      "properties": {
        "addr:city": "Weston",
        "addr:housenumber": "3607",
        "addr:postcode": "54476",
        "addr:state": "WI",
        "addr:street": "Northwestern Avenue",
        "name": "Camp Del O'Claire",
        "operator": "Girl Scouts of the Northwestern Lakes",
        "tourism": "camp_site",
        "type": "multipolygon",
        "osm_id": 8731124,
        "sources": [
          "unknown"
        ]
      }
    },
    {
      "type": "Feature",
      "geometry": {
        "type": "Point",
        "coordinates": [
          -89.5842881,
          44.9260418
        ]
      },
      "properties": {
        "name": "Camp Sturtevant",
        "operator": "Woodson YMCA",
        "tourism": "camp_site",
        "type": "multipolygon",
        "osm_id": 8731125,
        "sources": [
          "unknown"
        ]
      }
    },
    {
      "type": "Feature",
      "geometry": {
        "type": "Point",
        "coordinates": [
          -89.566529,
          44.9254586
        ]
      },
      "properties": {
        "addr:city": "Weston",
        "addr:housenumber": "3511",
        "addr:postcode": "54476",
        "addr:state": "WI",
        "addr:street": "Camp Phillips Road",
        "name": "Phillips Scout Camp",
        "operator": "Boy Scouts of America Samoset Council",
        "tourism": "camp_site",
        "type": "multipolygon",
        "osm_id": 8731194,
        "sources": [
          "unknown"
        ]
      }
    },
    {
      "type": "Feature",
      "geometry": {
        "type": "Point",
        "coordinates": [
          -91.3656389,
          44.9988561
        ]
      },
      "properties": {
        "addr:city": "Chippewa Falls",
        "addr:housenumber": "14912",
        "addr:postcode": "54729",
        "addr:state": "WI",
        "addr:street": "105th Avenue",
        "name": "O'Neil Creek Campground",
        "tourism": "camp_site",
        "type": "multipolygon",
        "osm_id": 8753799,
        "sources": [
          "unknown"
        ]
      }
    },
    {
      "type": "Feature",
      "geometry": {
        "type": "Point",
        "coordinates": [
          -88.5052793,
          44.8261662
        ]
      },
      "properties": {
        "addr:city": "Shawano",
        "addr:housenumber": "W5248",
        "addr:postcode": "54166",
        "addr:state": "WI",
        "addr:street": "North Lake Drive",
        "name": "Camp Tekakwitha",
        "tourism": "camp_site",
        "type": "multipolygon",
        "website": "https://www.camptekakwitha.org/",
        "osm_id": 9038210,
        "sources": [
          "unknown"
        ]
      }
    },
    {
      "type": "Feature",
      "geometry": {
        "type": "Point",
        "coordinates": [
          -87.9715874,
          43.8097098
        ]
      },
      "properties": {
        "addr:city": "Plymouth",
        "addr:housenumber": "W5639",
        "addr:postcode": "53073",
        "addr:state": "WI",
        "addr:street": "Anokijig Lane",
        "name": "Camp Anokijig",
        "tourism": "camp_site",
        "type": "multipolygon",
        "osm_id": 9084171,
        "sources": [
          "unknown"
        ]
      }
    },
    {
      "type": "Feature",
      "geometry": {
        "type": "Point",
        "coordinates": [
          -89.5089152,
          45.6520454
        ]
      },
      "properties": {
        "addr:city": "Rhinelander",
        "addr:housenumber": "6648",
        "addr:postcode": "54501",
        "addr:state": "WI",
        "addr:street": "County Highway K",
        "name": "Camp Birchrock",
        "tourism": "camp_site",
        "type": "multipolygon",
        "website": "http://campfireoneida.org/",
        "osm_id": 9470200,
        "sources": [
          "unknown"
        ]
      }
    },
    {
      "type": "Feature",
      "geometry": {
        "type": "Point",
        "coordinates": [
          -92.2298993,
          46.0087261
        ]
      },
      "properties": {
        "addr:city": "Danbury",
        "addr:housenumber": "30376",
        "addr:postcode": "54830",
        "addr:state": "WI",
        "addr:street": "Lakes Drive",
        "name": "Luther Park Camping and Retreat Center",
        "tourism": "camp_site",
        "type": "multipolygon",
        "osm_id": 9512182,
        "sources": [
          "unknown"
        ]
      }
    },
    {
      "type": "Feature",
      "geometry": {
        "type": "Point",
        "coordinates": [
          -91.6631614,
          45.3465522
        ]
      },
      "properties": {
        "addr:city": "Chetek",
        "addr:housenumber": "944",
        "addr:postcode": "54728",
        "addr:state": "WI",
        "addr:street": "24 1/4 Street",
        "name": "Luther Park Bible Camp",
        "religion": "christian",
        "tourism": "camp_site",
        "type": "multipolygon",
        "osm_id": 9512233,
        "sources": [
          "unknown"
        ]
      }
    },
    {
      "type": "Feature",
      "geometry": {
        "type": "Point",
        "coordinates": [
          -92.3587266,
          45.9086889
        ]
      },
      "properties": {
        "name": "Herzl Camp",
        "tourism": "camp_site",
        "type": "multipolygon",
        "osm_id": 9517498,
        "sources": [
          "unknown"
        ]
      }
    },
    {
      "type": "Feature",
      "geometry": {
        "type": "Point",
        "coordinates": [
          -89.3514805,
          44.7755846
        ]
      },
      "properties": {
        "name": "Crossways Lutheran Camping Ministries",
        "tourism": "camp_site",
        "type": "multipolygon",
        "osm_id": 9627634,
        "sources": [
          "unknown"
        ]
      }
    },
    {
      "type": "Feature",
      "geometry": {
        "type": "Point",
        "coordinates": [
          -89.8017028,
          43.6811407
        ]
      },
      "properties": {
        "fee": "yes",
        "name": "Holiday Shores Campground & Resort",
        "tourism": "camp_site",
        "type": "multipolygon",
        "osm_id": 9762568,
        "sources": [
          "unknown"
        ]
      }
    },
    {
      "type": "Feature",
      "geometry": {
        "type": "Point",
        "coordinates": [
          -92.5331057,
          44.5722492
        ]
      },
      "properties": {
        "name": "Island Camping",
        "tourism": "camp_site",
        "type": "multipolygon",
        "osm_id": 9947699,
        "sources": [
          "unknown"
        ]
      }
    },
    {
      "type": "Feature",
      "geometry": {
        "type": "Point",
        "coordinates": [
          -91.2840992,
          44.9577162
        ]
      },
      "properties": {
        "addr:city": "Chippewa Falls",
        "addr:housenumber": "19161",
        "addr:postcode": "54729",
        "addr:state": "WI",
        "addr:street": "79th Avenue",
        "name": "Wisconsin Farmers Union Kamp Kenwood",
        "operator": "Wisconsin Farmers Union",
        "tourism": "camp_site",
        "type": "multipolygon",
        "website": "http://kampkenwood.com/",
        "osm_id": 10104207,
        "sources": [
          "unknown"
        ]
      }
    },
    {
      "type": "Feature",
      "geometry": {
        "type": "Point",
        "coordinates": [
          -88.3965068,
          45.1804737
        ]
      },
      "properties": {
        "name": "Bear Paw Scout Camp",
        "tourism": "camp_site",
        "type": "multipolygon",
        "osm_id": 10111220,
        "sources": [
          "unknown"
        ]
      }
    },
    {
      "type": "Feature",
      "geometry": {
        "type": "Point",
        "coordinates": [
          -91.1922022,
          45.9379526
        ]
      },
      "properties": {
        "access": "customers",
        "email": "info@lakechip.com",
        "fee": "yes",
        "name": "Lake Chippewa Campground",
        "tourism": "camp_site",
        "type": "multipolygon",
        "website": "https://www.lakechip.com",
        "osm_id": 10117538,
        "sources": [
          "unknown"
        ]
      }
    },
    {
      "type": "Feature",
      "geometry": {
        "type": "Point",
        "coordinates": [
          -91.9995018,
          46.0166562
        ]
      },
      "properties": {
        "addr:city": "Trego",
        "addr:housenumber": "N10884",
        "addr:state": "WI",
        "addr:street": "Hoinville Road",
        "name": "Heartwood Conference Center and Retreat",
        "tourism": "camp_site",
        "type": "multipolygon",
        "osm_id": 10142909,
        "sources": [
          "unknown"
        ]
      }
    },
    {
      "type": "Feature",
      "geometry": {
        "type": "Point",
        "coordinates": [
          -90.2189061,
          45.3596995
        ]
      },
      "properties": {
        "addr:city": "Westboro",
        "addr:housenumber": "N8890",
        "addr:postcode": "54490",
        "addr:state": "WI",
        "addr:street": "Forest Lane",
        "name": "Forest Springs Camp & Conference Center",
        "tourism": "camp_site",
        "type": "multipolygon",
        "website": "https://forestsprings.us",
        "osm_id": 10153085,
        "sources": [
          "unknown"
        ]
      }
    },
    {
      "type": "Feature",
      "geometry": {
        "type": "Point",
        "coordinates": [
          -91.8861069,
          45.9361866
        ]
      },
      "properties": {
        "addr:city": "Trego",
        "addr:housenumber": "N8347",
        "addr:postcode": "54888",
        "addr:state": "WI",
        "addr:street": "Bay Park Road",
        "email": "baypark@bayparkresort.com",
        "fee": "yes",
        "name": "Bay Park Resort & Campground",
        "phone": "+1-715-635-2840",
        "tourism": "camp_site",
        "type": "multipolygon",
        "website": "https://www.bayparkresort.com/",
        "osm_id": 10162375,
        "sources": [
          "unknown"
        ]
      }
    },
    {
      "type": "Feature",
      "geometry": {
        "type": "Point",
        "coordinates": [
          -92.7469485,
          45.2395506
        ]
      },
      "properties": {
        "name": "Beaver Valley Camp",
        "tourism": "camp_site",
        "type": "multipolygon",
        "website": "https://beavervalleycamp.org/",
        "osm_id": 10323430,
        "sources": [
          "unknown"
        ]
      }
    },
    {
      "type": "Feature",
      "geometry": {
        "type": "Point",
        "coordinates": [
          -88.8989078,
          45.1215027
        ]
      },
      "properties": {
        "addr:city": "Elton",
        "addr:housenumber": "N2674",
        "addr:postcode": "54430",
        "addr:state": "WI",
        "addr:street": "Blackhawk Road",
        "name": "Camp Black Hawk",
        "operator": "Girl Scouts of Wisconsin - Badgerland Council",
        "tourism": "camp_site",
        "type": "multipolygon",
        "osm_id": 10409841,
        "sources": [
          "unknown"
        ]
      }
    },
    {
      "type": "Feature",
      "geometry": {
        "type": "Point",
        "coordinates": [
          -89.1784796,
          44.2956358
        ]
      },
      "properties": {
        "addr:city": "Waupaca",
        "addr:housenumber": "E989",
        "addr:postcode": "54981",
        "addr:state": "WI",
        "addr:street": "Stratton Lake Road",
        "name": "Camp Young Judea Midwest",
        "religion": "jewish",
        "tourism": "camp_site",
        "type": "multipolygon",
        "website": "https://www.cyjmid.org/",
        "osm_id": 10441721,
        "sources": [
          "unknown"
        ]
      }
    },
    {
      "type": "Feature",
      "geometry": {
        "type": "Point",
        "coordinates": [
          -89.3148018,
          44.4886669
        ]
      },
      "properties": {
        "addr:city": "Nelsonville",
        "addr:housenumber": "9289",
        "addr:postcode": "54458",
        "addr:state": "WI",
        "addr:street": "Pavlevski Road",
        "name": "YMCA Camp Glacier Hollow",
        "tourism": "camp_site",
        "type": "multipolygon",
        "website": "https://www.glacierhollow.com/",
        "osm_id": 10442051,
        "sources": [
          "unknown"
        ]
      }
    },
    {
      "type": "Feature",
      "geometry": {
        "type": "Point",
        "coordinates": [
          -90.6479357,
          45.8128829
        ]
      },
      "properties": {
        "name": "Boyd's Mason Lake Resort",
        "tourism": "camp_site",
        "type": "multipolygon",
        "osm_id": 10478351,
        "sources": [
          "unknown"
        ]
      }
    },
    {
      "type": "Feature",
      "geometry": {
        "type": "Point",
        "coordinates": [
          -88.5523347,
          42.7946107
        ]
      },
      "properties": {
        "addr:city": "East Troy",
        "addr:housenumber": "W5091",
        "addr:postcode": "53120",
        "addr:state": "WI",
        "addr:street": "State Highway 20",
        "name": "Camp Juniper Knoll",
        "operator": "Girl Scouts of Greater Chicago and Northwest Indiana",
        "tourism": "camp_site",
        "type": "multipolygon",
        "osm_id": 10481013,
        "sources": [
          "unknown"
        ]
      }
    },
    {
      "type": "Feature",
      "geometry": {
        "type": "Point",
        "coordinates": [
          -88.5576502,
          42.7777086
        ]
      },
      "properties": {
        "access": "customers",
        "caravans": "no",
        "contact:facebook": "https://www.facebook.com/Lutherdale1944/",
        "contact:website": "https://www.lutherdale.org/",
        "contact:youtube": "https://www.youtube.com/user/lutherdale1944",
        "denomination": "lutheran",
        "fee": "yes",
        "name": "Lutherdale Ministries",
        "phone": "+1-262-742-2352",
        "religion": "christian",
        "static_caravans": "no",
        "tents": "no",
        "tourism": "camp_site",
        "type": "multipolygon",
        "osm_id": 10481015,
        "sources": [
          "unknown"
        ]
      }
    },
    {
      "type": "Feature",
      "geometry": {
        "type": "Point",
        "coordinates": [
          -88.5437251,
          42.7821228
        ]
      },
      "properties": {
        "addr:city": "East Troy",
        "addr:housenumber": "N8005",
        "addr:postcode": "53120",
        "addr:state": "WI",
        "addr:street": "Pleasant Lake Road",
        "name": "Camp Pottawatomie Hills",
        "operator": "Girl Scouts of Wisconsin Southeast",
        "tourism": "camp_site",
        "type": "multipolygon",
        "osm_id": 10481016,
        "sources": [
          "unknown"
        ]
      }
    },
    {
      "type": "Feature",
      "geometry": {
        "type": "Point",
        "coordinates": [
          -88.6416373,
          42.587925
        ]
      },
      "properties": {
        "addr:city": "Delavan",
        "addr:housenumber": "3300",
        "addr:postcode": "53115",
        "addr:state": "WI",
        "addr:street": "Bay Road",
        "name": "House in the Wood",
        "operator": "Northwestern Settlement",
        "tourism": "camp_site",
        "type": "multipolygon",
        "osm_id": 10484035,
        "sources": [
          "unknown"
        ]
      }
    },
    {
      "type": "Feature",
      "geometry": {
        "type": "Point",
        "coordinates": [
          -88.4244677,
          42.8058915
        ]
      },
      "properties": {
        "addr:city": "East Troy",
        "addr:housenumber": "N8651",
        "addr:state": "WI",
        "addr:street": "Townline Road",
        "name": "Camp Alice Chester",
        "tourism": "camp_site",
        "type": "multipolygon",
        "osm_id": 10484437,
        "sources": [
          "unknown"
        ]
      }
    },
    {
      "type": "Feature",
      "geometry": {
        "type": "Point",
        "coordinates": [
          -88.3782001,
          42.8167928
        ]
      },
      "properties": {
        "addr:city": "East Troy",
        "addr:housenumber": "N8901",
        "addr:postcode": "53120",
        "addr:state": "WI",
        "addr:street": "Army Lake Road",
        "alt_name": "Camp Edwards",
        "name": "Edwards YMCA Camp and Retreat Center",
        "tourism": "camp_site",
        "type": "multipolygon",
        "osm_id": 10484529,
        "sources": [
          "unknown"
        ]
      }
    },
    {
      "type": "Feature",
      "geometry": {
        "type": "Point",
        "coordinates": [
          -88.400401,
          42.8157679
        ]
      },
      "properties": {
        "name": "Camp Charles Allis",
        "tourism": "camp_site",
        "type": "multipolygon",
        "osm_id": 10484558,
        "sources": [
          "unknown"
        ]
      }
    },
    {
      "type": "Feature",
      "geometry": {
        "type": "Point",
        "coordinates": [
          -88.5052774,
          43.0734489
        ]
      },
      "properties": {
        "name": "Indian Mound Scout Reservation",
        "operator": "Three Harbors Council, Boy Scouts of America",
        "tourism": "camp_site",
        "type": "multipolygon",
        "osm_id": 10541852,
        "sources": [
          "unknown"
        ]
      }
    },
    {
      "type": "Feature",
      "geometry": {
        "type": "Point",
        "coordinates": [
          -88.5425462,
          43.1408091
        ]
      },
      "properties": {
        "access": "private",
        "addr:city": "Lac La Belle",
        "addr:housenumber": "600",
        "addr:postcode": "53066",
        "addr:state": "WI",
        "addr:street": "Lac La Belle Drive",
        "leisure": "summer_camp",
        "name": "URJ Olin-Sang-Ruby Union Institute",
        "tourism": "camp_site",
        "type": "multipolygon",
        "website": "https://osrui.org/",
        "wikidata": "Q65120840",
        "wikipedia": "en:Olin Sang Ruby Union Institute",
        "osm_id": 10542071,
        "sources": [
          "unknown"
        ]
      }
    },
    {
      "type": "Feature",
      "geometry": {
        "type": "Point",
        "coordinates": [
          -88.323843,
          43.1758019
        ]
      },
      "properties": {
        "addr:city": "Hartland",
        "addr:housenumber": "W294 N8436",
        "addr:state": "WI",
        "addr:street": "Camp Whitcomb Road",
        "name": "Camp Whitcomb/Mason",
        "operator": "Boys & Girls Clubs of Greater Milwaukee",
        "tourism": "camp_site",
        "type": "multipolygon",
        "osm_id": 10552523,
        "sources": [
          "unknown"
        ]
      }
    },
    {
      "type": "Feature",
      "geometry": {
        "type": "Point",
        "coordinates": [
          -89.2083125,
          44.0514889
        ]
      },
      "properties": {
        "addr:city": "Wautoma",
        "addr:housenumber": "N1875",
        "addr:state": "WI",
        "addr:street": "21st Avenue",
        "name": "Camp Lakotah",
        "tourism": "camp_site",
        "type": "multipolygon",
        "website": "https://www.camplakotah.com/",
        "osm_id": 10563534,
        "sources": [
          "unknown"
        ]
      }
    },
    {
      "type": "Feature",
      "geometry": {
        "type": "Point",
        "coordinates": [
          -89.5201326,
          45.5928289
        ]
      },
      "properties": {
        "addr:city": "Rhinelander",
        "addr:housenumber": "2750",
        "addr:postcode": "54501",
        "addr:state": "WI",
        "addr:street": "Bible Camp Road",
        "name": "Crescent Lake Bible Camp",
        "religion": "christian",
        "tourism": "camp_site",
        "type": "multipolygon",
        "website": "http://crescentlake.camp/",
        "osm_id": 10571810,
        "sources": [
          "unknown"
        ]
      }
    },
    {
      "type": "Feature",
      "geometry": {
        "type": "Point",
        "coordinates": [
          -88.9213802,
          43.0671773
        ]
      },
      "properties": {
        "name": "Woodland Beach Resort",
        "tourism": "camp_site",
        "type": "multipolygon",
        "osm_id": 10660075,
        "sources": [
          "unknown"
        ]
      }
    },
    {
      "type": "Feature",
      "geometry": {
        "type": "Point",
        "coordinates": [
          -88.9225104,
          43.0629027
        ]
      },
      "properties": {
        "name": "Topel's Lakeside Park",
        "tourism": "camp_site",
        "type": "multipolygon",
        "osm_id": 10660131,
        "sources": [
          "unknown"
        ]
      }
    },
    {
      "type": "Feature",
      "geometry": {
        "type": "Point",
        "coordinates": [
          -89.8485754,
          43.7456181
        ]
      },
      "properties": {
        "addr:city": "Lyndon Station",
        "addr:housenumber": "N2884",
        "addr:postcode": "53944",
        "addr:state": "WI",
        "addr:street": "North 28th Avenue",
        "name": "Crockett's Resort",
        "operator": "Ho Chunk Nation",
        "tourism": "camp_site",
        "type": "multipolygon",
        "osm_id": 10664784,
        "sources": [
          "unknown"
        ]
      }
    },
    {
      "type": "Feature",
      "geometry": {
        "type": "Point",
        "coordinates": [
          -88.9895653,
          42.9971387
        ]
      },
      "properties": {
        "addr:city": "Cambridge",
        "addr:housenumber": "N4189",
        "addr:state": "WI",
        "addr:street": "Island Lane",
        "name": "Hoard and Curtis Scout Camp",
        "tourism": "camp_site",
        "type": "multipolygon",
        "osm_id": 10736980,
        "sources": [
          "unknown"
        ]
      }
    },
    {
      "type": "Feature",
      "geometry": {
        "type": "Point",
        "coordinates": [
          -89.8236412,
          44.3381033
        ]
      },
      "properties": {
        "addr:city": "Wisconsin Rapids",
        "addr:housenumber": "1053",
        "addr:postcode": "54494",
        "addr:state": "WI",
        "addr:street": "Camp Road",
        "name": "YMCA Camp Alexander",
        "operator": "South Wood County YMCA",
        "tourism": "camp_site",
        "type": "multipolygon",
        "osm_id": 10831070,
        "sources": [
          "unknown"
        ]
      }
    },
    {
      "type": "Feature",
      "geometry": {
        "type": "Point",
        "coordinates": [
          -89.3366341,
          43.8145961
        ]
      },
      "properties": {
        "addr:city": "Montello",
        "addr:housenumber": "N4855",
        "addr:postcode": "53949",
        "addr:state": "WI",
        "addr:street": "County Road Y",
        "denomination": "free_methodist",
        "name": "Sky Lodge Christian Camp",
        "phone": "+1-608-297-2566",
        "religion": "christian",
        "tourism": "camp_site",
        "type": "multipolygon",
        "website": "https://www.skylodge.org/",
        "osm_id": 10856293,
        "sources": [
          "unknown"
        ]
      }
    },
    {
      "type": "Feature",
      "geometry": {
        "type": "Point",
        "coordinates": [
          -89.3789555,
          44.0865556
        ]
      },
      "properties": {
        "name": "Camp Phillip",
        "tourism": "camp_site",
        "type": "multipolygon",
        "osm_id": 10865766,
        "sources": [
          "unknown"
        ]
      }
    },
    {
      "type": "Feature",
      "geometry": {
        "type": "Point",
        "coordinates": [
          -89.1671657,
          45.8221648
        ]
      },
      "properties": {
        "name": "Camp Luther",
        "tourism": "camp_site",
        "type": "multipolygon",
        "osm_id": 10899783,
        "sources": [
          "unknown"
        ]
      }
    },
    {
      "type": "Feature",
      "geometry": {
        "type": "Point",
        "coordinates": [
          -91.1441481,
          45.2513516
        ]
      },
      "properties": {
        "access": "private",
        "addr:city": "Holcombe",
        "addr:housenumber": "27886",
        "addr:postcode": "54745",
        "addr:state": "WI",
        "addr:street": "295th Avenue",
        "fee": "yes",
        "name": "White Birch Campground",
        "operator": "Xcel Energy",
        "tourism": "camp_site",
        "type": "multipolygon",
        "osm_id": 10952523,
        "sources": [
          "unknown"
        ]
      }
    },
    {
      "type": "Feature",
      "geometry": {
        "type": "Point",
        "coordinates": [
          -91.6785778,
          46.4816118
        ]
      },
      "properties": {
        "name": "YMCA Camp at Lake Nebagamon",
        "operator": "Superior Douglas County Family YMCA",
        "tourism": "camp_site",
        "type": "multipolygon",
        "osm_id": 10989983,
        "sources": [
          "unknown"
        ]
      }
    },
    {
      "type": "Feature",
      "geometry": {
        "type": "Point",
        "coordinates": [
          -91.710617,
          46.5123296
        ]
      },
      "properties": {
        "addr:city": "Lake Nebagamon",
        "addr:housenumber": "11454",
        "addr:postcode": "54849",
        "addr:state": "WI",
        "addr:street": "Camp Nebagamon Drive",
        "name": "Camp Nebagamon",
        "tourism": "camp_site",
        "type": "multipolygon",
        "osm_id": 10992766,
        "sources": [
          "unknown"
        ]
      }
    },
    {
      "type": "Feature",
      "geometry": {
        "type": "Point",
        "coordinates": [
          -91.7517547,
          46.4753419
        ]
      },
      "properties": {
        "addr:city": "Lake Nebagamon",
        "addr:housenumber": "8084",
        "addr:postcode": "54849",
        "addr:state": "WI",
        "addr:street": "Minnesuing Acres Drive",
        "description": "Private retreat center",
        "fee": "yes",
        "name": "Minnesuing Acres",
        "tourism": "camp_site",
        "type": "multipolygon",
        "website": "https://www.minnesuingacres.com/",
        "osm_id": 10994087,
        "sources": [
          "unknown"
        ]
      }
    },
    {
      "type": "Feature",
      "geometry": {
        "type": "Point",
        "coordinates": [
          -91.8276211,
          46.6839946
        ]
      },
      "properties": {
        "addr:city": "South Range",
        "addr:housenumber": "8450",
        "addr:postcode": "54874",
        "addr:state": "WI",
        "addr:street": "East Camp Amnicon Road",
        "name": "Camp Amnicon",
        "tourism": "camp_site",
        "type": "multipolygon",
        "website": "https://amnicon.org/",
        "osm_id": 10995747,
        "sources": [
          "unknown"
        ]
      }
    },
    {
      "type": "Feature",
      "geometry": {
        "type": "Point",
        "coordinates": [
          -91.832182,
          45.6229855
        ]
      },
      "properties": {
        "addr:city": "Rice Lake",
        "addr:housenumber": "2900",
        "addr:postcode": "54868",
        "addr:state": "WI",
        "addr:street": "16th Street",
        "name": "L.E. Phillips Scout Reservation",
        "operator": "Chippewa Valley Council of Boy Scouts of America",
        "tourism": "camp_site",
        "type": "multipolygon",
        "website": "https://campphillips.org/",
        "osm_id": 11030401,
        "sources": [
          "unknown"
        ]
      }
    },
    {
      "type": "Feature",
      "geometry": {
        "type": "Point",
        "coordinates": [
          -91.6842515,
          45.7116244
        ]
      },
      "properties": {
        "access": "private",
        "addr:city": "Birchwood",
        "addr:housenumber": "N1910",
        "addr:postcode": "54817",
        "addr:state": "WI",
        "addr:street": "Scout Road",
        "contact:facebook": "https://www.facebook.com/camptomahawk/",
        "name": "Tomahawk Scout Reservation",
        "operator": "Northern Star Scouting",
        "scout": "yes",
        "tourism": "camp_site",
        "type": "multipolygon",
        "website": "https://www.camptomahawk.org/",
        "osm_id": 11030455,
        "sources": [
          "unknown"
        ]
      }
    },
    {
      "type": "Feature",
      "geometry": {
        "type": "Point",
        "coordinates": [
          -92.4538901,
          45.3746206
        ]
      },
      "properties": {
        "addr:city": "Amery",
        "addr:housenumber": "1442",
        "addr:postcode": "54001",
        "addr:state": "WI",
        "addr:street": "120th Avenue",
        "denomination": "lutheran",
        "name": "Ox Lake Bible Camp",
        "operator": "Lake Wapogasset Lutheran Bible Camp",
        "religion": "christian",
        "tourism": "camp_site",
        "type": "multipolygon",
        "osm_id": 11048923,
        "sources": [
          "unknown"
        ]
      }
    },
    {
      "type": "Feature",
      "geometry": {
        "type": "Point",
        "coordinates": [
          -92.4158345,
          45.3196746
        ]
      },
      "properties": {
        "addr:city": "Amery",
        "addr:housenumber": "738",
        "addr:postcode": "54001",
        "addr:state": "WI",
        "addr:street": "Hickory Point Lane",
        "denomination": "lutheran",
        "name": "Wapo Bible Camp",
        "operator": "Lake Wapogasset Bible Camp",
        "religion": "christian",
        "tourism": "camp_site",
        "type": "multipolygon",
        "osm_id": 11048977,
        "sources": [
          "unknown"
        ]
      }
    },
    {
      "type": "Feature",
      "geometry": {
        "type": "Point",
        "coordinates": [
          -90.6862463,
          44.4547501
        ]
      },
      "properties": {
        "access": "yes",
        "addr:city": "Neillsville",
        "addr:housenumber": "n1035",
        "addr:postcode": "54456",
        "addr:state": "WI",
        "addr:street": "Riviera Avenue",
        "name": "Riviera Resort & Campgrounds",
        "phone": "+1 715 743 4553",
        "tourism": "camp_site",
        "type": "multipolygon",
        "website": "https://rivieraresortandcampground.com/",
        "osm_id": 11107111,
        "sources": [
          "unknown"
        ]
      }
    },
    {
      "type": "Feature",
      "geometry": {
        "type": "Point",
        "coordinates": [
          -89.6506855,
          45.8917505
        ]
      },
      "properties": {
        "name": "Madeline Lake Resort",
        "tourism": "caravan_site",
        "type": "multipolygon",
        "osm_id": 11168665,
        "sources": [
          "unknown"
        ]
      }
    },
    {
      "type": "Feature",
      "geometry": {
        "type": "Point",
        "coordinates": [
          -90.0575317,
          46.167284
        ]
      },
      "properties": {
        "access": "customers",
        "addr:city": "Mercer",
        "addr:housenumber": "2580",
        "addr:postcode": "54547",
        "addr:state": "WI",
        "addr:street": "Margaret Street",
        "charge": "24 USD",
        "contact:website": "http://loonlagoon.org/",
        "fee": "yes",
        "name": "Loon Lagoon Campground and R.V. Park",
        "power_supply": "yes",
        "sanitary_dump_station": "yes",
        "tents": "yes",
        "tourism": "caravan_site",
        "type": "multipolygon",
        "osm_id": 11176542,
        "sources": [
          "unknown"
        ]
      }
    },
    {
      "type": "Feature",
      "geometry": {
        "type": "Point",
        "coordinates": [
          -91.1415724,
          43.0269289
        ]
      },
      "properties": {
        "name": "Big River Campground",
        "tourism": "camp_site",
        "type": "multipolygon",
        "osm_id": 11248362,
        "sources": [
          "unknown"
        ]
      }
    },
    {
      "type": "Feature",
      "geometry": {
        "type": "Point",
        "coordinates": [
          -91.0266305,
          42.9891829
        ]
      },
      "properties": {
        "addr:city": "Prairie du Chien",
        "addr:housenumber": "11815",
        "addr:postcode": "53821",
        "addr:state": "WI",
        "addr:street": "Munz Lane",
        "name": "Wisconsin Badger Camp",
        "tourism": "camp_site",
        "type": "multipolygon",
        "website": "https://www.badgercamp.org/",
        "osm_id": 11256105,
        "sources": [
          "unknown"
        ]
      }
    },
    {
      "type": "Feature",
      "geometry": {
        "type": "Point",
        "coordinates": [
          -88.0455309,
          43.5187579
        ]
      },
      "properties": {
        "addr:city": "Fredonia",
        "addr:housenumber": "9009",
        "addr:state": "WI",
        "addr:street": "Camp Awana Road",
        "name": "Camp Awana",
        "tourism": "camp_site",
        "type": "multipolygon",
        "osm_id": 11300345,
        "sources": [
          "unknown"
        ]
      }
    },
    {
      "type": "Feature",
      "geometry": {
        "type": "Point",
        "coordinates": [
          -88.1110279,
          43.4593832
        ]
      },
      "properties": {
        "name": "Lazy Days Campground",
        "tourism": "camp_site",
        "type": "multipolygon",
        "osm_id": 11341380,
        "sources": [
          "unknown"
        ]
      }
    },
    {
      "type": "Feature",
      "geometry": {
        "type": "Point",
        "coordinates": [
          -89.5187173,
          43.3918461
        ]
      },
      "properties": {
        "name": "Lake Wisconsin Campground",
        "tourism": "camp_site",
        "type": "multipolygon",
        "osm_id": 11341752,
        "sources": [
          "unknown"
        ]
      }
    },
    {
      "type": "Feature",
      "geometry": {
        "type": "Point",
        "coordinates": [
          -88.1896167,
          43.2211518
        ]
      },
      "properties": {
        "addr:city": "Hubertus",
        "addr:housenumber": "875",
        "addr:postcode": "53033",
        "addr:state": "WI",
        "addr:street": "Amy Belle Lane",
        "name": "YMCA Camp Minikani",
        "operator": "YMCA of Metropolitian Milwaukee",
        "owner": "YMCA of Metropolitian Milwaukee",
        "tourism": "camp_site",
        "type": "multipolygon",
        "website": "https://www.minikani.org/",
        "osm_id": 11488553,
        "sources": [
          "unknown"
        ]
      }
    },
    {
      "type": "Feature",
      "geometry": {
        "type": "Point",
        "coordinates": [
          -88.4382608,
          45.1157538
        ]
      },
      "properties": {
        "access": "customers",
        "addr:city": "Suring",
        "addr:housenumber": "12101",
        "addr:postcode": "54174",
        "addr:state": "WI",
        "addr:street": "Y Camp Road",
        "name": "Camp U-Nah-Li-Ya",
        "tourism": "camp_site",
        "type": "multipolygon",
        "osm_id": 11491679,
        "sources": [
          "unknown"
        ]
      }
    },
    {
      "type": "Feature",
      "geometry": {
        "type": "Point",
        "coordinates": [
          -89.2672653,
          45.6438554
        ]
      },
      "properties": {
        "name": "Camp Deerhorn",
        "tourism": "camp_site",
        "type": "multipolygon",
        "osm_id": 11506153,
        "sources": [
          "unknown"
        ]
      }
    },
    {
      "type": "Feature",
      "geometry": {
        "type": "Point",
        "coordinates": [
          -91.4453223,
          45.2884782
        ]
      },
      "properties": {
        "addr:city": "New Auburn",
        "addr:housenumber": "30765",
        "addr:postcode": "54757",
        "addr:state": "WI",
        "addr:street": "117th Street",
        "name": "Arrowhead Bible Camp",
        "religion": "christian",
        "tourism": "camp_site",
        "type": "multipolygon",
        "website": "https://www.abcamp.org/",
        "osm_id": 11533026,
        "sources": [
          "unknown"
        ]
      }
    },
    {
      "type": "Feature",
      "geometry": {
        "type": "Point",
        "coordinates": [
          -91.4031313,
          45.2451545
        ]
      },
      "properties": {
        "addr:city": "New Auburn",
        "addr:housenumber": "27960",
        "addr:postcode": "54757",
        "addr:state": "WI",
        "addr:street": "137th Street",
        "fee": "yes",
        "name": "Camp Manitou",
        "operator": "YMCA of the Chippewa Valley",
        "owner": "YMCA of the Chippewa Valley",
        "tourism": "camp_site",
        "type": "multipolygon",
        "website": "https://www.ycampmanitou.org/",
        "osm_id": 11533212,
        "sources": [
          "unknown"
        ]
      }
    },
    {
      "type": "Feature",
      "geometry": {
        "type": "Point",
        "coordinates": [
          -89.1507333,
          45.9098045
        ]
      },
      "properties": {
        "addr:city": "Eagle River",
        "addr:housenumber": "3165",
        "addr:postcode": "54521",
        "addr:state": "WI",
        "addr:street": "Campground Road",
        "brand": "KOA",
        "brand:wikidata": "Q16988635",
        "name": "Chain Oâ€™ Lakes Resort & Campground",
        "operator": "KOA",
        "short_name": "KOA",
        "tourism": "caravan_site",
        "type": "multipolygon",
        "osm_id": 11593727,
        "sources": [
          "unknown"
        ]
      }
    },
    {
      "type": "Feature",
      "geometry": {
        "type": "Point",
        "coordinates": [
          -91.2354002,
          46.090873
        ]
      },
      "properties": {
        "addr:city": "Hayward",
        "addr:housenumber": "10970",
        "addr:postcode": "54843",
        "addr:state": "WI",
        "addr:street": "West Boys Camp Road",
        "fee": "yes",
        "name": "North Star Camp",
        "tourism": "camp_site",
        "type": "multipolygon",
        "website": "https://northstarcamp.com/",
        "osm_id": 11599577,
        "sources": [
          "unknown"
        ]
      }
    },
    {
      "type": "Feature",
      "geometry": {
        "type": "Point",
        "coordinates": [
          -89.5199336,
          45.9256212
        ]
      },
      "properties": {
        "fee": "yes",
        "internet_access": "yes",
        "internet_access:fee": "yes",
        "name": "Lynn Anne's Campground",
        "tourism": "camp_site",
        "type": "multipolygon",
        "osm_id": 11695479,
        "sources": [
          "unknown"
        ]
      }
    },
    {
      "type": "Feature",
      "geometry": {
        "type": "Point",
        "coordinates": [
          -89.428015,
          45.9193222
        ]
      },
      "properties": {
        "addr:city": "St. Germain",
        "addr:housenumber": "1467",
        "addr:postcode": "54558",
        "addr:state": "WI",
        "addr:street": "Moon Beach Road",
        "name": "Moon Beach",
        "operator": "United Church Camps",
        "tourism": "camp_site",
        "type": "multipolygon",
        "osm_id": 11696745,
        "sources": [
          "unknown"
        ]
      }
    },
    {
      "type": "Feature",
      "geometry": {
        "type": "Point",
        "coordinates": [
          -91.2640449,
          46.4969671
        ]
      },
      "properties": {
        "name": "Camp Northwoods",
        "operator": "Girl Scouts of Minnesota and Wisconsin River Valleys",
        "tourism": "camp_site",
        "type": "multipolygon",
        "osm_id": 11851617,
        "sources": [
          "unknown"
        ]
      }
    },
    {
      "type": "Feature",
      "geometry": {
        "type": "Point",
        "coordinates": [
          -91.8242976,
          45.9095255
        ]
      },
      "properties": {
        "addr:city": "Trego",
        "addr:housenumber": "W5665",
        "addr:postcode": "54888",
        "addr:state": "WI",
        "addr:street": "Trego Park Road",
        "charge": "26 USD",
        "drinking_water": "yes",
        "fee": "yes",
        "name": "Trego Town Park",
        "phone": "+1-715-635-6075",
        "power_supply": "yes",
        "toilets": "yes",
        "tourism": "caravan_site",
        "tourism_1": "camp_site",
        "type": "multipolygon",
        "website": "http://www.washburncounty.org/service/392#",
        "osm_id": 11924905,
        "sources": [
          "unknown"
        ]
      }
    },
    {
      "type": "Feature",
      "geometry": {
        "type": "Point",
        "coordinates": [
          -89.27671,
          45.6645038
        ]
      },
      "properties": {
        "name": "Camp Horsehoe",
        "tourism": "camp_site",
        "type": "multipolygon",
        "website": "https://www.camphorseshoe.com/",
        "osm_id": 11948952,
        "sources": [
          "unknown"
        ]
      }
    },
    {
      "type": "Feature",
      "geometry": {
        "type": "Point",
        "coordinates": [
          -89.6426624,
          45.8420108
        ]
      },
      "properties": {
        "access": "customers",
        "name": "Indian Shores Camping and Cottage Resort",
        "tourism": "camp_site",
        "type": "multipolygon",
        "website": "https://www.indian-shores.com/",
        "osm_id": 11959441,
        "sources": [
          "unknown"
        ]
      }
    },
    {
      "type": "Feature",
      "geometry": {
        "type": "Point",
        "coordinates": [
          -92.7608388,
          45.0952616
        ]
      },
      "properties": {
        "addr:city": "Houlton",
        "addr:housenumber": "168",
        "addr:postcode": "54082",
        "addr:state": "WI",
        "addr:street": "Andersen Scout Camp Trail",
        "leisure": "summer_camp",
        "name": "Fred C. Andersen Scout Camp",
        "tourism": "camp_site",
        "type": "multipolygon",
        "osm_id": 12201883,
        "sources": [
          "unknown"
        ]
      }
    },
    {
      "type": "Feature",
      "geometry": {
        "type": "Point",
        "coordinates": [
          -89.8088448,
          43.580779
        ]
      },
      "properties": {
        "name": "Camp Delton Club",
        "tourism": "camp_site",
        "type": "multipolygon",
        "osm_id": 12322385,
        "sources": [
          "unknown"
        ]
      }
    },
    {
      "type": "Feature",
      "geometry": {
        "type": "Point",
        "coordinates": [
          -89.8000709,
          43.5766598
        ]
      },
      "properties": {
        "addr:city": "Baraboo",
        "addr:housenumber": "S1915",
        "addr:postcode": "53913",
        "addr:state": "WI",
        "addr:street": "Ishnala Road",
        "brand": "Yogi Bear's Jellystone Park",
        "brand:wikidata": "Q8054389",
        "name": "Yogi Bear's Jellystone Park",
        "official_name": "Yogi Bear's Jellystone Park Camp-Resorts",
        "phone": "+1-800-462-9644",
        "source": "Yogi Bear's Jellystone Campground",
        "tourism": "caravan_site",
        "type": "multipolygon",
        "website": "https://dellsjellystone.com/",
        "wikipedia": "en:Yogi Bear's Jellystone Park Camp-Resorts",
        "osm_id": 12332012,
        "sources": [
          "Yogi Bear's Jellystone Campground"
        ]
      }
    },
    {
      "type": "Feature",
      "geometry": {
        "type": "Point",
        "coordinates": [
          -92.2023053,
          44.4532844
        ]
      },
      "properties": {
        "name": "Camp Pepin",
        "operator": "Red Wing Family YMCA",
        "tourism": "camp_site",
        "type": "multipolygon",
        "osm_id": 12426764,
        "sources": [
          "unknown"
        ]
      }
    },
    {
      "type": "Feature",
      "geometry": {
        "type": "Point",
        "coordinates": [
          -90.8883759,
          46.945741
        ]
      },
      "properties": {
        "addr:city": "Bayfield",
        "addr:housenumber": "32665",
        "addr:postcode": "54814",
        "addr:state": "WI",
        "addr:street": "Little Sand Bay Road",
        "capacity:caravans": "32",
        "capacity:tents": "14",
        "caravans": "yes",
        "dog": "leashed",
        "fee": "yes",
        "name": "Little Sand Bay Campground",
        "operator": "Town of Russell",
        "operator:type": "government",
        "power_supply": "yes",
        "shower": "yes",
        "tents": "yes",
        "tourism": "camp_site",
        "type": "multipolygon",
        "website": "https://townofrussellwi.gov/little-sand-bay-recreation-area/",
        "osm_id": 12652977,
        "sources": [
          "unknown"
        ]
      }
    },
    {
      "type": "Feature",
      "geometry": {
        "type": "Point",
        "coordinates": [
          -91.3014968,
          46.4751869
        ]
      },
      "properties": {
        "addr:city": "Iron River",
        "addr:housenumber": "62020",
        "addr:postcode": "54847",
        "addr:state": "WI",
        "addr:street": "County Highway H",
        "fee": "yes",
        "name": "Delta Lake Campground",
        "operator": "Bayfield County",
        "owner": "Bayfield County",
        "tourism": "camp_site",
        "type": "multipolygon",
        "osm_id": 12659573,
        "sources": [
          "unknown"
        ]
      }
    },
    {
      "type": "Feature",
      "geometry": {
        "type": "Point",
        "coordinates": [
          -91.3584016,
          46.5078077
        ]
      },
      "properties": {
        "addr:city": "Iron River",
        "addr:housenumber": "10370",
        "addr:postcode": "54847",
        "addr:state": "WI",
        "addr:street": "County Highway H",
        "fee": "yes",
        "name": "Twin Lakes Campground",
        "operator": "Bayfield County",
        "owner": "Bayfield County",
        "tourism": "camp_site",
        "type": "multipolygon",
        "osm_id": 12659576,
        "sources": [
          "unknown"
        ]
      }
    },
    {
      "type": "Feature",
      "geometry": {
        "type": "Point",
        "coordinates": [
          -91.1292681,
          46.7986523
        ]
      },
      "properties": {
        "access": "yes",
        "addr:city": "Cornucopia",
        "addr:housenumber": "21255",
        "addr:postcode": "54827",
        "addr:state": "WI",
        "addr:street": "Siskiwit Lake Drive",
        "alt_name": "Town of Bell Campground",
        "alt_name_2": "Siskiwit Campground",
        "fee": "yes",
        "name": "Siskiwit Lake Campground",
        "operator": "Town of Bell",
        "operator:type": "government",
        "owner": "Town of Bell",
        "tourism": "camp_site",
        "type": "multipolygon",
        "osm_id": 12661502,
        "sources": [
          "unknown"
        ]
      }
    },
    {
      "type": "Feature",
      "geometry": {
        "type": "Point",
        "coordinates": [
          -86.7045752,
          46.439031
        ]
      },
      "properties": {
        "addr:city": "Christmas",
        "addr:housenumber": "7793",
        "addr:postcode": "49862",
        "addr:state": "MI",
        "addr:street": "Scrooge's Alley",
        "backcountry": "no",
        "caravans": "no",
        "fee": "yes",
        "group_only": "no",
        "name": "Paddler's Village",
        "operator": "Uncle Ducky Outdoors LLC",
        "tents": "yes",
        "tourism": "camp_site",
        "type": "multipolygon",
        "website": "https://www.paddlingmichigan.com/lodging/paddlers-village/",
        "osm_id": 12752173,
        "sources": [
          "unknown"
        ]
      }
    },
    {
      "type": "Feature",
      "geometry": {
        "type": "Point",
        "coordinates": [
          -92.0331612,
          43.712889
        ]
      },
      "properties": {
        "name": "The Old Barn Resort",
        "tourism": "camp_site",
        "type": "multipolygon",
        "osm_id": 13231946,
        "sources": [
          "unknown"
        ]
      }
    },
    {
      "type": "Feature",
      "geometry": {
        "type": "Point",
        "coordinates": [
          -90.8271972,
          46.9310389
        ]
      },
      "properties": {
        "access": "permit",
        "alt_name": "Raspberry Bay Campground",
        "name": "Raspberry Tribal Campground",
        "operator": "Red Cliff Band of Lake Superior Chippewa",
        "tourism": "camp_site",
        "type": "multipolygon",
        "osm_id": 13552194,
        "sources": [
          "unknown"
        ]
      }
    },
    {
      "type": "Feature",
      "geometry": {
        "type": "Point",
        "coordinates": [
          -89.8580373,
          46.0311784
        ]
      },
      "properties": {
        "access": "private",
        "addr:city": "Lac du Flambeau",
        "addr:housenumber": "13400",
        "addr:postcode": "54538",
        "addr:state": "WI",
        "addr:street": "Camp Nawakwa Lane",
        "fee": "yes",
        "name": "YMCA Family Camp Nawakwa",
        "operator": "YMCA of Metro Chicago",
        "tourism": "camp_site",
        "type": "multipolygon",
        "website": "https://www.ymcachicago.org/nawakwa/",
        "osm_id": 13592936,
        "sources": [
          "unknown"
        ]
      }
    },
    {
      "type": "Feature",
      "geometry": {
        "type": "Point",
        "coordinates": [
          -91.8248997,
          45.9066041
        ]
      },
      "properties": {
        "addr:city": "Trego",
        "addr:housenumber": "N7470",
        "addr:postcode": "54888",
        "addr:state": "WI",
        "addr:street": "Log Cabin Drive",
        "fee": "yes",
        "name": "Log Cabin Resort",
        "phone": "+1-715-635-2959",
        "tourism": "caravan_site",
        "tourism_1": "camp_site",
        "type": "multipolygon",
        "website": "https://www.logcabin-resort.com/",
        "osm_id": 13632003,
        "sources": [
          "unknown"
        ]
      }
    },
    {
      "type": "Feature",
      "geometry": {
        "type": "Point",
        "coordinates": [
          -91.9208237,
          46.1539912
        ]
      },
      "properties": {
        "access": "private",
        "addr:city": "Minong",
        "addr:housenumber": "W7471",
        "addr:postcode": "54859",
        "addr:state": "WI",
        "addr:street": "Ernie Swift Road",
        "fee": "yes",
        "name": "Swift Nature Camp",
        "tourism": "camp_site",
        "type": "multipolygon",
        "website": "https://swiftnaturecamp.com/",
        "osm_id": 13671383,
        "sources": [
          "unknown"
        ]
      }
    },
    {
      "type": "Feature",
      "geometry": {
        "type": "Point",
        "coordinates": [
          -88.9723371,
          45.3691546
        ]
      },
      "properties": {
        "access": "private",
        "addr:city": "Pearson",
        "addr:housenumber": "W6500",
        "addr:postcode": "54462",
        "addr:state": "WI",
        "addr:street": "Spring Lake Road",
        "boundary": "protected_area",
        "caravans": "no",
        "description": "For Scout groups and invited guests only.  Please go to www.Makajawan.com or www.neic.org to learn more.",
        "group_only": "yes",
        "leisure": "nature_reserve",
        "name": "Ma-Ka-Ja-Wan Scout Reservation",
        "operator": "Northeast Illinois Council, BSA",
        "owner": "Northeast Illinois Council, Boy Scouts of America",
        "scout": "yes",
        "static_caravans": "no",
        "tents": "no",
        "tourism": "camp_site",
        "type": "multipolygon",
        "website": "https://makajawan.com/",
        "wikidata": "Q106613389",
        "osm_id": 13899901,
        "sources": [
          "unknown"
        ]
      }
    },
    {
      "type": "Feature",
      "geometry": {
        "type": "Point",
        "coordinates": [
          -87.8162823,
          45.4180391
        ]
      },
      "properties": {
        "ele": "215",
        "gnis:feature_id": "2099841",
        "leisure": "park",
        "name": "Shakey Lakes County Park",
        "operator": "Menominee County",
        "tourism": "camp_site",
        "type": "multipolygon",
        "website": "https://www.menomineecounty.com/departments/?department=0bcae89629ee&subdepartment=76254c404220",
        "wikidata": "Q49560294",
        "osm_id": 13933473,
        "sources": [
          "unknown"
        ]
      }
    },
    {
      "type": "Feature",
      "geometry": {
        "type": "Point",
        "coordinates": [
          -89.9131369,
          45.9699859
        ]
      },
      "properties": {
        "caravans": "yes",
        "drinking_water": "yes",
        "fee": "yes",
        "name": "Lac du Flambeau Tribal Campground",
        "operator": "Lac du Flambeau Band of Lake Superior Chippewa Indians",
        "reservation": "yes",
        "shower": "yes",
        "source": "Local knowledge",
        "tents": "yes",
        "toilets": "yes",
        "tourism": "camp_site",
        "type": "multipolygon",
        "osm_id": 14033249,
        "sources": [
          "Local knowledge"
        ]
      }
    },
    {
      "type": "Feature",
      "geometry": {
        "type": "Point",
        "coordinates": [
          -90.8809761,
          46.9420071
        ]
      },
      "properties": {
        "access": "private",
        "addr:city": "Bayfield",
        "addr:housenumber": "33095",
        "addr:postcode": "54814",
        "addr:state": "WI",
        "addr:street": "Little Sand Bay Road",
        "fee": "yes",
        "name": "Wilderness Inquiry Little Sand Bay Base Camp",
        "tourism": "camp_site",
        "type": "multipolygon",
        "osm_id": 14226426,
        "sources": [
          "unknown"
        ]
      }
    },
    {
      "type": "Feature",
      "geometry": {
        "type": "Point",
        "coordinates": [
          -90.8748208,
          46.9591274
        ]
      },
      "properties": {
        "addr:city": "Red Cliff",
        "addr:housenumber": "95995",
        "addr:postcode": "54814",
        "addr:state": "WI",
        "addr:street": "Point Detour Road",
        "capacity": "25",
        "charge": "25 USD",
        "fee": "yes",
        "name": "Point Detour â€œWildernessâ€ Campground",
        "operator": "Legendary Waters Casino",
        "reservation": "no",
        "toilets": "yes",
        "tourism": "camp_site",
        "type": "multipolygon",
        "website": "http://legendarywaters.com/campground-marina/",
        "osm_id": 14237222,
        "sources": [
          "unknown"
        ]
      }
    },
    {
      "type": "Feature",
      "geometry": {
        "type": "Point",
        "coordinates": [
          -88.5172717,
          44.2513051
        ]
      },
      "properties": {
        "description": "Campground open during EAA Airventure.",
        "fee": "yes",
        "internet_access": "yes",
        "name": "Camp Flying Fox",
        "operator": "Appleton International Airport",
        "start_date": "July, 2017",
        "tourism": "camp_site",
        "type": "multipolygon",
        "website": "https://www.platinumflightcenter.com/camping-at-atw/",
        "osm_id": 14260050,
        "sources": [
          "unknown"
        ]
      }
    },
    {
      "type": "Feature",
      "geometry": {
        "type": "Point",
        "coordinates": [
          -89.1301102,
          45.930626
        ]
      },
      "properties": {
        "access": "private",
        "addr:city": "Eagle River",
        "addr:housenumber": "1767",
        "addr:postcode": "54521",
        "addr:state": "WI",
        "addr:street": "East Bass Lake Road",
        "fee": "yes",
        "name": "Camp Balsams",
        "operator": "Middleton Community United Church of Christ",
        "tourism": "camp_site",
        "type": "multipolygon",
        "osm_id": 16519433,
        "sources": [
          "unknown"
        ]
      }
    },
    {
      "type": "Feature",
      "geometry": {
        "type": "Point",
        "coordinates": [
          -90.6736422,
          46.796556
        ]
      },
      "properties": {
        "access": "yes",
        "area": "yes",
        "drinking_water": "yes",
        "fee": "yes",
        "name": "Big Bay State Park Campground",
        "operator": "Wisconsin Department of Natural Resources",
        "operator:short": "Wisconsin DNR",
        "operator:type": "government",
        "operator:website": "https://dnr.wisconsin.gov/topic/Parks",
        "operator:wikidata": "Q1467508",
        "operator:wikipedia": "en:Wisconsin Department of Natural Resources",
        "power_supply": "yes",
        "reservation": "required",
        "shower": "yes",
        "toilets": "yes",
        "tourism": "camp_site",
        "type": "multipolygon",
        "osm_id": 16650858,
        "sources": [
          "unknown"
        ]
      }
    },
    {
      "type": "Feature",
      "geometry": {
        "type": "Point",
        "coordinates": [
          -89.08309,
          46.26727
        ]
      },
      "properties": {
        "access": "yes",
        "capacity:caravans": "39",
        "caravans": "yes",
        "charge": "16 USD",
        "drinking_water": "yes",
        "fee": "yes",
        "gnis:feature_id": "1622294",
        "name": "Marion Lake Campground",
        "operator": "Northwoods Property Management",
        "owner": "United States Forest Service",
        "payment:cash": "yes",
        "payment:cheque": "yes",
        "phone": "+1-906-396-5428",
        "tents": "yes",
        "tourism": "camp_site",
        "type": "multipolygon",
        "website": "https://www.fs.usda.gov/recarea/ottawa/recreation/camping-cabins/recarea/?recid=12334&actid=29",
        "osm_id": 17342645,
        "sources": [
          "unknown"
        ]
      }
    },
    {
      "type": "Feature",
      "geometry": {
        "type": "Point",
        "coordinates": [
          -89.0743786,
          46.219145
        ]
      },
      "properties": {
        "access": "yes",
        "capacity:caravans": "22",
        "caravans": "yes",
        "charge": "16 USD",
        "drinking_water": "yes",
        "fee": "yes",
        "gnis:feature_id": "1622347",
        "name": "Imp Lake Campground",
        "operator": "Northwoods Property Management",
        "owner": "United States Forest Service",
        "payment:cash": "yes",
        "payment:cheque": "yes",
        "phone": "+1-906-396-5428",
        "tourism": "camp_site",
        "type": "multipolygon",
        "website": "https://www.fs.usda.gov/recarea/ottawa/recreation/camping-cabins/recarea/?recid=12333&actid=29",
        "osm_id": 17342739,
        "sources": [
          "unknown"
        ]
      }
    },
    {
      "type": "Feature",
      "geometry": {
        "type": "Point",
        "coordinates": [
          -86.4775934,
          43.6720777
        ]
      },
      "properties": {
        "addr:city": "Mears",
        "addr:housenumber": "1441",
        "addr:postcode": "49436",
        "addr:state": "MI",
        "addr:street": "North 34th Avenue",
        "gnis:feature_id": "2515824",
        "name": "Silver Creek RV Resort",
        "phone": "+1-231-873-9200",
        "tourism": "caravan_site",
        "type": "multipolygon",
        "osm_id": 17414397,
        "sources": [
          "unknown"
        ]
      }
    },
    {
      "type": "Feature",
      "geometry": {
        "type": "Point",
        "coordinates": [
          -86.2266102,
          43.3177201
        ]
      },
      "properties": {
        "addr:city": "Muskegon",
        "addr:housenumber": "3500",
        "addr:postcode": "49445",
        "addr:state": "MI",
        "addr:street": "Strand Road",
        "gnis:feature_id": "2571873",
        "name": "Muskegon KOA Campground",
        "phone": "+1-231-766-3900",
        "tents": "yes",
        "tourism": "caravan_site",
        "type": "multipolygon",
        "website": "https://koa.com/campgrounds/muskegon/",
        "osm_id": 17597473,
        "sources": [
          "unknown"
        ]
      }
    },
    {
      "type": "Feature",
      "geometry": {
        "type": "Point",
        "coordinates": [
          -87.33522,
          45.7006758
        ]
      },
      "properties": {
        "name": "Island Resort and Casino RV Park",
        "phone": "+1-877-475-7375",
        "tourism": "caravan_site",
        "type": "multipolygon",
        "website": "https://www.islandresortandcasino.com/hotel/rv-park",
        "osm_id": 17687674,
        "sources": [
          "unknown"
        ]
      }
    },
    {
      "type": "Feature",
      "geometry": {
        "type": "Point",
        "coordinates": [
          -90.9353846,
          46.9801698
        ]
      },
      "properties": {
        "access": "yes",
        "caravans": "no",
        "fee": "yes",
        "name": "Sand Island East Dock Campsites",
        "operator": "National Park Service",
        "operator:short": "NPS",
        "operator:type": "public",
        "operator:wikidata": "Q308439",
        "operator:wikipedia": "en:National Park Service",
        "picnic_table": "yes",
        "static_caravans": "no",
        "tents": "yes",
        "toilets": "yes",
        "tourism": "camp_site",
        "type": "multipolygon",
        "osm_id": 17918377,
        "sources": [
          "unknown"
        ]
      }
    },
    {
      "type": "Feature",
      "geometry": {
        "type": "Point",
        "coordinates": [
          -87.9960836,
          43.7930127
        ]
      },
      "properties": {
        "name": "Camping Zone 4 West",
        "tourism": "camp_site",
        "type": "multipolygon",
        "osm_id": 17976892,
        "sources": [
          "unknown"
        ]
      }
    },
    {
      "type": "Feature",
      "geometry": {
        "type": "Point",
        "coordinates": [
          -90.8800941,
          46.6766126
        ]
      },
      "properties": {
        "caravans": "yes",
        "drinking_water": "yes",
        "fee": "yes",
        "group_only": "no",
        "name": "Memorial Park Campground",
        "operator": "City of Washburn",
        "operator:type": "government",
        "picnic_table": "yes",
        "reservation": "no",
        "sanitary_dump_station": "yes",
        "shower": "yes",
        "tents": "yes",
        "toilets": "yes",
        "tourism": "camp_site",
        "type": "multipolygon",
        "osm_id": 18075259,
        "sources": [
          "unknown"
        ]
      }
    },
    {
      "type": "Feature",
      "geometry": {
        "type": "Point",
        "coordinates": [
          -86.2653447,
          43.4565906
        ]
      },
      "properties": {
        "addr:city": "Montague",
        "addr:housenumber": "735",
        "addr:postcode": "49437",
        "addr:state": "MI",
        "addr:street": "West Fruitvale Road",
        "gnis:feature_id": "2571934",
        "name": "White River Campground",
        "phone": "+1-231-894-4708",
        "tourism": "caravan_site",
        "type": "multipolygon",
        "website": "https://whiterivercampground.com/",
        "osm_id": 18818011,
        "sources": [
          "unknown"
        ]
      }
    },
    {
      "type": "Feature",
      "geometry": {
        "type": "Point",
        "coordinates": [
          -88.3781907,
          42.8118979
        ]
      },
      "properties": {
        "addr:city": "East Troy",
        "addr:postcode": "53120",
        "addr:state": "WI",
        "name": "Army Lake Camp",
        "operator": "Salvation Army",
        "religion": "christian",
        "tourism": "camp_site",
        "type": "multipolygon",
        "osm_id": 19186722,
        "sources": [
          "unknown"
        ]
      }
    },
    {
      "type": "Feature",
      "geometry": {
        "type": "Point",
        "coordinates": [
          -90.8366846,
          46.804578
        ]
      },
      "properties": {
        "addr:city": "Bayfield",
        "addr:housenumber": "85150",
        "addr:postcode": "54814",
        "addr:state": "WI",
        "addr:street": "Trailer Court Rd.",
        "backcountry": "no",
        "capacity": "63",
        "caravans": "yes",
        "drinking_water": "yes",
        "group_only": "no",
        "internet_access": "wlan",
        "name": "Apostle Islands Area Campground",
        "power_supply": "yes",
        "reservation": "required",
        "tents": "yes",
        "toilets": "yes",
        "tourism": "camp_site",
        "type": "multipolygon",
        "website": "https://www.aiacamping.com/",
        "osm_id": 19260433,
        "sources": [
          "unknown"
        ]
      }
    }
  ]
}